"Entry","Name","Origin","Source","Lat","Lon","CollDate","CollDate_Group","a","b","c","DTF_Cluster","DTF_PC1","DTF_PC2","DTF_PC3","myG_PC1","myG_PC2","myG_PC3","STR_Group","G1","G2","G3","G4","G5","G6","G7","G8","Region","SubRegion","ISO3","Country_Lat","Country_Lon","Size","SeedMass1000","diameter","CotyledonColor","TestaColor","TestaPattern","BlackTesta","Urls"
1,"CDC Asterix AGL","Canada","USASK",52.137,-106.622,2012,"2000-2014",-0.0187716662822634,0.000337218421340274,0.00204558652125348,7,3.54448236194707,0.440814288712303,0.0751601069104444,-164.321714300385,159.353746264559,5.0014785785779,"G8",0,0,0,0,0,0,0.048938,0.951062,"Americas","Northern America","CAN",52.137,-106.622,"M",29.5890410958904,0.44,"Yellow","Green","Absent","Absent",NA
2,"CDC Rosie AGL","Canada","USASK",52.137,-106.622,2012,"2000-2014",-0.0146750282064116,0.000352470560585572,0.00169075691987598,8,3.52849023924396,3.67895312692245,0.505575228054782,-139.215434702678,156.565417880503,3.51983146903173,"G8",0,0,0,0,0,0,0,1,"Americas","Northern America","CAN",52.137,-106.622,"M",34.4420131291028,0.444,"Red","Grey","Absent","Absent",NA
3,"3156-11 AGL","Canada","USASK",52.137,-106.622,NA,NA,-0.0138803729777879,0.000356250257589655,0.00158730410706612,8,5.62048372566636,4.4241223530683,0.560729505173675,-171.719462327493,101.42206934835,-3.15651083058213,"G8",0,0,0,0,0,0,0.169824,0.830176,"Americas","Northern America","CAN",52.137,-106.622,"M",45.5729166666667,0.495,"Red","Grey","Absent","Absent",NA
4,"CDC Greenstar AGL","Canada","USASK",52.137,-106.622,2013,"2000-2014",-0.0154056470321614,0.000429344832951,0.00168912844577084,7,2.07983342535076,3.09109401471844,0.457309961248602,-185.026104630963,80.7645015746812,2.10644845281557,"Mix",0,0,0,0,0,0,0.258426,0.741574,"Americas","Northern America","CAN",52.137,-106.622,"XL",71.6857142857143,0.671,"Yellow","Green","Absent","Absent",NA
5,"CDC Cherie AGL","Canada","USASK",52.137,-106.622,2012,"2000-2014",-0.0174208378413679,0.000394818141746095,0.00190886594317692,7,1.60541961735283,1.4005642361084,0.721149977077666,-155.556988861163,80.6242035601422,-1.40266359758471,"Mix",0,0,0,0,0.090267,0,0.111004,0.798729,"Americas","Northern America","CAN",52.137,-106.622,"M",44.5675675675676,0.463,"Red","Grey","Absent","Absent",NA
6,"CDC Glamis AGL","Canada","USASK",52.137,-106.622,1998,"1980-2000",-0.01561627916672,0.00038250619332076,0.00173496043070313,8,3.41720812576708,2.98954645180697,0.26551015308113,-179.783846541701,106.436699249784,4.85470492014499,"G8",0,0,0,0,0.003119,0,0.182356,0.814525,"Americas","Northern America","CAN",52.137,-106.622,"XL",68.0357142857143,0.645,"Yellow","Green","Absent","Absent",NA
7,"CDC Gold AGL","Canada","USASK",52.137,-106.622,1993,"1980-2000",-0.0181937958037976,0.000414708187995799,0.00191209477656577,7,3.40421804727935,0.917123114654413,0.00122145215633442,-145.271159980205,129.000011654035,20.2688279487036,"Mix",0.088823,0,0,0,0,0.01545,0.116633,0.779093,"Americas","Northern America","CAN",52.137,-106.622,"XL",52.9856850715746,0.638,"Yellow","Green","Absent","Absent",NA
8,"CDC Imax AGL","Canada","USASK",52.137,-106.622,2009,"2000-2014",-0.0194152400169632,0.000279758748490445,0.00218850274315379,7,2.34140193606314,-0.283278141845045,1.03328561510757,-168.5114499136,31.9261926960384,4.39026423031604,"Mix",0,0,0,0,0.11812,0,0.202169,0.679711,"Americas","Northern America","CAN",52.137,-106.622,"L",50.6131386861314,0.551,"Red","Grey","Absent","Absent",NA
9,"CDC Impower AGL","Canada","USASK",52.137,-106.622,2009,"2000-2014",-0.0175066489321135,0.000382788043520127,0.00190004378252379,7,2.67463170075799,1.77423026062778,-0.530561602977272,-165.960303366288,93.7888570441431,0.987850272656177,"Mix",0,0,0,0,0,0,0.220574,0.779426,"Americas","Northern America","CAN",52.137,-106.622,"XL",70.4901960784314,0.606,"Yellow","Green","Absent","Absent",NA
10,"CDC KR-1 AGL","Canada","USASK",52.137,-106.622,2009,"2000-2014",-0.0150687008495716,0.000588140365103193,0.00149319213192524,3,1.53117653664273,4.1113006061086,-0.802031402395143,-169.180398953129,54.7360136807709,-2.11823073633198,"Mix",0,0,0,0,0.030931,0,0.284686,0.684383,"Americas","Northern America","CAN",52.137,-106.622,"L",59.6989966555184,0.548,"Red","Brown","Absent","Absent",NA
11,"CDC LeMay AGL","Canada","USASK",52.137,-106.622,2002,"2000-2014",-0.0170372373519495,0.00035474807515231,0.00189527390276896,7,2.69891391282244,2.07712954475147,-0.219760317112154,-163.036761884467,183.945633760268,-0.247386697417265,"G8",0,0,0,0,0,0,0,1,"Americas","Northern America","CAN",52.137,-106.622,NA,38.7656033287101,0.51,"Yellow","Green","Marbled","Pattern",NA
12,"CDC Maxim AGL","Canada","USASK",52.137,-106.622,2007,"2000-2014",-0.0178391620794389,0.000372200386744099,0.00197025305960811,3,1.37911844557505,1.29452917370352,-0.10726643076872,-145.053766144912,55.8425510024058,0.832473924900746,"Mix",0,0,0,0,0.079975,0,0.144462,0.775562,"Americas","Northern America","CAN",52.137,-106.622,"M",48.0257510729614,0.441,"Red","Grey","Absent","Absent","https://training.ars-grin.gov/gringlobal/AccessionDetail.aspx?id=1884300"
13,"CDC QG-1 AGL","Canada","USASK",52.137,-106.622,2012,"2000-2014",-0.0169362282288128,0.000407096290008721,0.00179165492889296,8,4.61156358322413,2.27950497081611,-0.68937662874535,-146.758222889053,124.292918497019,10.9809918654013,"G8",0,0,0,0,0,0,0.093211,0.906789,"Americas","Northern America","CAN",52.137,-106.622,NA,49.0430622009569,0.58,"Green","Dark Green","Absent","Absent",NA
14,"CDC Red Rider AGL","Canada","USASK",52.137,-106.622,2007,"2000-2014",-0.0164290584856289,0.000386581084973854,0.00179812882112576,8,3.61754267078808,2.28011933661156,0.357335062376846,-144.620767441768,56.4001702739417,4.3036922401276,"Mix",0,0,0,0,0.093886,0,0.184124,0.72199,"Americas","Northern America","CAN",52.137,-106.622,"M",49.358372456964,0.469,"Red","Grey","Absent","Absent",NA
15,"CDC Redcoat AGL","Canada","USASK",52.137,-106.622,2009,"2000-2014",-0.0158726999998727,0.000281315026245441,0.00187489215175835,7,3.77514153685897,1.78150207247957,1.72570872320349,-141.98236233694,36.175154829641,5.5001588835262,"Mix",0,0,0,0,0.160574,0,0.124108,0.715317,"Americas","Northern America","CAN",52.137,-106.622,"M",47.0728793309438,0.465,"Red","Grey","Absent","Absent",NA
16,"CDC Redwing AGL","Canada","USASK",52.137,-106.622,1994,"1980-2000",-0.0171415123174633,0.000284316106967889,0.00198365170215265,7,3.29601181925798,0.944234535692647,1.51799894274836,-153.957250321821,-108.504842425303,7.90695830932623,"Mix",0,0,0,0,0.470539,0,0.11752,0.41194,"Americas","Northern America","CAN",52.137,-106.622,"M",42.0886981402003,0.472,"Red","Green","Absent","Absent",NA
17,"CDC Robin AGL","Canada","USASK",52.137,-106.622,2002,"2000-2014",-0.0191697706327629,0.000397759215981779,0.00203245759280827,7,2.30782501991394,0.701941736188663,-0.477143264913767,-133.694206087514,199.462868650356,4.17859699516865,"G8",0,0,0,0,0,0,0,1,"Americas","Northern America","CAN",52.137,-106.622,"S",31.5963855421687,0.393,"Red","Brown","Mottle1","Mottle","https://training.ars-grin.gov/gringlobal/AccessionDetail.aspx?id=1818696"
18,"CDC Rosebud AGL","Canada","USASK",52.137,-106.622,2009,"2000-2014",-0.016804950545586,0.00059592786675994,0.00164128680508319,3,0.665957826202284,3.12549623475643,-1.34272492233471,-119.849347079113,175.066486254739,4.93410225034035,"G8",0,0,0,0,0,0,0,1,"Americas","Northern America","CAN",52.137,-106.622,"M",32.6666666666667,0.411,"Red","Tan","Mottle1","Mottle",NA
19,"CDC Rosetown AGL","Canada","USASK",52.137,-106.622,2005,"2000-2014",-0.0148253424009812,0.000334793059682081,0.0017085779394461,8,4.38265862913757,3.49859705709377,0.995767975433774,-121.349464222048,127.505547726884,4.9722732940329,"G8",0,0,0,0,0,0,0,1,"Americas","Northern America","CAN",52.137,-106.622,"M",34.9886363636364,0.411,"Red","Brown","Absent","Absent",NA
20,"CDC Rouleau AGL","Canada","USASK",52.137,-106.622,2004,"2000-2014",-0.0170449261344545,0.000334689508490782,0.00190856423885645,7,3.14386321215368,1.82989576578895,0.280434552865393,-167.261775286818,58.0830906550204,4.63923830964456,"Mix",0,0,0,0,0,0,0.27756,0.72244,"Americas","Northern America","CAN",52.137,-106.622,"M",41.6684723726977,0.465,"Red","Grey","Mottle0","Mottle",NA
21,"CDC Royale AGL","Canada","USASK",52.137,-106.622,1995,"1980-2000",-0.0166472480369164,0.000427069056254193,0.00179194421172591,7,2.08669004779714,2.19942647502194,-0.202095699566979,-171.364311908982,147.161713183811,-3.05613344054502,"G8",0,0,0,0,0,0,0,1,"Americas","Northern America","CAN",52.137,-106.622,"L",45.5710659898477,0.549,"Green","Dark Green","Marbled","Pattern",NA
22,"CDC Ruby AGL","Canada","USASK",52.137,-106.622,2010,"2000-2014",-0.0165716251177076,0.000619346711971303,0.00162896066828033,3,-0.576953009702529,2.99953920903595,-1.28989703997231,-85.3356433422511,114.793761065277,23.6081324875488,"G8",0.013717,0,0,0,0.049068,0.092106,0,0.845108,"Americas","Northern America","CAN",52.137,-106.622,"M",32.7024185068349,0.404,"Red","Grey","Absent","Absent",NA
23,"CDC SB-1 AGL","Canada","USASK",52.137,-106.622,2010,"2000-2014",-0.0226834499606913,0.000495237115560387,0.00226622018039968,4,-0.662830509181428,-0.699607259310607,-1.68083591307071,-84.8319525304218,70.4102229375008,-0.987088718136287,"Mix",0.058069,0.070756,0,0,0.000555,0,0.120164,0.750456,"Americas","Northern America","CAN",52.137,-106.622,"S",37.35,0.397,"Yellow","Grey","Dotted","Pattern",NA
24,"CDC Sedley AGL","Canada","USASK",52.137,-106.622,2001,"2000-2014",-0.0164369333669059,0.000432090013778777,0.00178387280915519,3,1.37734010327698,2.40747465364002,0.122950994822824,-165.596900218368,4.05887195583402,2.80619454670212,"Mix",0,0,0,0,0.048496,0,0.400468,0.551036,"Americas","Northern America","CAN",52.137,-106.622,"XL",61.4509803921569,0.634,"Yellow","Green","Absent","Absent",NA
25,"CDC Vantage AGL","Canada","USASK",52.137,-106.622,1998,"1980-2000",-0.0175361431646427,0.000524694850369989,0.00179029776647312,3,0.0860563522244836,2.36715394531684,-1.06100702974609,-150.354731137839,84.3654948014003,4.12049911352713,"Mix",0,0,0,0,0.030459,0,0.174948,0.794593,"Americas","Northern America","CAN",52.137,-106.622,"L",51.8292682926829,0.533,"Yellow","Green","Absent","Absent",NA
26,"CN 105604 AGL","Ethiopia","PGRC",NA,NA,1927,"1925-1940",-0.0188530590993635,0.000428111779003268,0.00210200387022675,2,-3.4511753976212,0.268268821191893,0.488226577929923,262.488018565141,7.53340714346629,-245.779617362034,"G4",0,0,0,1,0,0,0,0,"Africa","Eastern Africa","ETH",8.62278417,39.6008014,NA,24.6412213740458,0.43,"Red","Black","Dotted","Present","http://pgrc3.agr.ca/cgi-bin/npgs/html/acchtml.pl?130226"
27,"CN 105605 AGL","Eritrea","PGRC",NA,NA,1927,"1925-1940",-0.0241837410412167,0.000566577746760854,0.00234348477402448,4,-1.64063132397371,-1.65416936998732,-2.17847247586378,88.9775672888227,-32.0068636337982,91.0077579479575,"Mix",0,0,0.02535,0,0.232877,0.558934,0.014729,0.16811,"Africa","Eastern Africa","ERI",15.36186881,38.84615444,"M",29.9409282700422,0.403,"Red/Yellow","Grey","Mottle0","Mottle","http://pgrc3.agr.ca/cgi-bin/npgs/html/acchtml.pl?130237"
28,"CN 105715 AGL","Ethiopia","PGRC",NA,NA,NA,NA,-0.0251028541684223,0.000477412577712177,0.00252849609044348,4,-2.00077103382722,-2.40948052131959,-1.04607673791546,-129.524121202183,-216.03666545397,-6.75687115227082,"Mix",0,0,0,0,0.410176,0,0.589824,0,"Africa","Eastern Africa","ETH",8.62278417,39.6008014,"L",51.5051546391753,0.543,"Red/Yellow","Green","Mottle1","Mottle","http://pgrc3.agr.ca/cgi-bin/npgs/html/acchtml.pl?129999"
29,"CN 105732 AGL","Ethiopia","PGRC",NA,NA,NA,NA,-0.0191076669475507,0.000558988289902811,0.00187197313864892,3,0.483345828886772,1.38199095202564,-1.44567427726104,-85.4430309792731,88.9405361926445,26.0161003569407,"Mix",0,0,0,0,0,0.152817,0.135996,0.711187,"Africa","Eastern Africa","ETH",8.62278417,39.6008014,"M",48.7692307692308,0.496,"Yellow","Green","Mottle1","Mottle","http://pgrc3.agr.ca/cgi-bin/npgs/html/acchtml.pl?130129"
30,"CN 105767 AGL","Libya","PGRC",NA,NA,NA,NA,-0.0232851407432815,0.000586641111655561,0.00228177792881719,2,-3.46763434276913,-0.86911551998484,-1.59983023769137,-112.71027249266,155.627031872904,-17.3803526642043,"G8",0,0.102902,0,0,0,0,0,0.897098,"Africa","Northern Africa","LBY",27.03094247,18.00865782,"M",31.4285714285714,0.41,"Red/Yellow","Grey","Mottle0","Mottle","http://pgrc3.agr.ca/cgi-bin/npgs/html/acchtml.pl?130168"
31,"CN 105777 AGL","Egypt","PGRC",NA,NA,NA,NA,-0.0203401749417175,0.000625955284960711,0.00207907317685527,1,-6.63930957193973,0.463511466989276,-0.584930300081796,-64.9786054668165,-227.245145718189,-5.71897258561629,"Mix",0.022534,0,0,0.060964,0.734764,0,0.181738,0,"Africa","Northern Africa","EGY",26.49593108,29.8618993,"S",29.9417249417249,0.387,"Red","Brown","Absent","Absent","http://pgrc3.agr.ca/cgi-bin/npgs/html/acchtml.pl?130180"
32,"CN 105789 AGL","Ethiopia","PGRC",NA,NA,NA,NA,-0.0199239525525083,0.000435887677817185,0.00225612071502782,2,-6.00992857015162,-0.342524703892595,1.03446996891347,-74.5028233750667,-326.785457043767,11.2942065809708,"G5",0,0,0,0,1,0,0,0,"Africa","Eastern Africa","ETH",8.62278417,39.6008014,"M",30.0630914826498,0.405,"Red","Brown","Dotted;Spotted","Pattern","http://pgrc3.agr.ca/cgi-bin/npgs/html/acchtml.pl?130068"
33,"CN 105791 AGL","Egypt","PGRC",NA,NA,NA,NA,-0.0178325413808352,0.00082362032789461,0.00168679937263957,1,-7.96042897416311,1.91816650451287,-0.665079807663382,-65.4473029346953,-233.65134714172,-6.98247215857195,"Mix",0.008904,0,0,0.066658,0.748169,0,0.176269,0,"Africa","Northern Africa","EGY",26.49593108,29.8618993,"M",26.2178919397697,0.438,"Red","Grey","Absent","Absent","http://pgrc3.agr.ca/cgi-bin/npgs/html/acchtml.pl?130070"
34,"CN 105862 AGL","Tunisia","PGRC",NA,NA,NA,NA,-0.0189392168173607,0.000312546588339948,0.00208850811088657,7,4.01959172294695,-0.0132193021780819,0.578575972293388,-179.416532374163,-181.426147978254,-12.2799999347091,"G7",0,0,0,0,0.112833,0,0.887167,0,"Africa","Northern Africa","TUN",34.11956663,9.55288287,"XL",61.8466353677621,0.631,"Yellow","Green","Mottle1","Mottle","http://pgrc3.agr.ca/cgi-bin/npgs/html/acchtml.pl?130143"
35,"CN 105863 AGL","Tunisia","PGRC",NA,NA,NA,NA,-0.0193558288893879,0.000251636877108399,0.00221678084119723,7,2.95722347506858,-0.738142650099407,1.34499420523941,69.4609142646119,-82.495022161249,129.858883906975,"Mix",0,0,0.574372,0,0,0,0.425628,0,"Africa","Northern Africa","TUN",34.11956663,9.55288287,"XL",70.8151093439364,0.674,"Yellow","Green","Mottle1","Mottle","http://pgrc3.agr.ca/cgi-bin/npgs/html/acchtml.pl?130144"
36,"CN 105864 AGL","Tunisia","PGRC",NA,NA,NA,NA,-0.0172897758446795,0.000228021845194476,0.00207726442678168,7,2.73291635366224,0.414548041198324,2.01411998613534,-144.031596731757,23.999074596224,-28.3405695337197,"Mix",0,0.031474,0,0,0,0,0.470409,0.498116,"Africa","Northern Africa","TUN",34.11956663,9.55288287,"M",49.3836477987421,0.442,"Yellow","Grey","Mottle0","Mottle","http://pgrc3.agr.ca/cgi-bin/npgs/html/acchtml.pl?130146"
37,"CN 105865 AGL","Tunisia","PGRC",NA,NA,NA,NA,-0.0190166238086651,0.000275616625684726,0.00214618757334887,7,3.59680833388688,-0.371308065897691,0.828210462683448,-193.386129667687,-218.364207020294,-11.757348960449,"G7",0,0,0,0,0,0,1,0,"Africa","Northern Africa","TUN",34.11956663,9.55288287,"L",66.7554479418886,0.584,"Yellow","Green","Mottle1","Mottle","http://pgrc3.agr.ca/cgi-bin/npgs/html/acchtml.pl?130268"
38,"CN 105895 AGL","Egypt","PGRC",NA,NA,2000,"1980-2000",-0.0177646589821386,0.000498972481159658,0.00198170754739302,2,-5.44243122522614,0.97814633589249,0.781324876440488,-75.97098703143,-332.758820361126,12.6985294274133,"G5",0,0,0,0,1,0,0,0,"Africa","Northern Africa","EGY",26.49593108,29.8618993,"S",33.8837516512549,0.396,"Red","Brown","Dotted;Spotted","Pattern","http://pgrc3.agr.ca/cgi-bin/npgs/html/acchtml.pl?130250"
39,"CN 106265 AGL","Egypt","PGRC",NA,NA,1949,"1940-1960",-0.0177828544003165,0.000365320725312842,0.00194445388596368,7,2.85567791280834,0.920708776105761,0.211752777023307,-128.857661392348,106.029803673942,14.550501850652,"G8",0.03067,0,0,0,0.057155,0.029849,0.063454,0.818872,"Africa","Northern Africa","EGY",26.49593108,29.8618993,"M",40.272952853598,0.438,"Red/Yellow","Grey","Mottle1","Absent","https://purl.org/germplasm/id/dd488052-f251-429d-aa9c-66edcea3399e;https://training.ars-grin.gov/gringlobal/AccessionDetail.aspx?id=1160169;http://grs.icarda.org/accessions/?IG=202;http://pgrc3.agr.ca/cgi-bin/npgs/html/acchtml.pl?129829"
40,"CN 108369 AGL","Libya","PGRC",NA,NA,1976,"1960-1980",-0.0167158761128132,0.000418944518643289,0.0018179154267016,7,1.80209846240038,2.21771117792532,-0.09145081745091,-175.929696585843,84.4907497547338,4.32372819390456,"Mix",0,0,0,0,0,0,0.286622,0.713378,"Africa","Northern Africa","LBY",27.03094247,18.00865782,"L",68.6832061068702,0.547,"Yellow","Green","Mottle1","Mottle","http://pgrc3.agr.ca/cgi-bin/npgs/html/acchtml.pl?130427"
41,"CN 108370 AGL","Libya","PGRC",NA,NA,1976,"1960-1980",-0.0167100090480766,0.00047313661501811,0.00169975403734945,8,4.6401272267422,3.31218064980532,-1.22596184461887,-133.207383512986,208.583232828346,-0.450477037759915,"G8",0,0,0,0,0,0,0,1,"Africa","Northern Africa","LBY",27.03094247,18.00865782,"S",26.1040235525025,0.377,"Yellow","Green","Mottle1","Mottle","http://pgrc3.agr.ca/cgi-bin/npgs/html/acchtml.pl?130428"
42,"Crimson AGL","USA","USDA",46.73,-117.16,1991,"1980-2000",-0.0156804776087309,0.000507412144928306,0.00168744311872413,3,-0.617467354456935,2.74221049747243,-0.289075257022454,-130.142793415033,80.6383573332223,4.86116138734656,"Mix",0,0,0,0,0,0.047977,0.283633,0.66839,"Americas","Northern America","USA",39,-101.5,"M",40.5511811023622,0.441,"Red","Brown","Mottle1","Mottle","https://training.ars-grin.gov/gringlobal/AccessionDetail.aspx?id=1438856"
43,"DPL 62 AGL","India","ICARDA",NA,NA,NA,NA,-0.0189954225605622,0.00055364317906423,0.00204474368817746,2,-6.11807406173429,0.547422623597789,0.314708457500865,230.435596175247,-3.8484449880974,-134.624979857389,"Mix",0.07207,0,0.156443,0.748369,0,0,0.023118,0,"Asia","Southern Asia","IND",22.88578035,79.61197355,"L",44.3809523809524,0.504,"Red","Grey","Dotted;Marbled","Pattern",NA
44,"Eston AGL","Canada","USASK",52.137,-106.622,1981,"1980-2000",-0.0217240167128442,0.000394776078535258,0.00227146086148513,4,0.907744825302846,-0.829542288608316,-1.07436454762568,-148.696745562503,176.076775719516,3.25633839270094,"G8",0,0,0,0,0,0,0,1,"Americas","Northern America","CAN",52.137,-106.622,"M",37.6361031518625,0.455,"Yellow","Green","Mottle1","Mottle","https://purl.org/germplasm/id/c7b26a05-d4ff-4907-ac5f-b14fa5090626;https://training.ars-grin.gov/gringlobal/AccessionDetail.aspx?id=1155245;http://grs.icarda.org/accessions/?IG=927"
45,"Gudo AGL","Ethiopia","ICARDA",NA,NA,NA,NA,-0.0201991732278126,0.000266592644113004,0.00236413362144943,2,-2.27089517353557,-0.235401224587816,0.915495508558247,-120.870520977506,-170.410703479059,-23.1240992285145,"Mix",0,0.060112,0,0,0.291594,0,0.648293,0,"Africa","Eastern Africa","ETH",8.62278417,39.6008014,"M",49.0672782874618,0.488,"Yellow","Green","Absent","Absent",NA
46,"IG 1046 AGL","Egypt","ICARDA",NA,NA,1973,"1960-1980",-0.0234543602733191,0.00046816438062412,0.00233776655445275,4,1.04371055306844,-1.70548123939121,-2.12200431337764,110.276295774179,69.9718360920404,81.7757520176467,"G1",0.938393,0,0,0,0,0.061607,0,0,"Africa","Northern Africa","EGY",26.49593108,29.8618993,"M",36.6314398943197,0.431,"Yellow","Green","Absent","Mottle","https://purl.org/germplasm/id/a2a24529-b307-4b2d-a4dd-ffdd6556ec50;https://training.ars-grin.gov/gringlobal/AccessionDetail.aspx?id=1326615;http://grs.icarda.org/accessions/?IG=1046"
47,"IG 1706 AGL","Ethiopia","ICARDA",7.21667,38.55,NA,NA,-0.0244837142828601,0.000401223915753453,0.00249501259035347,6,1.3154422625181,-2.81384579951342,-1.3147143125728,133.029218676725,37.1990726455972,75.5574087892944,"Mix",0.548641,0,0,0,0,0.451359,0,0,"Africa","Eastern Africa","ETH",8.62278417,39.6008014,"S",24.6751863684771,0.368,"Red","Grey","Absent","Mottle","https://purl.org/germplasm/id/87e17ed9-1110-4fd2-8957-51b2a377cb69;http://grs.icarda.org/accessions/?IG=1706"
48,"IG 1959 AGL","Ethiopia","ICARDA",NA,NA,NA,NA,-0.0223324186479011,0.000414821287694001,0.00232617481884802,4,0.151031285365209,-1.52229663803692,-1.1542929294975,272.735333118494,-15.6493834539698,230.897817502841,"G3",0,0,1,0,0,0,0,0,"Africa","Eastern Africa","ETH",8.62278417,39.6008014,"M",36.7527675276753,0.42,"Yellow","Tan","Dotted","Pattern","https://purl.org/germplasm/id/dd04eec2-5e3e-4072-a5cc-065f98830e61;http://grs.icarda.org/accessions/?IG=1959"
49,"IG 4258 AGL","India","ICARDA",NA,NA,NA,NA,-0.0199293586501487,0.0004077373844909,0.00224393532904485,2,-4.5224820473208,-0.36869714221922,0.936683770771441,147.734324502299,43.4756692800633,82.3172964018138,"Mix",0.539814,0,0,0,0,0.460186,0,0,"Asia","Southern Asia","IND",22.88578035,79.61197355,"S",24.7834274952919,0.354,"Red","Grey","Dotted;Marbled","Pattern","https://purl.org/germplasm/id/21760f8b-6b62-4906-a535-6061c1f14acc;http://grs.icarda.org/accessions/?IG=4258"
50,"IG 4781 AGL","Algeria","ICARDA",NA,NA,NA,NA,-0.0182651124776497,0.000357959038976618,0.00196534181219934,7,5.00933387132061,0.351042543733128,0.554196308490891,269.105745653284,-17.0266380985982,228.644711995902,"G3",0,0,1,0,0,0,0,0,"Africa","Northern Africa","DZA",28.15893844,2.61732102,"L",47.879746835443,0.513,"Yellow","Green","Absent","Absent","https://purl.org/germplasm/id/8008cdcd-f4bb-4cf9-9f04-b9bdae60d8fc;http://grs.icarda.org/accessions/?IG=4781"
51,"IG 858 AGL","Algeria","ICARDA",36.3667,6.76667,NA,NA,-0.0224693060687009,0.000426322306123265,0.00230539760325804,4,0.394525827065199,-0.990127231461264,-1.87791153320556,244.233023926023,2.08086811247884,-244.458869266484,"G4",0,0,0,0.981814,0,0,0.018185,0,"Africa","Northern Africa","DZA",28.15893844,2.61732102,"S",31.2085561497326,0.379,"Yellow","Grey","Mottle2","Mottle","https://purl.org/germplasm/id/3d230ff8-acae-4ce7-941c-2d4c9016f9e3;http://grs.icarda.org/accessions/?IG=858"
52,"ILL 10657 AGL","Turkey","ICARDA",NA,NA,2004,"2000-2014",-0.0193892228290189,0.000496294220651698,0.00213316558462028,2,-5.97800661547948,0.217385356862993,0.634190288763543,-168.16192872771,-181.15650191646,-21.4831755768592,"G7",0,0,0,0,0.088415,0,0.911585,0,"Asia","Western Asia","TUR",39.06160342,35.16895529,"L",48.5263157894737,0.508,"Red","Grey","Absent","Absent","https://purl.org/germplasm/id/8002d562-57ab-49ac-a148-0e8625a010a6;https://training.ars-grin.gov/gringlobal/AccessionDetail.aspx?id=1658128;http://grs.icarda.org/accessions/?IG=143547"
53,"ILL 10748 AGL","ICARDA","ICARDA",NA,NA,NA,NA,-0.014193247271595,0.000680954357120068,0.00150394251907385,1,-6.16639215959081,3.29837193635949,0.359265409006985,-106.736472892721,166.75859068325,-8.70301235312626,"G8",0.031508,0.050525,0,0,0,0,0,0.917967,"Other","Other",NA,NA,NA,"XL",64.123006833713,0.604,"Yellow","Green","Absent","Absent",NA
54,"ILL 11547 AGL","Ethiopia","ICARDA",NA,NA,NA,NA,-0.0180054100835757,0.000604448050671315,0.00191516458689568,1,-6.22389693315678,0.971378897980003,0.287928557233419,-91.5472440604169,-71.9016918154312,-11.4074598870823,"Mix",0,0,0,0.0208,0.49833,0,0,0.480869,"Africa","Eastern Africa","ETH",8.62278417,39.6008014,"M",38.2954545454545,0.438,"Red/Yellow","Brown","Mottle2","Mottle",NA
55,"ILL 11548 AGL","Ethiopia","ICARDA",NA,NA,NA,NA,-0.019345883162624,0.000689471591605811,0.00192053705144021,1,-6.5252901748404,1.0294407857126,-0.51713245747087,-141.227712063277,51.2871954908318,-17.6075416496617,"Mix",0,0.044685,0,0,0,0,0.369975,0.58534,"Africa","Eastern Africa","ETH",8.62278417,39.6008014,"M",30.7254361799816,0.428,"Yellow","Olive","Mottle2","Mottle",NA
56,"ILL 11553 AGL","India","ICARDA",NA,NA,NA,NA,-0.018222882904492,0.000467160271417891,0.00205614012261496,2,-5.60516311617173,0.768257486718703,0.440173120480557,-130.088144971495,197.434954674338,4.26299244652749,"G8",0,0,0,0,0,0,0,1,"Asia","Southern Asia","IND",22.88578035,79.61197355,"M",35.1836734693877,0.434,"Red","Grey","Dotted;Marbled","Pattern",NA
57,"ILL 11555 AGL","India","ICARDA",NA,NA,NA,NA,-0.0180861680717831,0.000634162671737381,0.00188933660667008,1,-6.47196211356711,1.08268697982981,-0.0646985499019491,88.643639889955,-69.145342232017,-139.925928100675,"Mix",0,0,0,0.598333,0.11544,0,0.286227,0,"Asia","Southern Asia","IND",22.88578035,79.61197355,"M",42.0833333333333,0.46,"Red/Yellow","Green","Mottle1","Mottle",NA
58,"ILL 11557 AGL","India","ICARDA",NA,NA,NA,NA,-0.0181523509957751,0.000683847825529876,0.00183651777597529,1,-6.66412615807566,1.34851989692361,-0.331814788146615,195.764098588978,2.78867435717745,-162.967741084382,"G4",0.083551,0,0.055978,0.820031,0,0,0.039194,0.001246,"Asia","Southern Asia","IND",22.88578035,79.61197355,"L",45.359477124183,0.52,"Yellow","Grey","Dotted;Marbled","Pattern",NA
59,"ILL 11558 AGL","India","ICARDA",NA,NA,NA,NA,-0.0189643761007361,0.000651109520184028,0.00194150051586243,1,-6.85193712927304,1.27558510507316,-0.309283717310349,255.771650271371,7.0279135167272,-179.537292316163,"G4",0,0,0.099594,0.900406,0,0,0,0,"Asia","Southern Asia","IND",22.88578035,79.61197355,"M",38.0271084337349,0.482,"Red","Grey","Dotted;Marbled","Pattern",NA
60,"ILL 1220 AGL","Iran","ICARDA",NA,NA,1973,"1960-1980",-0.0228503246804326,0.000449677066690225,0.00231023665179214,4,0.70438677835998,-1.24718311770214,-1.55846081212698,59.4418062930327,16.1355744564433,66.7074807806426,"G1",0.803006,0,0,0,0,0.146196,0.050798,0,"Asia","Southern Asia","IRN",32.41,54.41,"M",50,0.491,"Yellow","Grey","Absent","Absent","https://purl.org/germplasm/id/45226e4b-c47a-4270-913e-9428fc321da5;https://training.ars-grin.gov/gringlobal/AccessionDetail.aspx?id=1595430;http://grs.icarda.org/accessions/?IG=1220"
61,"ILL 1553 AGL","Iran","ICARDA",NA,NA,NA,NA,-0.0229956760225313,0.000502638408834135,0.00229802943810192,4,-1.34072312204264,-0.887073113054085,-1.52263382752869,63.8772736737892,33.4719742983664,75.7123461545923,"G1",0.998973,0,0,0,0,0.001027,0,0,"Asia","Southern Asia","IRN",32.41,54.41,"L",47.5667189952904,0.505,"Yellow","Green","Absent","Absent","https://purl.org/germplasm/id/6bb45132-2e15-4550-990f-21c0c25ab37e;http://grs.icarda.org/accessions/?IG=1553"
62,"ILL 1762 AGL","Afghanistan","ICARDA",NA,NA,NA,NA,-0.0208806832407695,0.000285079080938885,0.00229584379164775,6,3.2942956656055,-1.63274029211072,0.367438750233493,248.287809614742,6.90529821110196,71.1791747229476,"G6",0,0,0.063049,0.088492,0,0.848459,0,0,"Asia","Southern Asia","AFG",33.83523216,66.00473115,"S",27.1414242728185,0.35,"Red","Brown","Dotted","Pattern","https://purl.org/germplasm/id/0af352a7-b519-410e-a879-1bbac0f773d6;http://grs.icarda.org/accessions/?IG=1762"
63,"ILL 1983 AGL","Ethiopia","ICARDA",NA,NA,NA,NA,-0.0195407203835578,0.000365323058952336,0.00221242349150236,2,-3.05078856119676,0.0217536364693801,0.844994826343628,264.790898218721,8.37952966007959,-252.671987291515,"G4",0,0,0,1,0,0,0,0,"Africa","Eastern Africa","ETH",8.62278417,39.6008014,"S",28.1417830290011,0.34,"Red","Brown","Dotted;Marbled","Pattern","https://purl.org/germplasm/id/1c507e60-05dd-4cca-82f7-2257095f74c5;http://grs.icarda.org/accessions/?IG=1983"
64,"ILL 213 AGL","Afghanistan","ICARDA",NA,NA,1953,"1940-1960",-0.0232723908603942,0.000325047840567313,0.00251682851980085,5,0.433343096157756,-2.84297842101246,0.582843763899993,217.615920812862,-7.36251069464596,87.7902466356849,"G6",0,0,0.106178,0.070215,0,0.823607,0,0,"Asia","Southern Asia","AFG",33.83523216,66.00473115,"S",25.8401880141011,0.361,"Red","Grey","Absent","Absent","https://purl.org/germplasm/id/d5061058-97c1-4e0d-b41e-001874c1e276;https://training.ars-grin.gov/gringlobal/AccessionDetail.aspx?id=1175111;http://grs.icarda.org/accessions/?IG=213"
65,"ILL 2194 AGL","Pakistan","ICARDA",NA,NA,1960,"1940-1960",-0.0217666196432822,0.000226612471930388,0.00249286591261345,5,0.31094471382633,-1.93745712240346,1.23629904414777,-107.093543894231,-242.118794866777,1.2497135614459,"Mix",0,0.028724,0,0,0.592333,0,0.378943,0,"Asia","Southern Asia","PAK",29.94975221,69.33958027,"M",49.5067264573991,0.486,"Yellow","Green","Absent","Absent","https://purl.org/germplasm/id/a68895c5-f10b-4bb3-a506-430c087a63ed;http://grs.icarda.org/accessions/?IG=2194"
66,"PI 431893 LSP AGL","Iran","USDA",NA,NA,1979,"1960-1980",-0.0199138223525986,0.000641735642109948,0.00186292327584383,3,0.0432663790768048,1.18867604799965,-2.0640249821118,56.5653030299116,100.59370449747,69.6433078214705,"Mix",0.0053,0,0.018729,0,0,0.475777,0,0.500195,"Asia","Southern Asia","IRN",32.41,54.41,"M",31.7614879649891,0.421,"Red","Grey","Mottle1","Mottle","https://purl.org/germplasm/id/8da9856b-ffa7-4ab6-a583-07f16ca0381d;https://training.ars-grin.gov/gringlobal/AccessionDetail.aspx?id=1818585"
67,"ILL 2507 AGL","India","ICARDA",NA,NA,NA,NA,-0.0185995648755108,0.000454564381425879,0.00209596373388194,2,-5.11000347591016,0.429426706747912,0.884444888082819,270.262514992557,9.86450233064286,-259.991937688058,"G4",0,0,0,1,0,0,0,0,"Asia","Southern Asia","IND",22.88578035,79.61197355,"S",27.9203109815355,0.36,"Red","Grey","Dotted;Marbled","Pattern","https://purl.org/germplasm/id/e0459f0f-ba51-4643-97b2-820c576df4df;http://grs.icarda.org/accessions/?IG=2507"
68,"ILL 2580 AGL","India","ICARDA",NA,NA,NA,NA,-0.0217887177895292,0.0003531784290291,0.00241415670957185,2,-2.75456961490989,-1.11855379913612,0.822440071238414,54.0575984419572,-188.806043570136,-106.186281104429,"Mix",0,0,0,0.430384,0.569616,0,0,0,"Asia","Southern Asia","IND",22.88578035,79.61197355,"M",33.85,0.405,"Red","Brown","Dotted;Marbled","Pattern","https://purl.org/germplasm/id/7a9cf658-502f-4065-84fa-953073a8d198;http://grs.icarda.org/accessions/?IG=2580"
69,"ILL 28 AGL","Syria","ICARDA",NA,NA,NA,NA,-0.0206234969081093,0.000249843193812161,0.00237506100944116,5,-0.0991340683628849,-0.983261623401378,0.986724003902242,-115.213990305225,-113.254579907374,-14.4882639857232,"G7",0,0.184508,0,0,0,0,0.815492,0,"Asia","Western Asia","SYR",35.24,38.59,"XL",77.9752066115703,0.606,"Yellow","Green","Mottle1","Mottle","https://purl.org/germplasm/id/e06b1cfb-6cb4-4634-a404-b2d05d0e0d28;http://grs.icarda.org/accessions/?IG=30"
70,"ILL 3025 AGL","India","ICARDA",NA,NA,NA,NA,-0.0201217862173026,0.000383589760948331,0.00228125882020459,2,-4.64061737011487,-0.200710487141306,0.815160105516425,234.316991659797,0.155034743473481,-220.949354986258,"G4",0,0,0,1,0,0,0,0,"Asia","Southern Asia","IND",22.88578035,79.61197355,"S",25.0344827586207,0.344,"Red","Grey","Dotted;Marbled","Pattern","https://purl.org/germplasm/id/12bf7346-e111-4842-840d-7da9776d2b1e;http://grs.icarda.org/accessions/?IG=3025"
71,"ILL 313 AGL","Israel","ICARDA",NA,NA,1962,"1960-1980",-0.021913682647779,0.000293963191091365,0.0024162703585228,5,1.10898801238418,-2.09600137632158,0.827350420807328,-140.367450279483,47.0902511934237,-4.34411382571822,"Mix",0,0,0,0,0,0,0.371755,0.628245,"Asia","Western Asia","ISR",31.4611019,35.00444995,"M",36.576297443842,0.434,"Yellow","Green","Mottle1","Mottle","https://purl.org/germplasm/id/0aa34cec-e71f-4fd3-ba0d-8928c9c95435;https://training.ars-grin.gov/gringlobal/AccessionDetail.aspx?id=1225052;http://grs.icarda.org/accessions/?IG=313"
72,"ILL 3347 AGL","India","ICARDA",NA,NA,NA,NA,-0.0191831105498512,0.000437812758421594,0.00214483940254739,2,-4.63191939557234,0.342689238014881,0.666390544177616,263.494726133927,7.62325069484954,-251.873271788839,"G4",0,0,0,1,0,0,0,0,"Asia","Southern Asia","IND",22.88578035,79.61197355,"M",27.4806800618238,0.464,"Red","Grey","Dotted;Marbled","Pattern","https://purl.org/germplasm/id/b5379e24-061c-4b78-bded-d504da0e2a2b;http://grs.icarda.org/accessions/?IG=3347"
73,"ILL 358 AGL","Ethiopia","ICARDA",NA,NA,1972,"1960-1980",-0.0213612757928372,0.000311160193034609,0.00238784373764569,5,-1.28577659867069,-1.18558174534888,0.620481882662782,-118.3730982829,-180.1144182285,-9.97426644352612,"Mix",0,0,0,0,0.583704,0,0.176831,0.239464,"Africa","Eastern Africa","ETH",8.62278417,39.6008014,"M",44.9122807017544,0.473,"Red","Green","Absent","Absent","https://purl.org/germplasm/id/0db4c507-b592-4e62-8319-a4a9f3f1f771;https://training.ars-grin.gov/gringlobal/AccessionDetail.aspx?id=1225932;http://grs.icarda.org/accessions/?IG=358"
74,"ILL 3597 AGL","India","ICARDA",NA,NA,NA,NA,-0.0215834524455359,0.000335144554487024,0.00243194147592646,2,-3.56421147589678,-1.05122459717541,0.948066695673685,267.303946277711,9.79523323244544,-257.254549073892,"G4",0,0,0,1,0,0,0,0,"Asia","Southern Asia","IND",22.88578035,79.61197355,"S",24.9888143176734,0.345,"Red","Grey","Dotted;Marbled","Pattern","https://purl.org/germplasm/id/2c990614-72a9-47dd-b0cb-d587c1dd0d49;http://grs.icarda.org/accessions/?IG=3597"
75,"ILL 4164 AGL","India","ICARDA",NA,NA,NA,NA,-0.0206294000703119,0.000224187102819672,0.0024353198934774,5,-0.908597692134753,-1.78355817633267,2.18940553957474,50.4816787327938,42.0405731657968,-31.9219549262148,"G2",0,1,0,0,0,0,0,0,"Asia","Southern Asia","IND",22.88578035,79.61197355,"M",43.9102564102564,0.417,"Red","Brown","Dotted","Pattern","https://purl.org/germplasm/id/3ad17e2c-4d60-4dab-b214-55f7e6631d33;http://grs.icarda.org/accessions/?IG=4164"
76,"ILL 4400 AGL","Syria","ICARDA",NA,NA,NA,NA,-0.0198911470605223,0.000308645014939964,0.00222159842162313,5,1.25003261115748,-0.7816358408509,1.07573259955457,-190.591019139853,-43.6759439810609,4.40426526084589,"Mix",0,0,0,0,0,0,0.746073,0.253927,"Asia","Western Asia","SYR",35.24,38.59,"L",65.0335570469799,0.586,"Yellow","Green","Absent","Absent","https://purl.org/germplasm/id/c20daf59-8bb1-4eb7-b42d-cf6d0661c737;http://grs.icarda.org/accessions/?IG=4400"
77,"ILL 4605 AGL","Argentina","ICARDA",NA,NA,1979,"1960-1980",-0.0149022284971595,0.000698806402896576,0.00155075966181536,1,-6.56956279797553,2.8781115781781,-0.0214927136951486,-188.227811427563,-35.2415474097744,-13.2952126656519,"Mix",0,0,0,0,0,0,0.735107,0.264893,"Americas","South America","ARG",-35.38135347,-65.17980881,"L",58.44,0.548,"Yellow","Green","Absent","Absent","https://purl.org/germplasm/id/3035af0b-b79f-40c4-8d40-431c69788eb9;https://training.ars-grin.gov/gringlobal/AccessionDetail.aspx?id=1818698;http://grs.icarda.org/accessions/?IG=141860"
78,"ILL 4609 AGL","Netherlands","ICARDA",NA,NA,NA,NA,-0.0212430819210399,0.000243819170694588,0.00240961015803164,5,1.19040352271576,-1.6716530412254,0.672929581218149,224.924162847564,6.25955159358796,-188.750314140816,"G4",0,0,0,1,0,0,0,0,"Europe","Western Europe","NLD",52.10080804,5.2814735,"S",27.1926427879961,0.387,"Red","Grey","Dotted","Pattern","https://purl.org/germplasm/id/eb586729-32c0-401e-8847-7e3eec7c01cc;http://grs.icarda.org/accessions/?IG=4609"
79,"ILL 4665 AGL","Hungary","ICARDA",NA,NA,NA,NA,-0.0190150272587902,0.000361151037965179,0.00208461167895839,3,0.766051908197749,0.760502362925675,-0.232510258285775,-199.896833188876,6.9645636133883,-6.18500531762963,"Mix",0,0,0,0,0,0,0.577038,0.422962,"Europe","Eastern Europe","HUN",47.16277712,19.39559381,"XL",64.582560296846,0.636,"Yellow","Green","Mottle1","Mottle","https://purl.org/germplasm/id/39925a30-8b45-4317-8049-d397ede2b831;http://grs.icarda.org/accessions/?IG=4665"
80,"ILL 4671 AGL","USA","ICARDA",46.73,-117.16,NA,NA,-0.018582624563664,0.000282210117493365,0.00213489689079541,7,1.94216670715954,-0.264735150689514,1.62311699208044,-213.892649315338,-139.052267245705,-12.3270976040028,"G7",0,0,0,0,0,0,1,0,"Americas","Northern America","USA",39,-101.5,"L",69.8387096774194,0.511,"Yellow","Green","Absent","Absent","https://purl.org/germplasm/id/ae95817b-4670-4600-b4f1-5ffeac4dac0d;http://grs.icarda.org/accessions/?IG=4671"
81,"ILL 4768 AGL","Yemen","ICARDA",NA,NA,NA,NA,-0.0211982658190053,0.000417841038148608,0.00236577926764804,2,-5.29325394776598,-0.993403492642438,0.885095700177431,-69.9686788529991,-315.326745815827,11.3607025676352,"G5",0,0,0,0,1,0,0,0,"Asia","Western Asia","YEM",15.90927655,47.58676005,"S",35.6379310344828,0.395,"Red","Brown","Dotted;Spotted","Pattern","https://purl.org/germplasm/id/4853dd7e-2e0d-45f1-a5c3-3e9638486e1a;http://grs.icarda.org/accessions/?IG=4768"
82,"ILL 4782 AGL","Unknown","ICARDA",NA,NA,NA,NA,-0.0217329674655727,0.000450765163724212,0.00237641903855986,2,-5.43959707792823,-1.11335501174646,0.764959802872646,56.8363216069445,97.7720242545346,33.3259334400402,"G1",0.894389,0.059094,0,0,0,0,0,0.046517,"Other","Other",NA,NA,NA,"M",36.7431693989071,0.402,"Red","Brown","Dotted;Spotted","Pattern","https://purl.org/germplasm/id/93989665-0563-46e2-aab3-009c66defdcb;http://grs.icarda.org/accessions/?IG=4782"
83,"ILL 4783 AGL","Czech Republic","ICARDA",NA,NA,NA,NA,-0.0187448202217303,0.00035861271372547,0.00201317720816914,7,3.92632163580195,0.667857329762503,-0.573299719746783,-178.59118962479,76.2596618626012,13.9434604322093,"Mix",0,0,0,0,0,0,0.359669,0.640331,"Europe","Eastern Europe","CZE",49.69,15.6,"XL",62.3731884057971,0.631,"Yellow","Green","Mottle1","Mottle","https://purl.org/germplasm/id/58212a8d-e12e-4ceb-b486-4291d5cac817;http://grs.icarda.org/accessions/?IG=4783"
84,"ILL 4804 AGL","Libya","ICARDA",NA,NA,NA,NA,-0.0215479713518684,0.000292975481741178,0.00241708284917475,5,-0.782890939804821,-1.63616087729838,0.890066045331343,-108.83419596016,75.7203956741539,-21.6106224947747,"Mix",0,0.124735,0,0,0.041709,0,0.167728,0.665827,"Africa","Northern Africa","LBY",27.03094247,18.00865782,"M",34.5845845845846,0.424,"Red","Brown","Absent","Absent","https://purl.org/germplasm/id/a1f24059-02c3-4bf0-8907-dbce16d62975;http://grs.icarda.org/accessions/?IG=4804"
85,"ILL 4875 AGL","Uzbekistan","ICARDA",NA,NA,NA,NA,-0.01824611283589,0.00038699076021458,0.00191345783261528,8,5.19595043207071,1.03385880460886,-0.354247196144359,234.144496439333,13.1552517691764,92.7441377937336,"G6",0,0,5.6e-05,0.055916,0,0.944028,0,0,"Asia","Central Asia","UZB",41.75554081,63.14001799,"S",27.2653429602888,0.39,"Red","Grey","Marbled","Pattern","https://purl.org/germplasm/id/0057d8c7-a68e-4810-8c22-038c4aadaa32;http://grs.icarda.org/accessions/?IG=4875"
86,"ILL 4956 AGL","Portugal","ICARDA",NA,NA,NA,NA,-0.0196960207211073,0.000421643702100093,0.00203517304181256,7,2.78303877909788,0.530529023184759,-1.01406535635291,-140.464555341772,186.730704031037,3.96782929704646,"G8",0,0,0,0,0,0,0,1,"Europe","Southern Europe","PRT",39.59550247,-8.50105506,"L",41.9642857142857,0.506,"Yellow","Green","Mottle1","Mottle","https://purl.org/germplasm/id/9281660b-6d6d-4a54-a7db-f211ef491ba4;http://grs.icarda.org/accessions/?IG=4956"
87,"ILL 5058 AGL","Spain","ICARDA",NA,NA,NA,NA,-0.0174791015134975,0.000281138688804235,0.00198197558025128,7,5.33720950491929,0.639123659054981,0.943786729611409,-168.56255093591,-61.4497000357438,-2.76338275858878,"Mix",0,0,0,0,0,0,0.728795,0.271205,"Europe","Southern Europe","ESP",40.24448626,-3.64754874,"XL",76.2035225048924,0.603,"Yellow","Green","Mottle2","Mottle","https://purl.org/germplasm/id/b940f722-691f-421c-ab6d-cf429acae2af;http://grs.icarda.org/accessions/?IG=5058"
88,"ILL 5151 AGL","India","ICARDA",NA,NA,NA,NA,-0.0197679890563761,0.000235101955764912,0.00233366941425511,5,-0.389534008967971,-0.967533035999868,1.79449209202318,-75.8677977240171,-299.40542524038,10.1165590925713,"G5",0,0,0,0,0.980581,0,0.019419,0,"Asia","Southern Asia","IND",22.88578035,79.61197355,"M",42.1084337349398,0.401,"Red","Brown","Spotted","Pattern","https://purl.org/germplasm/id/036330c0-3419-4ec1-88c4-901290c702ac;http://grs.icarda.org/accessions/?IG=5151"
89,"ILL 5209 AGL","Jordan","ICARDA",NA,NA,1980,"1960-1980",-0.0200050933158994,0.000232911616839259,0.00237057124810163,5,-1.1658531475664,-1.25532494264914,1.80726174118867,-111.434325871472,-321.764577066392,4.70289822528937,"G5",0,0,0,0,0.908452,0,0.091547,0,"Asia","Western Asia","JOR",31.24579389,36.77137251,"M",46.0863309352518,0.447,"Yellow","Green","Absent","Absent","https://purl.org/germplasm/id/30d7eb42-31bf-4ad5-968b-736d9f276e15;http://grs.icarda.org/accessions/?IG=5209"
90,"ILL 5480 AGL","Czech Republic","ICARDA",NA,NA,1983,"1980-2000",-0.0183241316299704,0.000413105976712591,0.00191943784055352,7,3.15406487834617,1.57396031044518,-0.75742536955421,-171.592288312353,84.0619656437589,12.3607657926533,"Mix",0,0,0,0,0,0,0.329131,0.670869,"Europe","Eastern Europe","CZE",49.69,15.6,"L",48.9724770642202,0.55,"Yellow","Green","Mottle0","Mottle","https://purl.org/germplasm/id/e4eae9f9-3216-4dee-9731-68bdec54dd61;http://grs.icarda.org/accessions/?IG=4897"
91,"ILL 5639 AGL","Ethiopia","ICARDA",NA,NA,1950,"1940-1960",-0.0206480059478978,0.00038309385967882,0.00223981027336222,4,-0.286462826792781,-0.938420755159573,-0.0176945744506511,-136.648425830186,60.4280600028947,-26.9648007709827,"Mix",0,0,0,0,0,0,0.383739,0.616261,"Africa","Eastern Africa","ETH",8.62278417,39.6008014,"M",36.9723018147087,0.442,"Yellow","Green","Mottle1","Mottle","https://purl.org/germplasm/id/e35a62f3-0408-4f97-9c7c-249c2862118b;http://grs.icarda.org/accessions/?IG=5639"
92,"ILL 5722 AGL","Turkey","ICARDA",NA,NA,1984,"1980-2000",-0.0229876094278461,0.000701509817461331,0.00214402323621217,2,-4.53780591715302,-0.180728302877506,-1.58044183797409,-109.493612392245,-78.6904455684607,1.35077341890957,"Mix",0.09873,0.077161,0,0,0.150746,0,0.480122,0.19324,"Asia","Western Asia","TUR",39.06160342,35.16895529,"L",59.0322580645161,0.55,"Red","Grey","Absent","Absent","https://purl.org/germplasm/id/3d6ae0b5-8ace-4ef0-8c15-f4841124a639;https://training.ars-grin.gov/gringlobal/AccessionDetail.aspx?id=1639034;http://grs.icarda.org/accessions/?IG=5722"
93,"ILL 5883 AGL","Jordan","ICARDA",NA,NA,1984,"1980-2000",-0.0211386279393998,0.000265796875195395,0.00242617614175506,5,-1.02014296015576,-1.63239349487666,1.17582500152056,-119.215015618625,-322.295607127931,-2.37949954726594,"G5",0,0,0,0,0.945235,0,0.054765,0,"Asia","Western Asia","JOR",31.24579389,36.77137251,"L",51.9575856443719,0.504,"Red","Green","Absent","Absent","https://purl.org/germplasm/id/660df773-88ce-41ae-a933-5fe59e8d4bd1;https://training.ars-grin.gov/gringlobal/AccessionDetail.aspx?id=1639035;http://grs.icarda.org/accessions/?IG=69492"
94,"ILL 5888 AGL","Bangladesh","ICARDA",NA,NA,1984,"1980-2000",-0.0146965106533019,0.00143241681362331,0.000903227270714473,1,-12.1227619933447,3.61163891236034,-1.31768135013158,-11.4467830673301,6.25486624206925,-124.203422288481,"Mix",0,0,0,0.378498,0,0,0.412876,0.208625,"Asia","Southern Asia","BGD",23.86730412,90.23812793,"M",38.4,0.44,"Red","Green","Dotted;Marbled","Pattern","https://purl.org/germplasm/id/a06549dd-7b4a-4528-a0f1-c01c89b9725f;https://training.ars-grin.gov/gringlobal/AccessionDetail.aspx?id=1818699;http://grs.icarda.org/accessions/?IG=69497"
95,"ILL 5945 AGL","Ethiopia","ICARDA",NA,NA,1979,"1960-1980",-0.0196909161993515,0.000453155121530744,0.00221171182217481,2,-5.7653126863827,0.00108666764326244,0.875718145463429,-65.6765954922685,-297.376375504583,10.8467437038472,"G5",0,0,0,0,1,0,0,0,"Africa","Eastern Africa","ETH",8.62278417,39.6008014,"M",31.7535545023697,0.42,"Red","Brown","Dotted;Spotted","Pattern","https://purl.org/germplasm/id/558b706d-9a55-47e4-9c6d-32ae201212d9;http://grs.icarda.org/accessions/?IG=69554"
96,"ILL 6002 AGL","ICARDA","ICARDA",NA,NA,2006,"2000-2014",-0.015005494318884,0.000712459710795806,0.00156302238199855,1,-7.05858591352253,2.5664519302534,0.21496977437002,-185.946645504847,86.3981383645455,-3.15606472505053,"Mix",0,0,0,0,0,0,0.311063,0.688937,"Other","Other",NA,NA,NA,"L",61.5161839863714,0.543,"Yellow","Green","Absent","Absent","https://training.ars-grin.gov/gringlobal/AccessionDetail.aspx?id=1818700"
97,"ILL 618 AGL","Tajikistan","ICARDA",NA,NA,1950,"1940-1960",-0.0226886972021371,0.000468460808480405,0.0022895875887102,4,-0.22649989533005,-0.947221241278848,-1.48981815611857,215.490510740615,15.0781883242436,94.6486574033517,"G6",0,0,0,0,0,1,0,0,"Asia","Central Asia","TJK",38.53045125,71.01363312,"S",28.3881856540084,0.372,"Red","Tan","Dotted","Pattern","https://purl.org/germplasm/id/3c15e86d-d459-4705-9b46-d436a5f11cfb;https://training.ars-grin.gov/gringlobal/AccessionDetail.aspx?id=1258108;http://grs.icarda.org/accessions/?IG=123621"
98,"ILL 6182 AGL","Tunisia","ICARDA",NA,NA,NA,NA,-0.0196391067441825,0.000274830416614088,0.00230511610843858,5,-1.85189438623875,-0.531863174367913,1.11297788356469,-117.775514924859,89.0696489277652,-23.8664588659995,"Mix",0,0.117143,0,0,0.018724,0,0.188456,0.675677,"Africa","Northern Africa","TUN",34.11956663,9.55288287,"S",27.9676511954993,0.368,"Red","Grey","Mottle1","Mottle","https://purl.org/germplasm/id/5c0de366-2c09-4a87-83ce-83e13e04ba65;http://grs.icarda.org/accessions/?IG=70237"
99,"ILL 6211 AGL","ICARDA","ICARDA",NA,NA,NA,NA,-0.0143353877234848,0.000642615610023463,0.00154586105012304,1,-5.81578858038517,3.15586320502756,0.454254351760024,-178.377304515679,44.9633004983974,-7.17061705258966,"Mix",0,0,0,0,0,0,0.446999,0.553001,"Other","Other",NA,NA,NA,"L",59.7745571658615,0.55,"Yellow","Green","Absent","Absent","https://purl.org/germplasm/id/1257afbf-f18b-4573-9973-7dda07887fcc;http://grs.icarda.org/accessions/?IG=71143"
100,"ILL 624 AGL","Macedonia","ICARDA",NA,NA,1970,"1960-1980",-0.0197562569122338,0.000382710972640678,0.00209937440561546,7,2.20843518843039,0.163262033229832,-0.166918186300835,-132.731583092393,222.639219478079,3.93662706919446,"G8",0,0,0,0,0,0,0,1,"Europe","Southern Europe","MKD",43.56,21.71,"M",30.4597701149425,0.407,"Yellow","Grey","Mottle1","Mottle","https://purl.org/germplasm/id/7ee113b7-8441-44cb-aab2-06581b5a67e3;https://training.ars-grin.gov/gringlobal/AccessionDetail.aspx?id=1266549;http://grs.icarda.org/accessions/?IG=624"
101,"ILL 6821 AGL","Ethiopia","ICARDA",NA,NA,NA,NA,-0.0207764931048513,0.000180116673610184,0.00248443761119751,5,0.0116102992320506,-2.25357018470392,2.26349867901906,-89.7369646292712,-316.59063822187,3.45734152218017,"G5",0,0,0,0,1,0,0,0,"Africa","Eastern Africa","ETH",8.62278417,39.6008014,"M",40.0244498777506,0.401,"Red","Tan","Absent","Absent","https://purl.org/germplasm/id/4772719a-94e3-4993-884b-62306ddfb883;http://grs.icarda.org/accessions/?IG=73685"
102,"ILL 6853 AGL","Syria","ICARDA",NA,NA,NA,NA,-0.0181023949062663,0.00021421429018847,0.00220830850381165,5,0.40392595750732,-0.148336974955016,1.80125408047403,-127.539336334338,-145.267180412434,-19.2471732919864,"G7",0,0.111213,0,0,0.050756,0,0.838031,0,"Asia","Western Asia","SYR",35.24,38.59,"XL",74.744094488189,0.618,"Yellow","Green","Mottle1","Mottle","https://purl.org/germplasm/id/a55a5edb-7a7b-4662-863d-34fa9ff6f94b;http://grs.icarda.org/accessions/?IG=73717"
103,"ILL 7089 AGL","Russia","ICARDA",NA,NA,1930,"1925-1940",-0.0237967961703435,0.000495187130771283,0.00236495418588766,4,-0.317920203997754,-1.83845615929743,-1.38625125188824,14.902652181359,73.8419014661459,47.4463414062438,"G1",1,0,0,0,0,0,0,0,"Europe","Eastern Europe","RUS",58.9,51.31,"L",51.8493150684932,0.515,"Yellow","Green","Absent","Absent","https://purl.org/germplasm/id/91e81a37-fee6-4099-9a67-ef80993e9110;http://grs.icarda.org/accessions/?IG=73953"
104,"ILL 7558 AGL","India","ICARDA",NA,NA,NA,NA,-0.0149310823454035,0.00061995399408683,0.00161529312348256,1,-5.70357772699761,3.00576758799727,0.0641246483416203,-153.445980351934,-69.4398436737893,-8.37837066208165,"Mix",0,0.007392,0,0,0,0,0.763819,0.228789,"Asia","Southern Asia","IND",22.88578035,79.61197355,"XL",63.314447592068,0.628,"Yellow","Green","Mottle1","Mottle","https://purl.org/germplasm/id/6a110ea9-f949-4ec3-be0e-87263f657d85;http://grs.icarda.org/accessions/?IG=76277"
105,"ILL 7663 AGL","ICARDA","ICARDA",NA,NA,NA,NA,-0.0146714114857404,0.00120122543774318,0.0010986929841467,1,-10.5364499757076,3.45153838244957,-0.953967386416294,142.383351329786,6.45430410410766,-95.9851510934678,"Mix",0.100094,0,0.120455,0.548544,0,0,0.124678,0.10623,"Other","Other",NA,NA,NA,"M",40.1944444444444,0.467,"Red","Green","Mottle1","Absent","https://purl.org/germplasm/id/920a17e5-c6a5-4c6d-80cc-2e6e417c65cf;http://grs.icarda.org/accessions/?IG=114665"
106,"ILL 7668 AGL","ICARDA","ICARDA",NA,NA,NA,NA,-0.0191238263712611,0.000476742556525433,0.00207692669578345,2,-3.79069427769266,0.389243923565804,0.194076390720851,169.895680989249,-67.7400925915011,-181.960556867987,"Mix",0,0,0,0.738571,0.074502,0.009523,0.177403,0,"Other","Other",NA,NA,NA,"S",34.7749196141479,0.393,"Red","Grey","Dotted;Marbled","Pattern","https://purl.org/germplasm/id/161aefdc-e802-4448-ab68-beb8124cd128;http://grs.icarda.org/accessions/?IG=114670"
107,"ILL 7716 AGL","India","ICARDA",NA,NA,NA,NA,-0.0146387984834282,0.00073544784475078,0.00148193711141799,1,-6.40595005153156,3.2140905750194,-0.0687699974828767,-192.648523688987,-36.2662325788197,-13.8469476134678,"Mix",0,0,0,0,0,0,0.744349,0.255651,"Asia","Southern Asia","IND",22.88578035,79.61197355,"L",57.8590425531915,0.561,"Yellow","Green","Absent","Absent","https://purl.org/germplasm/id/d0ce1753-3cd6-4cee-8cd5-bb81481979f6;http://grs.icarda.org/accessions/?IG=114718"
108,"ILL 7747 AGL","Syria","ICARDA",NA,NA,1986,"1980-2000",-0.0194253505995584,0.000210756434168666,0.00231843343422175,5,0.798482098192273,-1.19842702443671,2.22410638121879,18.915850435166,-25.3870720464678,-22.409605753217,"Mix",0,0.688029,0.029419,0.04134,0.042828,0,0.198385,0,"Asia","Western Asia","SYR",35.24,38.59,"M",34.6938775510204,0.402,"Yellow","Grey","Mottle0","Mottle","https://purl.org/germplasm/id/8d8ab1da-24fe-476f-b990-b6be6f6f39f8;http://grs.icarda.org/accessions/?IG=114393"
109,"ILL 7946 AGL","Syria","ICARDA",NA,NA,NA,NA,-0.0212579151535447,0.000289210839502724,0.00242100668210551,5,-1.48949984258707,-1.54573710549508,1.45436367462919,-108.707040543731,-322.633843206073,2.23756681134413,"G5",0,0,0,0,0.977806,0,0.022194,0,"Asia","Western Asia","SYR",35.24,38.59,"M",41.3141025641026,0.474,"Red","Green","Absent","Absent",NA
110,"ILL 7978 AGL","Ethiopia","ICARDA",NA,NA,NA,NA,-0.0184748229819286,0.000446417129155317,0.00211749572277885,2,-5.63876329998867,0.211834490316983,0.954807673174588,-114.366699934415,-214.218272545355,-20.090664937672,"Mix",0,0.007009,0,0,0.593542,0,0.399449,0,"Africa","Eastern Africa","ETH",8.62278417,39.6008014,"M",48.0724637681159,0.458,"Red","Grey","Absent","Absent","https://training.ars-grin.gov/gringlobal/AccessionDetail.aspx?id=1716791"
111,"ILL 7979 AGL","ICARDA","ICARDA",NA,NA,NA,NA,-0.0176887757582395,0.000415537674876443,0.00205564201319754,2,-4.53930094431666,0.655128341727433,1.28423376587492,129.428288606818,-55.460919320244,-158.332465690625,"Mix",0,0,0,0.707303,0.060585,0,0.232112,0,"Other","Other",NA,NA,NA,"S",28.5913312693498,0.385,"Red","Grey","Dotted","Pattern",NA
112,"ILL 8007 AGL","Bangladesh","ICARDA",NA,NA,NA,NA,-0.0201902939202147,0.000676571133838521,0.00204533069829179,1,-8.05252649202788,0.828647608130381,-0.351522362161541,173.051198335451,4.47977045128805,-154.202944254065,"Mix",0,0.309837,0,0.690163,0,0,0,0,"Asia","Southern Asia","BGD",23.86730412,90.23812793,"S",33.2805429864253,0.321,"Red","Green","Dotted","Pattern","https://training.ars-grin.gov/gringlobal/AccessionDetail.aspx?id=1566635"
113,"ILL 8009 AGL","Bangladesh","ICARDA",NA,NA,NA,NA,-0.0201417780043662,0.000597239562948131,0.00209536245203631,2,-6.33212819169591,0.223383695866942,-0.104112277721555,280.974692896044,9.86145959724021,-256.079696616621,"G4",0,0,0,1,0,0,0,0,"Asia","Southern Asia","BGD",23.86730412,90.23812793,"S",23.5555555555556,0.343,"Red","Grey","Dotted;Marbled","Pattern",NA
114,"ILL 8010 AGL","Bangladesh","ICARDA",NA,NA,NA,NA,-0.0194089095307392,0.000604895674507863,0.00200596586384171,2,-5.75199834911187,0.513343295394414,-0.178491109390985,134.568102040319,-75.209978554917,-175.46885088293,"Mix",0,0,0,0.689569,0.111891,0,0.19854,0,"Asia","Southern Asia","BGD",23.86730412,90.23812793,"S",26.6146341463415,0.37,"Red","Grey","Dotted;Marbled","Pattern",NA
115,"ILL 8072 AGL","India","ICARDA",NA,NA,NA,NA,-0.0213677829268911,0.000253519715042567,0.00242721285641912,5,0.470021200156842,-1.81323347816616,1.03516304001874,-147.162138580725,-88.7644877348749,-15.5241049199419,"G7",0,0.030128,0,0,0,0,0.848157,0.121714,"Asia","Southern Asia","IND",22.88578035,79.61197355,"XL",75.3389830508475,0.624,"Yellow","Dark Green","Dotted","Pattern",NA
116,"ILL 8174 AGL","ICARDA","ICARDA",NA,NA,NA,NA,-0.0206538142973808,0.000555357893828496,0.00203570537690577,3,-0.477711550321372,0.152737364800939,-1.73403033171816,-160.915878546012,63.4184982904517,9.53236341623978,"Mix",0,0,0,0,0,0,0.365629,0.634371,"Other","Other",NA,NA,NA,"L",69.820788530466,0.549,"Yellow","Green","Absent","Absent",NA
117,"ILL 8595 AGL","Ecuador","ICARDA",NA,NA,1991,"1980-2000",-0.0217688201252903,0.00068703265734545,0.00200723949617952,4,-1.84852770003284,-0.0113549276496415,-2.41789932975534,-182.978064616965,74.6997231659895,8.94159233599528,"Mix",0,0,0,0,0,0,0.347897,0.652103,"Americas","South America","ECU",-1.42381949,-78.75203573,"L",55.4516640253566,0.587,"Red","Green","Absent","Absent","https://purl.org/germplasm/id/ecae2d6c-b86f-41e0-bdbb-f9b0d965afdb;http://grs.icarda.org/accessions/?IG=123846"
118,"ILL 9 AGL","Jordan","ICARDA",NA,NA,NA,NA,-0.0219732288152038,0.000507503652300049,0.00228976375508797,2,-4.28716670261151,-0.642233351098819,-0.339700346374698,-104.074669995677,-180.476595089302,-26.8443305082351,"Mix",0,0.036653,0,0.049217,0.227843,0,0.686287,0,"Asia","Western Asia","JOR",31.24579389,36.77137251,"L",57.8125,0.512,"Yellow","Green","Absent","Absent","https://purl.org/germplasm/id/4f31a03a-02f2-4d0e-b5a7-1c99cbb316f8;http://grs.icarda.org/accessions/?IG=9"
119,"ILL 975 AGL","Chile","ICARDA",NA,NA,1964,"1960-1980",-0.0201713480452719,0.000174525460799872,0.00246558109453986,5,-1.07701452572609,-1.80453781346534,2.55237564780516,-107.458095706516,-316.461881299793,-4.0287178291489,"G5",0,0,0,0,0.923387,0,0.076613,0,"Americas","South America","CHL",-37.73069754,-71.38255879,"M",40.1072386058981,0.46,"Yellow","Green","Absent","Absent","https://purl.org/germplasm/id/41b52c69-914c-42e5-8b59-0a36b7f141d5;https://training.ars-grin.gov/gringlobal/AccessionDetail.aspx?id=1225952;http://grs.icarda.org/accessions/?IG=369"
120,"ILL 9888 AGL","ICARDA","ICARDA",NA,NA,NA,NA,-0.0223253530049631,0.000399238050621253,0.00240446717029735,2,-2.92547403167088,-1.06255290902868,0.0298360138403923,-123.910267730051,-224.6271784982,-0.829058772171687,"Mix",0,0,0,0,0.669927,0,0.267818,0.062254,"Other","Other",NA,NA,NA,"M",30.762331838565,0.432,"Red","Green","Absent","Absent",NA
121,"ILL 9932 AGL","ICARDA","ICARDA",NA,NA,NA,NA,-0.0207385718770464,0.000436004571352772,0.0022670501430505,2,-4.02464282886048,-0.622926476185234,0.613588456128973,187.072941984094,20.1719474425471,-161.735288442635,"Mix",0,0.392022,0,0.607978,0,0,0,0,"Other","Other",NA,NA,NA,"S",30.5535714285714,0.388,"Red","Brown","Dotted;Marbled","Pattern",NA
122,"ILL 9945 AGL","ICARDA","ICARDA",NA,NA,NA,NA,-0.0213081404081692,0.000317663746469073,0.00245864245098072,2,-4.43236019080937,-0.930074090084217,1.35473710521904,139.81032447172,-68.1461756148899,-147.457722095851,"Mix",0.065214,0,0,0.643437,0.083715,0,0.207634,0,"Other","Other",NA,NA,NA,"S",37.693522906793,0.386,"Red","Brown","Absent","Absent",NA
123,"ILL 9977 AGL","Jordan","ICARDA",NA,NA,NA,NA,-0.020439562663141,0.000476609572929524,0.00222978837141404,2,-5.19327430970576,-0.427992528796569,0.442509120829836,213.779881504929,15.2516653668859,-190.722734617051,"Mix",0,0.331423,0,0.668577,0,0,0,0,"Asia","Western Asia","JOR",31.24579389,36.77137251,"S",34.9267399267399,0.388,"Red","Brown","Dotted;Marbled","Pattern",NA
124,"ILL 9997 AGL","ICARDA","ICARDA",NA,NA,NA,NA,-0.0181007078716665,0.000558586412680757,0.00196188415163886,2,-5.94020849953074,0.981560834005862,0.409272660241701,168.744452463351,-18.945392155408,-109.632150334622,"G4",0.055684,0,0.120779,0.823537,0,0,0,0,"Other","Other",NA,NA,NA,"M",39.4332723948812,0.463,"Red","Dark Green","Dotted;Marbled","Pattern",NA
125,"ILWL 118 AGL","Syria","ICARDA",NA,NA,NA,NA,-0.0181038082008967,0.00047806833411343,0.00194358737325872,3,-1.67374607813821,1.11015305097051,-0.154917687268268,209.709991516418,-5.59645493968139,-223.636147097368,"G4",0,0,0,0.898442,0,0,0.101557,0,"Asia","Western Asia","SYR",35.24,38.59,NA,31.6862416107383,0.4,"Red","Green","Mottle0","Mottle","https://purl.org/germplasm/id/e63cd963-5ee4-4e53-be75-1055a2f9dce3;http://grs.icarda.org/accessions/?IG=72641"
126,"Indianhead AGL","Canada","USASK",52.137,-106.622,1988,"1980-2000",-0.0135466479308833,0.000356492742805798,0.0015328159155642,8,6.77019978728111,5.24596692245072,0.26280164028116,-131.99438570369,210.440999935767,-2.36951787640954,"G8",0,0,0,0,0,0,0,1,"Americas","Northern America","CAN",52.137,-106.622,"S",23.7138508371385,0.373,"Yellow","Black","Marbled","Present",NA
127,"IPL 220 AGL","India","ICARDA",NA,NA,NA,NA,-0.0196492323276315,0.000596969761528934,0.0020682141954121,1,-6.70147532233673,0.676434852595636,-0.292085070322163,253.574717174,4.79752631901258,-199.308137209592,"G4",0.011727,0,0.068565,0.919708,0,0,0,0,"Asia","Southern Asia","IND",22.88578035,79.61197355,"S",27.8492239467849,0.382,"Red","Grey","Dotted;Marbled","Pattern",NA
128,"Laird AGL","Canada","USASK",52.137,-106.622,1979,"1960-1980",-0.0147730645107197,0.000501797727829543,0.00154237038808056,8,2.60773931055975,4.20057417579474,-0.443041260513521,-189.785040774483,122.279823834569,4.17896308026309,"G8",0,0,0,0,0,0,0.178175,0.821825,"Americas","Northern America","CAN",52.137,-106.622,"XL",64.4373401534527,0.632,"Yellow","Green","Absent","Absent","https://purl.org/germplasm/id/85847695-23b8-4fee-a222-35e651efac83;https://training.ars-grin.gov/gringlobal/AccessionDetail.aspx?id=1255958;http://grs.icarda.org/accessions/?IG=614"
129,"LIRL-22-46 AGL","India","ICARDA",NA,NA,NA,NA,-0.0147492185160823,0.000888692512358925,0.00138065698628279,1,-8.22160481473127,3.03938772758113,-0.474997883917379,-77.183972547238,-15.0520658933617,-76.3257540125306,"Mix",0,0,0,0.222119,0,0,0.569821,0.20806,"Asia","Southern Asia","IND",22.88578035,79.61197355,"M",39.5671981776765,0.461,"Red","Green","Absent","Absent",NA
130,"PI 163589 AGL","Guatemala","USDA",NA,NA,1948,"1940-1960",-0.0178276106038167,0.000260078003331449,0.00208183984801771,7,3.2362433375396,0.0109693944736981,1.90334302573612,-197.775915720695,-183.058570008099,-16.9678509671343,"G7",0,0,0,0,0,0,1,0,"Americas","Central America","GTM",15.69404158,-90.36482288,"L",57.5637393767705,0.56,"Yellow","Green","Absent","Absent","https://purl.org/germplasm/id/1239e159-2a4f-48ba-adb5-429f9ba454da;https://training.ars-grin.gov/gringlobal/AccessionDetail.aspx?id=1140610;http://grs.icarda.org/accessions/?IG=106"
131,"PI 169534 LSP AGL","Turkey","USDA",41.66666667,26.56666667,1948,"1940-1960",-0.0202320188232633,0.00050040983311653,0.00200618997249469,6,2.09848480243571,0.498551051943323,-1.69948169837597,-114.217003154784,211.185464770889,-10.1630761357948,"G8",0,0,0,0,0,0,0,1,"Asia","Western Asia","TUR",39.06160342,35.16895529,"S",28.698347107438,0.363,"Yellow","Grey","Mottle1","Mottle","https://purl.org/germplasm/id/ab01d6ea-8056-492a-8f70-fdf0ad94e8f9;https://training.ars-grin.gov/gringlobal/AccessionDetail.aspx?id=1818402;http://grs.icarda.org/accessions/?IG=115"
132,"PI 175754 LSP AGL","Turkey","USDA",39.74194444,39.4925,1948,"1940-1960",-0.022447317758234,0.000372136249109371,0.00236111261613085,4,1.06459859670053,-1.53385031379777,-0.584631578406413,-70.214949994102,80.0675962523102,15.8286469458255,"Mix",0.365169,0.103801,0,0,0,0,0.117983,0.413048,"Asia","Western Asia","TUR",39.06160342,35.16895529,"L",45.347137637028,0.504,"Red","Grey","Dotted","Pattern","https://purl.org/germplasm/id/23a849e3-596f-4bdd-8ab8-c19c87a05971;https://training.ars-grin.gov/gringlobal/AccessionDetail.aspx?id=1818403;http://grs.icarda.org/accessions/?IG=137"
133,"PI 177430 LSP AGL","Turkey","USDA",NA,NA,1948,"1940-1960",-0.0195434044399246,0.000283878956374933,0.00219725371823141,7,2.28655059038869,-0.308561490754754,0.595829872562314,139.586609479326,14.7814816008148,-15.2206817303637,"Mix",0.161351,0.421836,0.096788,0.192258,0,0.127768,0,0,"Asia","Western Asia","TUR",39.06160342,35.16895529,"M",39.4534412955466,0.403,"Red","Brown","Mottle1","Mottle","https://purl.org/germplasm/id/3a6cdf8a-fb67-48db-a89e-23c36a3d2b9b;https://training.ars-grin.gov/gringlobal/AccessionDetail.aspx?id=1818404;http://grs.icarda.org/accessions/?IG=151"
134,"PI 178939 LSP AGL","Turkey","USDA",NA,NA,1948,"1940-1960",-0.0199188309308526,0.000405749985819729,0.00207470819933308,6,2.65377853995994,0.318764665727911,-1.29390961102747,-118.804961355672,203.073208263598,-6.70078795494666,"G8",0,0,0,0,0,0,0,1,"Asia","Western Asia","TUR",39.06160342,35.16895529,"M",28.4911986588433,0.402,"Yellow","Green","Mottle1","Mottle","https://purl.org/germplasm/id/178aa588-458f-4aa0-b7f6-a646e4248cfd;https://training.ars-grin.gov/gringlobal/AccessionDetail.aspx?id=1818405;http://grs.icarda.org/accessions/?IG=162"
135,"PI 178952 AGL","Turkey","USDA",NA,NA,1948,"1940-1960",-0.02228042046085,0.000469893465677063,0.00225369682851118,4,0.030125683860616,-0.960444735467426,-1.24942860149562,45.9951013654943,108.942594569428,51.9270649195598,"G1",1,0,0,0,0,0,0,0,"Asia","Western Asia","TUR",39.06160342,35.16895529,"S",34.4991511035654,0.397,"Red","Grey","Absent","Mottle","https://purl.org/germplasm/id/7c473c64-b3fd-43d6-92c8-0e9158a115c5;https://training.ars-grin.gov/gringlobal/AccessionDetail.aspx?id=1154999;http://grs.icarda.org/accessions/?IG=167"
136,"PI 178971 LSP AGL","Turkey","USDA",NA,NA,1948,"1940-1960",-0.0195746245135615,0.000385882490140457,0.00208385204295034,6,2.0958993635565,0.16436368142117,-0.351947530941374,245.903169652862,9.36710621741974,64.8676228096257,"G6",0,0,0,0,0,1,0,0,"Asia","Western Asia","TUR",39.06160342,35.16895529,"S",27.7964323189927,0.384,"Red","Green","Dotted","Pattern","https://purl.org/germplasm/id/25cd336c-5dfa-479e-8db9-b219888ddf3c;https://training.ars-grin.gov/gringlobal/AccessionDetail.aspx?id=1818408;http://grs.icarda.org/accessions/?IG=173"
137,"PI 179324 LSP AGL","Turkey","USDA",NA,NA,1948,"1940-1960",-0.0210780680211194,0.00027379224721512,0.00233815710597529,6,2.97286136031896,-1.88884807427721,0.798611538118896,23.6029512127638,46.1401449291159,-31.0415602349485,"G2",0,1,0,0,0,0,0,0,"Asia","Western Asia","TUR",39.06160342,35.16895529,"M",40.2091254752852,0.421,"Red","Green","Dotted","Pattern","https://purl.org/germplasm/id/c0e2b171-046b-4dbc-a805-664d30a69fdb;https://training.ars-grin.gov/gringlobal/AccessionDetail.aspx?id=1818409;http://grs.icarda.org/accessions/?IG=185"
138,"PI 179330 AGL","Turkey","USDA",NA,NA,1948,"1940-1960",-0.021458333512182,0.00033663780911213,0.00230104257261691,6,1.59158838764847,-0.939860244883439,-0.459828068133318,35.1770869180421,83.5148818464369,62.4196713255701,"G1",1,0,0,0,0,0,0,0,"Asia","Western Asia","TUR",39.06160342,35.16895529,"M",46.151832460733,0.444,"Yellow","Green","Absent","Absent","https://purl.org/germplasm/id/2fbb49b3-04f3-492e-8772-d2a76ab21c53;https://training.ars-grin.gov/gringlobal/AccessionDetail.aspx?id=1155278;http://grs.icarda.org/accessions/?IG=186"
139,"PI 181771 LSP AGL","Lebanon","USDA",NA,NA,1949,"1940-1960",-0.0192447425134948,0.000372932158931131,0.00207208971972276,7,1.98693002305749,0.326650417102443,-0.0753680419036345,254.197410244442,10.6454381263197,66.28137754846,"G6",0,0,0,0,0,1,0,0,"Asia","Western Asia","LBN",33.92306993,35.88016327,"S",27.6248904469763,0.333,"Red","Green","Dotted","Pattern","https://purl.org/germplasm/id/e1105f8b-7da6-46f5-acb4-10872a41d97a;https://training.ars-grin.gov/gringlobal/AccessionDetail.aspx?id=1818411;http://grs.icarda.org/accessions/?IG=932"
140,"PI 181886 LSP AGL","Syria","USDA",NA,NA,1949,"1940-1960",-0.0192591664910443,0.000218608580481479,0.00228672158269244,5,1.06284997527685,-1.03593468261026,2.07770949567993,-138.885956331931,-138.530764805727,-29.0615151697308,"G7",0,0.116541,0,0,0,0,0.883458,0,"Asia","Western Asia","SYR",35.24,38.59,"XL",74.0939597315436,0.627,"Yellow","Green","Mottle1","Mottle","https://purl.org/germplasm/id/4a29bf29-a278-4841-bcfc-7d2e16a4368a;https://training.ars-grin.gov/gringlobal/AccessionDetail.aspx?id=1818412;http://grs.icarda.org/accessions/?IG=192"
141,"PI 182217 LSP AGL","Turkey","USDA",NA,NA,1948,"1940-1960",-0.021993713022822,0.000417838920279882,0.0022804093554737,4,0.309310876175083,-0.72581436396736,-1.26738611397646,100.819874652451,53.1408670027711,63.2983559601576,"G1",0.807818,0,0,0,0,0.192182,0,0,"Asia","Western Asia","TUR",39.06160342,35.16895529,"S",30.8467741935484,0.382,"Red","Brown","Absent","Absent","https://purl.org/germplasm/id/c426bfca-4343-4dbf-bea6-8b5fe8e4d4cd;https://training.ars-grin.gov/gringlobal/AccessionDetail.aspx?id=1818413;http://grs.icarda.org/accessions/?IG=196"
142,"PI 193546 AGL","Ethiopia","USDA",NA,NA,1950,"1940-1960",-0.0204470584246609,0.000218147111268062,0.00238081232158093,5,1.34407237181867,-1.78823129450234,1.69839956740706,45.3599238197563,39.506513532714,-44.0980842483821,"G2",0,1,0,0,0,0,0,0,"Africa","Eastern Africa","ETH",8.62278417,39.6008014,"M",43.6543209876543,0.406,"Red","Grey","Dotted","Pattern","https://purl.org/germplasm/id/c79b85d9-bf7d-4285-a96c-dcfb9311376c;https://training.ars-grin.gov/gringlobal/AccessionDetail.aspx?id=1164631;http://grs.icarda.org/accessions/?IG=203"
143,"PI 193547 LSP AGL","Ethiopia","USDA",NA,NA,1950,"1940-1960",-0.0175320127841251,0.000299888988729817,0.00200366774095894,7,2.72706374887284,1.06386744548897,0.683796027855747,253.553409514492,13.001112790281,64.0223976771586,"G6",0,0,0,0,0,1,0,0,"Africa","Eastern Africa","ETH",8.62278417,39.6008014,"S",26.5604249667995,0.357,"Red","Grey","Mottle1","Mottle","https://purl.org/germplasm/id/c8380dac-0238-4527-83de-cbb04bbe3948;https://training.ars-grin.gov/gringlobal/AccessionDetail.aspx?id=1818414;http://grs.icarda.org/accessions/?IG=204"
144,"PI 193548 LSP AGL","Ethiopia","USDA",NA,NA,1950,"1940-1960",-0.0202372262998471,0.00046565376477778,0.00224921010512524,2,-6.26572401348265,-0.124245732377812,0.661120116329948,-66.7965129440228,-302.755185137454,11.7968366742492,"G5",0,0,0,0,1,0,0,0,"Africa","Eastern Africa","ETH",8.62278417,39.6008014,"M",31.2719891745602,0.405,"Red","Brown","Dotted;Spotted","Pattern","https://purl.org/germplasm/id/06edc626-5aac-4853-9143-8b7d0e8a5fe1;https://training.ars-grin.gov/gringlobal/AccessionDetail.aspx?id=1818415;http://grs.icarda.org/accessions/?IG=934"
145,"PI 193550 AGL","Ethiopia","USDA",NA,NA,1950,"1940-1960",-0.0200583551096951,0.00057125943476231,0.00213846865881095,1,-6.91038856045468,0.120564370123796,0.0139457633216599,-72.693051396186,-325.822227241227,11.7001132876397,"G5",0,0,0,0,1,0,0,0,"Africa","Eastern Africa","ETH",8.62278417,39.6008014,"M",27.7663772691397,0.409,"Red","Brown","Dotted;Spotted","Pattern","https://purl.org/germplasm/id/0c03fe9e-830e-4212-9a8e-4d6972d0a0b4;https://training.ars-grin.gov/gringlobal/AccessionDetail.aspx?id=1164635;http://grs.icarda.org/accessions/?IG=936"
146,"PI 207492 LSP AGL","Afghanistan","USDA",NA,NA,1953,"1940-1960",-0.0199720639863297,0.000380549002825659,0.00212689966740671,6,1.78971604311093,-0.189380257834873,-0.285886681497469,266.430637909829,12.7616277654358,69.3288524254122,"G6",0,0,0,0,0,1,0,0,"Asia","Southern Asia","AFG",33.83523216,66.00473115,"S",27.6917057902973,0.387,"Red","Green","Dotted","Pattern","https://purl.org/germplasm/id/e9642f34-fd31-4427-8989-6339e2cb3afe;https://training.ars-grin.gov/gringlobal/AccessionDetail.aspx?id=1818417;http://grs.icarda.org/accessions/?IG=937"
147,"PI 518731 LSP AGL","Brazil","USDA",NA,NA,1988,"1980-2000",-0.0204020563030291,0.000435753143295158,0.00210664364401011,6,1.45994560309952,-0.0165961170559884,-1.04873428604188,-118.785994791067,162.661595861507,-12.8779253076744,"G8",0,0.045778,0,0,0,0,0,0.954222,"Americas","South America","BRA",-10.78777567,-53.09783199,"M",34.0133460438513,0.438,"Red","Brown","Mottle1","Mottle","https://purl.org/germplasm/id/6dbf28df-1f5e-4b17-88f2-32b256bcadb1;https://training.ars-grin.gov/gringlobal/AccessionDetail.aspx?id=1818676"
148,"PI 209858 LSP AGL","Greece","USDA",NA,NA,1953,"1940-1960",-0.0142703629947632,0.000255784135311815,0.00172890685574431,8,6.49115500618628,2.88563805315233,1.67926261708971,-100.499556170403,-328.232837219698,10.8905953147847,"G5",0,0,0,0,1,0,0,0,"Europe","Southern Europe","GRC",39.07466973,22.95556207,"XL",38.6089238845144,0.635,"Yellow","Green","Absent","Absent","https://purl.org/germplasm/id/cac6b7a2-4dc4-413e-b012-bc45f48d1356;https://training.ars-grin.gov/gringlobal/AccessionDetail.aspx?id=1818419;http://grs.icarda.org/accessions/?IG=940"
149,"PI 211052 LSP AGL","Afghanistan","USDA",NA,NA,1953,"1940-1960",-0.0219148375877499,0.000342913093672877,0.00231670664399989,6,3.10293578256357,-1.54988941832207,-0.334523939950503,229.808628592318,-1.1089832792562,109.119025742982,"G6",0,0,0,0,0,1,0,0,"Asia","Southern Asia","AFG",33.83523216,66.00473115,"S",25.2452583387835,0.395,"Red","Brown","Marbled","Pattern","https://purl.org/germplasm/id/45abb872-567f-45ba-8b1a-a7c1448d5d8b;https://training.ars-grin.gov/gringlobal/AccessionDetail.aspx?id=1818420;http://grs.icarda.org/accessions/?IG=938"
150,"PI 212100 LSP AGL","Afghanistan","USDA",NA,NA,1953,"1940-1960",-0.0203521046802711,0.000341110997808189,0.00219175187014457,6,2.67796066999473,-0.540290951693412,0.183389753166404,242.4824822715,8.54316418776821,64.3761709738084,"G6",0,0,0,0,0,1,0,0,"Asia","Southern Asia","AFG",33.83523216,66.00473115,"M",27.5443383356071,0.419,"Red","Grey","Dotted","Pattern","https://purl.org/germplasm/id/264ab7ac-ac66-43c5-bf75-28536ecf767a;https://training.ars-grin.gov/gringlobal/AccessionDetail.aspx?id=1818422;http://grs.icarda.org/accessions/?IG=215"
151,"PI 212610 LSP AGL","Afghanistan","USDA",NA,NA,1953,"1940-1960",-0.0190912362667217,0.000361377902393808,0.00206516613324559,7,2.63048898358494,0.356343631605593,0.251946923101775,246.497720476365,10.8668169632081,70.3979215637977,"G6",0,0,0,0,0,1,0,0,"Asia","Southern Asia","AFG",33.83523216,66.00473115,"S",27.28,0.393,"Red","Green","Marbled","Pattern","https://purl.org/germplasm/id/5daf6156-09d0-4be9-9c58-3d04884c9186;https://training.ars-grin.gov/gringlobal/AccessionDetail.aspx?id=1818423;http://grs.icarda.org/accessions/?IG=217"
152,"PI 217949 LSP AGL","Pakistan","USDA",NA,NA,1954,"1940-1960",-0.0220093710335127,0.000324267035178855,0.00246477754097448,2,-2.82253643545127,-1.47202377151699,0.893350380773707,274.405736040354,13.2482078561557,-247.685483054224,"G4",0,0,0,1,0,0,0,0,"Asia","Southern Asia","PAK",29.94975221,69.33958027,"S",23.0480949406621,0.342,"Red","Grey","Marbled","Pattern","https://purl.org/germplasm/id/609b1247-65d2-40f0-9550-b7097b3deeea;https://training.ars-grin.gov/gringlobal/AccessionDetail.aspx?id=1818424;http://grs.icarda.org/accessions/?IG=222"
153,"PI 238758 LSP AGL","Belgium","USDA",NA,NA,1957,"1940-1960",-0.0196432811721665,0.000610867755166073,0.00186568923600773,3,0.224041788885697,1.39433280921121,-1.9343710764809,-187.166870395163,102.358502704745,8.55704280544889,"Mix",0,0,0,0,0,0,0.293954,0.706046,"Europe","Western Europe","BEL",50.63981435,4.64064572,"XL",64.5982142857143,0.629,"Yellow","Green","Mottle1","Mottle","https://purl.org/germplasm/id/7ad4f99d-fa8a-42ed-aa4b-5d3491930c67;https://training.ars-grin.gov/gringlobal/AccessionDetail.aspx?id=1818425;http://grs.icarda.org/accessions/?IG=949"
154,"PI 244046 AGL","Yemen","USDA",NA,NA,1957,"1940-1960",-0.0199387724205375,0.000755058934067144,0.00197333318259816,1,-9.1222662873669,0.708913842638669,-0.443317526952954,-67.5861264488531,-311.742610638455,11.5276396499528,"G5",0,0,0,0,1,0,0,0,"Asia","Western Asia","YEM",15.90927655,47.58676005,"S",32.7288578901482,0.391,"Red","Brown","Dotted;Spotted","Pattern","https://purl.org/germplasm/id/fb43cebe-0beb-4d63-9f65-852f2ad3cf8e;https://training.ars-grin.gov/gringlobal/AccessionDetail.aspx?id=1188667;http://grs.icarda.org/accessions/?IG=950"
155,"PI 250156 LSP AGL","Pakistan","USDA",NA,NA,1958,"1940-1960",-0.021592538581018,0.00029373037918212,0.00240762327740319,5,0.189304981454491,-1.91532819727301,1.21400208122836,253.055428961121,15.8316470000379,-224.391461459942,"G4",0,0,0,1,0,0,0,0,"Asia","Southern Asia","PAK",29.94975221,69.33958027,"S",27.1260683760684,0.373,"Red","Brown","Dotted","Pattern","https://purl.org/germplasm/id/d304a79c-3542-4164-8e7b-1cf2d999d87b;https://training.ars-grin.gov/gringlobal/AccessionDetail.aspx?id=1818427;http://grs.icarda.org/accessions/?IG=229"
156,"PI 250158 LSP AGL","Pakistan","USDA",NA,NA,1958,"1940-1960",-0.0185117972084681,0.000487599210040874,0.00208247180823828,2,-6.13161328701776,0.399298794595652,0.948127246779265,276.302840033827,6.76569696710961,-261.657237229756,"G4",0,0,0,1,0,0,0,0,"Asia","Southern Asia","PAK",29.94975221,69.33958027,"S",23.7626628075253,0.32,"Red","Grey","Dotted;Marbled","Pattern","https://purl.org/germplasm/id/c5a327ea-82bb-4eb9-9aab-8e083adb114b;https://training.ars-grin.gov/gringlobal/AccessionDetail.aspx?id=1818428;http://grs.icarda.org/accessions/?IG=945"
157,"PI 251248 LSP AGL","Egypt","USDA",NA,NA,1958,"1940-1960",-0.0217350699952379,0.000811217026719962,0.00208567873474659,1,-9.78607249794876,0.240253901398907,-0.746500541121326,-72.4234691713367,-322.986813091303,12.2807617296845,"G5",0,0,0,0,1,0,0,0,"Africa","Northern Africa","EGY",26.49593108,29.8618993,"M",31.7980022197558,0.41,"Red","Brown","Dotted;Spotted","Pattern","https://purl.org/germplasm/id/d3462500-d548-4129-8e9e-190475926f18;https://training.ars-grin.gov/gringlobal/AccessionDetail.aspx?id=1818430;http://grs.icarda.org/accessions/?IG=236"
158,"PI 273664 LSP AGL","Ethiopia","USDA",9.58333333,41.86666667,1961,"1960-1980",-0.0216071274890688,0.000301793559044358,0.00233126102468092,6,3.64860108698738,-1.82376088290874,0.0245390758387652,262.203299839702,14.5882070762271,-220.867769276198,"G4",0,0,0,1,0,0,0,0,"Africa","Eastern Africa","ETH",8.62278417,39.6008014,NA,27.8790697674419,0.41,"Red","Grey","Dotted","Pattern","https://purl.org/germplasm/id/1d6886f4-f6db-43ca-9767-fe3d7a31983a;https://training.ars-grin.gov/gringlobal/AccessionDetail.aspx?id=1818433;http://grs.icarda.org/accessions/?IG=247"
159,"PI 280686 AGL","Egypt","USDA",NA,NA,1962,"1960-1980",-0.0191901071059357,0.000544864327648067,0.00204847357728953,2,-5.33729916079256,0.644801679010427,-0.346159518383143,-67.4616973773231,-236.901218658332,-7.23427675073667,"Mix",0.010298,0,0,0.062843,0.746979,0,0.179881,0,"Africa","Northern Africa","EGY",26.49593108,29.8618993,"M",36.9102990033223,0.486,"Red","Grey","Absent","Absent","https://purl.org/germplasm/id/ab31b795-eb81-4212-aef1-96340d1f2f50;https://training.ars-grin.gov/gringlobal/AccessionDetail.aspx?id=1208845;http://grs.icarda.org/accessions/?IG=784"
160,"PI 283604 LSP AGL","Portugal","USDA",NA,NA,1962,"1960-1980",-0.0182498256104304,0.00025108122920829,0.00212277039698593,7,2.95679755250662,0.0511149152106857,1.39640079398564,-208.354312389599,-143.936564653742,-19.2371476698117,"G7",0,0,0,0,0,0,1,0,"Europe","Southern Europe","PRT",39.59550247,-8.50105506,"XL",69.0576923076923,0.655,"Yellow","Green","Absent","Absent","https://purl.org/germplasm/id/13025662-de41-4a73-9e47-322afacf5430;https://training.ars-grin.gov/gringlobal/AccessionDetail.aspx?id=1818435;http://grs.icarda.org/accessions/?IG=1918"
161,"PI 289066 AGL","Czech Republic","USDA",NA,NA,1963,"1960-1980",-0.0143645523935522,0.00025905343162162,0.00173704883314431,8,6.62503290496839,2.58363253095195,1.89797723003281,-98.0311714389203,-320.05069694644,10.7208519570055,"G5",0,0,0,0,0.957217,0,0.042783,0,"Europe","Eastern Europe","CZE",49.69,15.6,"M",40.0125313283208,0.426,"Yellow","Green","Absent","Absent","https://purl.org/germplasm/id/dd82bc57-6444-4d11-b0e8-8e224b5a92c5;https://training.ars-grin.gov/gringlobal/AccessionDetail.aspx?id=1218721;http://grs.icarda.org/accessions/?IG=521"
162,"PI 289073 LSP AGL","Hungary","USDA",NA,NA,1963,"1960-1980",-0.0186422807800522,0.000356380188291917,0.00202711442529312,7,2.66148113122426,0.812502220547732,-0.244610277855432,-160.566542896805,201.623722023704,-9.03960142871432,"G8",0,0,0,0,0,0,0,1,"Europe","Eastern Europe","HUN",47.16277712,19.39559381,"M",31.8814139110604,0.456,"Yellow","Dark Green","Marbled","Pattern","https://purl.org/germplasm/id/154519c2-7aad-457e-9ac7-804be81e0d19;https://training.ars-grin.gov/gringlobal/AccessionDetail.aspx?id=1818438;http://grs.icarda.org/accessions/?IG=4894"
163,"PI 289079 LSP AGL","Egypt","USDA",NA,NA,1963,"1960-1980",-0.0179774561937878,0.000318636789087645,0.00199160896873608,7,4.01996513601132,1.15534409950996,0.0618698993667954,-163.173477223803,185.011043364306,-6.74415720190752,"G8",0,0,0,0,0,0,0,1,"Africa","Northern Africa","EGY",26.49593108,29.8618993,"L",33.5398230088496,0.501,"Yellow","Dark Green","Marbled","Pattern","https://purl.org/germplasm/id/0e20d23a-d0e8-432f-91e1-16df79248c6f;https://training.ars-grin.gov/gringlobal/AccessionDetail.aspx?id=1818440;http://grs.icarda.org/accessions/?IG=702"
164,"PI 290716 LSP AGL","Unknown","USDA",NA,NA,1963,"1960-1980",-0.0198670677047517,0.000358526190944522,0.00213967324894538,7,2.21592673627238,-0.162922682374585,0.251842434550358,271.005221293068,12.5773801696148,74.5157667190349,"G6",0,0,0,0,0,1,0,0,"Other","Other",NA,NA,NA,"M",33.9245283018868,0.405,"Red","Grey","Dotted;Marbled","Pattern","https://purl.org/germplasm/id/33d7133c-a346-4173-839a-1c84fcbb7508;https://training.ars-grin.gov/gringlobal/AccessionDetail.aspx?id=1818441;http://grs.icarda.org/accessions/?IG=1921"
165,"PI 297285 LSP AGL","Argentina","USDA",NA,NA,1964,"1960-1980",-0.0177544063385113,0.00036265712181028,0.00196287646503173,7,1.80223675172324,1.46174446829727,0.0607615743391099,-194.007508465244,66.4899925408303,-3.27600512137757,"Mix",0,0,0,0,0,0,0.382212,0.617788,"Americas","South America","ARG",-35.38135347,-65.17980881,"L",51.2481857764877,0.543,"Yellow","Green","Absent","Absent","https://purl.org/germplasm/id/15489326-fae7-4476-aec1-3801e89bed7a;https://training.ars-grin.gov/gringlobal/AccessionDetail.aspx?id=1818443;http://grs.icarda.org/accessions/?IG=269"
166,"PI 297287 AGL","Argentina","USDA",NA,NA,1964,"1960-1980",-0.0197798114361522,0.000294935375245688,0.00221246128795329,6,1.71559820355137,-0.249516947357251,0.212438129300726,-175.811592500943,-9.94011593028913,-6.05813626133732,"Mix",0,0,0,0,0,0,0.647182,0.352818,"Americas","South America","ARG",-35.38135347,-65.17980881,"XL",65.1449275362319,0.64,"Yellow","Green","Absent","Absent","https://purl.org/germplasm/id/2262305e-2043-4339-b771-3898ced9343e;https://training.ars-grin.gov/gringlobal/AccessionDetail.aspx?id=1224845;http://grs.icarda.org/accessions/?IG=270"
167,"PI 297754 LSP AGL","Greece","USDA",39.63333333,22.41666667,1964,"1960-1980",-0.0213774183055505,0.000410813743096056,0.00219719729442544,6,2.33750423698242,-0.48456637739288,-1.52296718534549,-127.888390721994,208.202475280691,-1.80345173178,"G8",0,0,0,0,0,0,0,1,"Europe","Southern Europe","GRC",39.07466973,22.95556207,"M",29.8201798201798,0.433,"Yellow","Green","Mottle1","Mottle","https://purl.org/germplasm/id/b8147a46-9c63-400c-92ef-3d0adbfb9fb8;https://training.ars-grin.gov/gringlobal/AccessionDetail.aspx?id=1818446;http://grs.icarda.org/accessions/?IG=286"
168,"PI 297767 AGL","Greece","USDA",NA,NA,1964,"1960-1980",-0.0184459844980908,0.000273315352829186,0.00209845474513577,7,3.79692533774788,0.0210166940775844,1.05797499119666,-178.822959617648,-212.284365618576,-8.00211753534871,"G7",0,0,0,0,0.048852,0,0.951148,0,"Europe","Southern Europe","GRC",39.07466973,22.95556207,"XL",69.3835616438356,0.657,"Yellow","Green","Absent","Absent","https://purl.org/germplasm/id/2311f896-2602-4ba9-98b3-58f40fb11d06;https://training.ars-grin.gov/gringlobal/AccessionDetail.aspx?id=1225038;http://grs.icarda.org/accessions/?IG=299"
169,"PI 297772 LSP AGL","Greece","USDA",NA,NA,1964,"1960-1980",-0.0186002235877103,0.000211791371626599,0.00222115074910792,7,2.1994838043206,-0.648345198754042,2.15711686994129,59.1251296771679,36.3020542199516,-37.7433798767072,"G2",0,1,0,0,0,0,0,0,"Europe","Southern Europe","GRC",39.07466973,22.95556207,"S",37.8145695364238,0.391,"Red","Grey","Dotted","Pattern","https://purl.org/germplasm/id/6b634a38-56f9-4f2e-98b7-4982c8d8b6b2;https://training.ars-grin.gov/gringlobal/AccessionDetail.aspx?id=1818448;http://grs.icarda.org/accessions/?IG=304"
170,"PI 297783 AGL","Ethiopia","USDA",NA,NA,1964,"1960-1980",-0.0206234192013008,0.000515072840489505,0.00223118324331961,2,-6.56338584017137,-0.186907575741251,0.25067182467305,-73.5858878414806,-331.28502896174,11.194695392324,"G5",0,0,0,0,1,0,0,0,"Africa","Eastern Africa","ETH",8.62278417,39.6008014,"M",31.1379800853485,0.442,"Red","Brown","Dotted;Spotted","Pattern","https://purl.org/germplasm/id/612fd45c-df9f-459b-8794-ea4dfb1bbbde;https://training.ars-grin.gov/gringlobal/AccessionDetail.aspx?id=1225054;http://grs.icarda.org/accessions/?IG=315"
171,"PI 297787 LSP AGL","Russia","USDA",NA,NA,1964,"1960-1980",-0.0224124913147955,0.000396197724650966,0.00232569195326115,6,1.06493407744034,-1.36114299771763,-1.11517177644598,220.892477313253,10.3979780441152,88.2681144454006,"G6",0,0,0,0,0,1,0,0,"Europe","Eastern Europe","RUS",58.9,51.31,"S",29.0264650283554,0.397,"Red","Tan","Dotted","Pattern","https://purl.org/germplasm/id/a49a998c-9407-42bb-ae94-6487607e8ac9;https://training.ars-grin.gov/gringlobal/AccessionDetail.aspx?id=1818449;http://grs.icarda.org/accessions/?IG=319"
172,"PI 298023 LSP AGL","Turkey","USDA",40.7,36.61666667,1964,"1960-1980",-0.0233029781169147,0.000478885393511562,0.00233333308569619,4,-0.215109781807384,-1.3691456744165,-1.49653374435073,-13.2082179826861,41.5647953166981,46.3930829472357,"G1",0.895947,0,0,0,0,0,0.104053,0,"Asia","Western Asia","TUR",39.06160342,35.16895529,"XL",65.9049360146252,0.644,"Yellow","Green","Absent","Absent","https://purl.org/germplasm/id/982dc550-684b-431e-8cf0-41b00326be2e;https://training.ars-grin.gov/gringlobal/AccessionDetail.aspx?id=1818451;http://grs.icarda.org/accessions/?IG=1923"
173,"PI 298121 LSP AGL","France","USDA",NA,NA,1964,"1960-1980",-0.0201158156141274,0.00055259282968101,0.00200983757932141,3,-1.27312855050123,0.437126546754035,-1.24778614425561,-125.104542540283,109.212130796407,-26.3187065611742,"Mix",0,0.029901,0,0,0,0,0.221651,0.748449,"Europe","Western Europe","FRA",46.18700581,2.53618475,"M",43.768115942029,0.404,"Red/Yellow","Mixed","Mixed","Pattern","https://purl.org/germplasm/id/32560f25-d7ab-4822-9599-df9ec87a6bfe;https://training.ars-grin.gov/gringlobal/AccessionDetail.aspx?id=1818452;http://grs.icarda.org/accessions/?IG=335"
174,"PI 298122 LSP AGL","France","USDA",48.33333333,-1.16666667,1964,"1960-1980",-0.0186030812438115,0.000380550919530965,0.00199686545858315,7,2.39250996494358,1.1597071439615,-0.665940090345302,-164.411534474334,186.550835157742,-1.74971043828955,"G8",0,0,0,0,0,0,0,1,"Europe","Western Europe","FRA",46.18700581,2.53618475,"M",34.6125907990315,0.453,"Yellow","Dark Green","Marbled","Pattern","https://purl.org/germplasm/id/a26bf48f-baf9-4cd7-bf26-e868fc498bfb;https://training.ars-grin.gov/gringlobal/AccessionDetail.aspx?id=1818453;http://grs.icarda.org/accessions/?IG=336"
175,"PI 298357 LSP AGL","Egypt","USDA",NA,NA,1964,"1960-1980",-0.0227131287406332,0.000532568482896143,0.00223107275994386,4,-0.0495774778003585,-1.09010436946705,-1.90809271383129,26.9850136054152,121.282743899641,40.1981801953611,"G1",0.802846,0.001066,0,0,0,0,0,0.196088,"Africa","Northern Africa","EGY",26.49593108,29.8618993,"M",30.2062868369352,0.409,"Red","Brown","Absent","Mottle","https://purl.org/germplasm/id/0bb8a401-c911-4d27-9105-6e2d5c77f8e6;https://training.ars-grin.gov/gringlobal/AccessionDetail.aspx?id=1818454;http://grs.icarda.org/accessions/?IG=337"
176,"PI 298631 LSP AGL","Peru","USDA",-12.25,-74.75,1964,"1960-1980",-0.0174236217685476,0.000367053921273515,0.00188186571656817,8,4.82381043574436,1.23653475637934,-0.0304023658681872,-185.394084055096,-127.1318443164,-17.8982646977151,"G7",0,0,0,0,0,0,1,0,"Americas","South America","PER",-9.15280281,-74.38242889,"XL",69.7959183673469,0.621,"Yellow","Green","Mottle1","Mottle","https://purl.org/germplasm/id/6d9a5368-0902-40bd-9fcd-fab4e717e031;https://training.ars-grin.gov/gringlobal/AccessionDetail.aspx?id=1818455;http://grs.icarda.org/accessions/?IG=338"
177,"PI 298644 LSP AGL","Spain","USDA",NA,NA,1964,"1960-1980",-0.0159056713373999,0.000351744816262047,0.00177630334179069,8,4.8758711268111,2.21738855156204,0.636588624959155,-185.562014503598,-82.5012944921031,-10.9273344752697,"G7",0,0,0,0,0,0,0.857244,0.142756,"Europe","Southern Europe","ESP",40.24448626,-3.64754874,"XL",68.9804772234273,0.644,"Yellow","Green","Mottle1","Mottle","https://purl.org/germplasm/id/08b67f3b-f817-497c-b474-a51d7df82885;https://training.ars-grin.gov/gringlobal/AccessionDetail.aspx?id=1818456;http://grs.icarda.org/accessions/?IG=339"
178,"PI 298645 AGL","Spain","USDA",NA,NA,1964,"1960-1980",-0.0184703443344913,0.000347169165180703,0.00203681575614166,7,1.58558988464305,1.11630430379063,-0.199779759461839,-141.332972017775,5.57530435254848,-24.7235820322878,"Mix",0,0,0,0,0,0,0.578172,0.421827,"Europe","Southern Europe","ESP",40.24448626,-3.64754874,"L",55.2370689655172,0.561,"Yellow","Green","Mottle1","Mottle","https://purl.org/germplasm/id/d384eb14-ec49-430f-978b-00a6d3ab2d73;https://training.ars-grin.gov/gringlobal/AccessionDetail.aspx?id=1225542;http://grs.icarda.org/accessions/?IG=340"
179,"PI 298921 AGL","Italy","USDA",NA,NA,1964,"1960-1980",-0.0182943017757939,0.000221423964159534,0.00219951947381785,5,1.57541966449453,-0.455639824259558,2.20007581478653,-154.63454795233,-37.875604414017,-3.02688984658118,"Mix",0,0,0,0,0,0,0.675222,0.324778,"Europe","Southern Europe","ITA",42.79663568,12.07000946,"XL",68.6642599277978,0.606,"Yellow","Green","Mottle1","Mottle","https://purl.org/germplasm/id/0c94c75c-7506-4b1b-a048-ccdb0c44182a;https://training.ars-grin.gov/gringlobal/AccessionDetail.aspx?id=1225805;http://grs.icarda.org/accessions/?IG=341"
180,"PI 298922 LSP AGL","Italy","USDA",NA,NA,1964,"1960-1980",-0.0201266074484762,0.000324782439945891,0.00217393382506964,6,4.23511933259074,-0.990517699294263,0.235214370209079,-117.947439054314,106.942123975594,-24.508855256624,"Mix",0,0.055789,0,0,0,0,0.178876,0.765335,"Europe","Southern Europe","ITA",42.79663568,12.07000946,"S",31.1921965317919,0.387,"Red","Grey","Mottle1","Mottle","https://purl.org/germplasm/id/5ba7ae07-fb62-40f0-8073-95161d44eb04;https://training.ars-grin.gov/gringlobal/AccessionDetail.aspx?id=1818459;http://grs.icarda.org/accessions/?IG=342"
181,"PI 298923 LSP AGL","Italy","USDA",NA,NA,1964,"1960-1980",-0.0231234655932154,0.000416405392003319,0.00236671713343601,4,1.13759989574219,-1.88027185474087,-1.10058080108123,-21.8454632960468,33.0026284246501,40.2361961317921,"G1",0.842837,0,0,0,0,0,0.157163,0,"Europe","Southern Europe","ITA",42.79663568,12.07000946,"M",65.7244655581948,0.457,"Yellow","Green","Absent","Absent","https://purl.org/germplasm/id/6ccd8e92-a45a-4285-854a-17e1f8fe000e;https://training.ars-grin.gov/gringlobal/AccessionDetail.aspx?id=1818460;http://grs.icarda.org/accessions/?IG=343"
182,"PI 299116 LSP AGL","Mexico","USDA",NA,NA,1964,"1960-1980",-0.0212722857808799,0.000391399887804928,0.00227180440814261,4,-0.553231865603989,-0.655930419674047,-0.449509903504276,-152.560118749209,132.803404568623,-18.2957274252621,"G8",0,0,0,0,0,0,0.157089,0.842911,"Americas","Central America","MEX",23.94753932,-102.52345042,"S",30.9385382059801,0.395,"Yellow","Dark Green","Marbled","Pattern","https://purl.org/germplasm/id/aa8e2270-814c-4be8-bb3a-3b5d0422b60c;https://training.ars-grin.gov/gringlobal/AccessionDetail.aspx?id=1818462;http://grs.icarda.org/accessions/?IG=347"
183,"PI 299120 LSP AGL","Mexico","USDA",NA,NA,1964,"1960-1980",-0.0195635324036859,0.000508793543426432,0.00203767459956072,3,-1.84320707446241,0.173904216023062,-0.328987261043204,-148.006912518162,59.7946505838232,-27.6886283182371,"Mix",0,0,0,0,0,0,0.403501,0.596499,"Americas","Central America","MEX",23.94753932,-102.52345042,"S",38.3379501385042,0.374,"Yellow","Green","Mottle1","Mottle","https://purl.org/germplasm/id/83efe431-40f9-4b71-8053-7359334d2135;https://training.ars-grin.gov/gringlobal/AccessionDetail.aspx?id=1818463;http://grs.icarda.org/accessions/?IG=351"
184,"PI 299121 LSP AGL","Mexico","USDA",NA,NA,1964,"1960-1980",-0.0197897486682782,0.000417684138836701,0.00218402555552482,2,-3.0954201524747,-0.082908092036351,0.409049933335103,-145.095033420291,55.5569948356199,-22.408140098521,"Mix",0,0,0,0,0,0,0.385979,0.614021,"Americas","Central America","MEX",23.94753932,-102.52345042,"L",39.0142517814727,0.519,"Yellow","Green","Mottle1","Mottle","https://purl.org/germplasm/id/020392c1-78e9-4d8d-a0f5-a20cac522952;https://training.ars-grin.gov/gringlobal/AccessionDetail.aspx?id=1818464;http://grs.icarda.org/accessions/?IG=352"
185,"PI 299126 LSP AGL","Mexico","USDA",NA,NA,1964,"1960-1980",-0.0217364878747538,0.000275067795938862,0.00248895137308637,5,-2.3920798632401,-1.38464998709547,0.881793724409368,-145.252117795806,97.4594746749472,-23.894970177436,"Mix",0,0,0,0,0,0,0.28669,0.71331,"Americas","Central America","MEX",23.94753932,-102.52345042,"M",36.7256637168142,0.439,"Red/Yellow","Green","Mottle1","Mottle","https://purl.org/germplasm/id/581bfd3b-bd28-48cc-a08b-a42117132833;https://training.ars-grin.gov/gringlobal/AccessionDetail.aspx?id=1818465;http://grs.icarda.org/accessions/?IG=357"
186,"PI 299163 LSP AGL","Chile","USDA",-36.6,-72.11666667,1964,"1960-1980",-0.0193824808192732,0.000281843673378812,0.00218387770145925,7,3.10656564516036,-0.598187023947875,0.508754771564655,-195.910401702876,-102.824050758198,-11.8892672233697,"G7",0,0,0,0,0,0,0.91632,0.08368,"Americas","South America","CHL",-37.73069754,-71.38255879,"XL",71.0364683301344,0.655,"Yellow","Green","Mottle1","Mottle","https://purl.org/germplasm/id/45fc33e7-638c-4c62-ae80-c254c245acbb;https://training.ars-grin.gov/gringlobal/AccessionDetail.aspx?id=1818468;http://grs.icarda.org/accessions/?IG=973"
187,"PI 299164 LSP AGL","Chile","USDA",-36.6,-72.11666667,1964,"1960-1980",-0.0204431191490778,0.000320228723425862,0.00225948254991043,4,0.654725251660574,-0.565021902451757,0.0427878071119425,-182.113695999285,-12.0675467579022,-4.83444213568278,"Mix",0,0,0,0,0,0,0.664743,0.335257,"Americas","South America","CHL",-37.73069754,-71.38255879,"L",63.8049713193117,0.599,"Yellow","Green","Mottle1","Mottle","https://purl.org/germplasm/id/277116b7-1f5a-41e7-bd23-5774eb5807fd;https://training.ars-grin.gov/gringlobal/AccessionDetail.aspx?id=1818469;http://grs.icarda.org/accessions/?IG=899"
188,"PI 299165 AGL","Chile","USDA",-36.6,-72.11666667,1964,"1960-1980",-0.0195915276571836,0.000243019730866271,0.00225530131436682,7,2.48566083227668,-0.845837414215636,1.30247561876175,-189.688916083014,-84.5947278080465,-21.0497673586709,"G7",0,0,0,0,0,0,0.833003,0.166997,"Americas","South America","CHL",-37.73069754,-71.38255879,"XL",59.8257839721254,0.611,"Yellow","Green","Absent","Absent","https://purl.org/germplasm/id/675cb4d1-e317-48b7-97c4-cbf0db495180;https://training.ars-grin.gov/gringlobal/AccessionDetail.aspx?id=1225947;http://grs.icarda.org/accessions/?IG=1924"
189,"PI 299177 LSP AGL","Chile","USDA",-36.6,-72.11666667,1964,"1960-1980",-0.0213079969060841,0.000279170907362239,0.00235791076978946,6,1.84535993791841,-1.31850568775123,0.255351986156514,-201.517228535885,-19.1113725449754,-7.28050599111205,"Mix",0,0,0,0,0,0,0.660101,0.339899,"Americas","South America","CHL",-37.73069754,-71.38255879,"XL",60.9911894273128,0.621,"Yellow","Green","Mottle1","Mottle","https://purl.org/germplasm/id/9f4e3290-a477-40e7-83df-6fec046cfdc4;https://training.ars-grin.gov/gringlobal/AccessionDetail.aspx?id=1818471;http://grs.icarda.org/accessions/?IG=374"
190,"PI 299237 LSP AGL","Chile","USDA",-36.6,-72.11666667,1964,"1960-1980",-0.0199681990512551,0.000427456669180445,0.00211144331174753,4,-0.185482220712786,-0.155009419074857,-0.371592024385635,84.7493249701412,-44.4256017812211,116.372795134579,"Mix",0,0,0.591616,0,0,0,0.366697,0.041687,"Americas","South America","CHL",-37.73069754,-71.38255879,"M",46.40625,0.463,"Red","Green","Mottle0","Mottle","https://purl.org/germplasm/id/26858100-8d64-4692-94bd-54b8cdfcafc4;https://training.ars-grin.gov/gringlobal/AccessionDetail.aspx?id=1818474;http://grs.icarda.org/accessions/?IG=995"
191,"PI 299289 AGL","Chile","USDA",-36.6,-72.11666667,1964,"1960-1980",-0.0185546195021243,0.000422839497538893,0.00195629476890916,7,1.90028971185638,1.56186324337973,-0.65769617912955,-39.2279625962864,99.8404291643018,12.0207495862456,"Mix",0.573407,0,0,0,0,0,0.063895,0.362697,"Americas","South America","CHL",-37.73069754,-71.38255879,"M",45.8656036446469,0.467,"Red","Grey","Absent","Absent","https://purl.org/germplasm/id/e449edaa-8edf-4066-a6be-1dba26a49d7d;https://training.ars-grin.gov/gringlobal/AccessionDetail.aspx?id=1226056"
192,"PI 299312 AGL","Chile","USDA",-33.93333333,-71.8,1964,"1960-1980",-0.0175555864616664,0.000340575457004576,0.00195685896546863,7,2.3867237722263,1.50328494338956,-0.222184276424773,-196.297395860434,-132.120631648952,-16.2303275852657,"G7",0,0,0,0,0,0,1,0,"Americas","South America","CHL",-37.73069754,-71.38255879,"XL",69.718574108818,0.671,"Yellow","Green","Mottle1","Mottle","https://purl.org/germplasm/id/a6017205-6d4d-4595-b4a0-6260c3043fc2;https://training.ars-grin.gov/gringlobal/AccessionDetail.aspx?id=1226076;http://grs.icarda.org/accessions/?IG=435"
193,"PI 299345 AGL","Chile","USDA",-35.05,-71.55,1964,"1960-1980",-0.0176044765020465,0.00024697196541989,0.00207953852326773,7,2.83876171184236,0.362852717446487,1.95902891780362,-205.509468631714,-137.26643419531,-17.4820810690948,"G7",0,0,0,0,0,0,1,0,"Americas","South America","CHL",-37.73069754,-71.38255879,"XL",64.4856661045531,0.67,"Yellow","Green","Absent","Absent","https://purl.org/germplasm/id/6ea4f8f2-2d44-4f56-b0d5-3e05cd0ad649;https://training.ars-grin.gov/gringlobal/AccessionDetail.aspx?id=1226108;http://grs.icarda.org/accessions/?IG=454"
194,"PI 299351 LSP AGL","Chile","USDA",-37.88333333,-71.18333333,1964,"1960-1980",-0.0207887960567993,0.000388843300934709,0.00219887470087104,6,1.34585433776463,-0.676934193669416,-0.664821176175102,276.314794186436,-19.111758406151,229.890982593391,"G3",0,0,1,0,0,0,0,0,"Americas","South America","CHL",-37.73069754,-71.38255879,"S",34.7083333333333,0.369,"Red","Grey","Absent","Absent","https://purl.org/germplasm/id/580efde9-bb9d-4156-a263-c81cdba49542;https://training.ars-grin.gov/gringlobal/AccessionDetail.aspx?id=1818482"
195,"PI 299366 LSP AGL","Chile","USDA",-33.45,-70.66666667,1964,"1960-1980",-0.0173524966158847,0.000188532256248716,0.00216611279068278,5,1.16939460634666,0.285062426160833,2.53404689928025,-183.136502629333,-87.4557489932672,-20.1642903014742,"G7",0,0,0,0,0,0,0.846073,0.153927,"Americas","South America","CHL",-37.73069754,-71.38255879,"L",61.9646017699115,0.562,"Yellow","Grey","Absent","Absent","https://purl.org/germplasm/id/1ac842fe-a35b-47b5-b4ec-ecc45fd79fe0;https://training.ars-grin.gov/gringlobal/AccessionDetail.aspx?id=1818484;http://grs.icarda.org/accessions/?IG=465"
196,"PI 299375 LSP AGL","Chile","USDA",-33.45,-70.66666667,1964,"1960-1980",-0.0206223848730689,0.000285766229425127,0.00230321362648554,5,1.32496222926024,-0.978871479063408,0.492228367373851,-195.060626856102,-82.2289458422746,-15.3529051904918,"G7",0,0,0,0,0,0,0.822279,0.177721,"Americas","South America","CHL",-37.73069754,-71.38255879,"XL",66.5055762081784,0.64,"Yellow","Green","Absent","Absent","https://purl.org/germplasm/id/d099cc34-15cf-4f83-abb5-c7a7cfd86474;https://training.ars-grin.gov/gringlobal/AccessionDetail.aspx?id=1818486;http://grs.icarda.org/accessions/?IG=469"
197,"PI 300250 LSP AGL","Syria","USDA",36.39,37.18,1964,"1960-1980",-0.0200461180462675,0.000265833220891788,0.00229468887548681,5,1.294159063486,-1.34378743022461,1.53853684362265,65.6915001695723,37.9887535906479,-43.1816388756865,"G2",0,1,0,0,0,0,0,0,"Asia","Western Asia","SYR",35.24,38.59,"S",37.9270833333333,0.385,"Red","Grey","Dotted","Pattern","https://purl.org/germplasm/id/0d384ddd-9d24-4df1-8a19-a4bcfd8ba594;https://training.ars-grin.gov/gringlobal/AccessionDetail.aspx?id=1818487;http://grs.icarda.org/accessions/?IG=472"
198,"PI 302398 LSP AGL","Jordan","USDA",32.55555556,35.85,1964,"1960-1980",-0.0207632656469325,0.000394657958300108,0.00228381874286894,2,-2.49607475987303,-0.872900889443597,0.438460411335543,-130.850634057157,-138.568922841578,-23.2341007796636,"Mix",0,0.070202,0,0,0.131611,0,0.798187,0,"Asia","Western Asia","JOR",31.24579389,36.77137251,"M",62.8275862068965,0.471,"Yellow","Green","Absent","Absent","https://purl.org/germplasm/id/c558dfc7-270e-4401-9718-5ba937e6cb68;https://training.ars-grin.gov/gringlobal/AccessionDetail.aspx?id=1818489;http://grs.icarda.org/accessions/?IG=486"
199,"PI 308614 LSP AGL","Syria","USDA",NA,NA,1954,"1940-1960",-0.0184209695562885,0.000235124491032134,0.00217130235519941,7,2.43398116923504,-0.544149470652072,1.90053461216394,65.0106435340738,41.6995769451269,-41.0749282070996,"G2",0,1,0,0,0,0,0,0,"Asia","Western Asia","SYR",35.24,38.59,"S",38.6571879936809,0.392,"Red","Grey","Dotted","Pattern","https://purl.org/germplasm/id/a9191f31-85a9-4d59-89af-3feac9c84872;https://training.ars-grin.gov/gringlobal/AccessionDetail.aspx?id=1818490;http://grs.icarda.org/accessions/?IG=493"
200,"PI 311107 LSP AGL","Guatemala","USDA",14.56666667,-90.73333333,1966,"1960-1980",-0.0183612600185926,0.000233690644824706,0.0021493365281382,7,3.35395219018809,-0.299076218182409,1.69132820441927,-194.419064249798,-180.315093715809,-16.3778371944583,"G7",0,0,0,0,0,0,1,0,"Americas","Central America","GTM",15.69404158,-90.36482288,"L",55.6507936507937,0.534,"Yellow","Green","Absent","Absent","https://purl.org/germplasm/id/985f5089-6ce4-4430-9c0d-b1abb3efd4cd;https://training.ars-grin.gov/gringlobal/AccessionDetail.aspx?id=1818491;http://grs.icarda.org/accessions/?IG=494"
201,"PI 312175 LSP AGL","Mexico","USDA",17.46666667,-97.23333333,1965,"1960-1980",-0.0178847340565511,0.000312239222470171,0.00199741003966559,7,4.14962281748361,0.56233366915257,0.818678043356469,-145.713192925538,158.93319446078,10.077416144984,"G8",0,0,0,0,0,0,0.039409,0.96059,"Americas","Central America","MEX",23.94753932,-102.52345042,"M",33.6285097192225,0.459,"Yellow","Green","Mottle0","Mottle","https://purl.org/germplasm/id/38776adc-375a-4707-8b94-f5fc64b0aced;https://training.ars-grin.gov/gringlobal/AccessionDetail.aspx?id=1818492;http://grs.icarda.org/accessions/?IG=499"
202,"PI 320935 LSP AGL","Iran","USDA",NA,NA,1967,"1960-1980",-0.0248557063381518,0.000387771726307191,0.00256723921544764,4,0.12357491203904,-2.89428388261336,-0.893730602961946,120.399393744392,63.0012278857826,85.6062370254705,"G1",0.920491,0,0,0,0,0.079508,0,0,"Asia","Southern Asia","IRN",32.41,54.41,"M",36.8652037617555,0.411,"Red","Green","Absent","Mottle","https://purl.org/germplasm/id/2fdcbed1-3b86-4794-aef7-580f03c3413d;https://training.ars-grin.gov/gringlobal/AccessionDetail.aspx?id=1818493;http://grs.icarda.org/accessions/?IG=604"
203,"PI 320936 LSP AGL","Russia","USDA",42,47,1967,"1960-1980",-0.0145250285393608,0.0004722419521041,0.00166509325952592,3,-1.99039214039251,3.11699830526701,0.773564365383256,-129.349971791805,227.70222116822,-4.55371204273599,"G8",0,0,0,0,0,0,0,1,"Europe","Eastern Europe","RUS",58.9,51.31,"M",30.9012875536481,0.405,"Red","Brown","Marbled","Pattern","https://purl.org/germplasm/id/317b038b-6477-45e4-b797-077935d744ed;https://training.ars-grin.gov/gringlobal/AccessionDetail.aspx?id=1818494;http://grs.icarda.org/accessions/?IG=504"
204,"PI 320937 LSP AGL","Germany","USDA",NA,NA,1967,"1960-1980",-0.0148511214783948,0.000510240650300471,0.00152808205192745,8,2.87022641732469,4.51504961956402,-1.10143488229601,-134.432818354176,187.983941812973,-4.05678726923325,"G8",0,0,0,0,0,0,0,1,"Europe","Western Europe","DEU",51.10697903,10.38577693,"M",28.343253968254,0.443,"Yellow","Black","Marbled","Present","https://purl.org/germplasm/id/bc5cb527-8a1c-49e5-baa6-1ef29f6aa29a;https://training.ars-grin.gov/gringlobal/AccessionDetail.aspx?id=1818495;http://grs.icarda.org/accessions/?IG=505"
205,"CN 105866 AGL","Tunisia","PGRC",NA,NA,NA,NA,-0.018593610856514,0.000293172054016674,0.00208321039581493,7,3.97515699067537,0.0400226496147606,1.07648801008894,-175.4912650744,-187.713994935768,-14.4305557678128,"G7",0,0,0,0,0.147767,0,0.852233,0,"Africa","Northern Africa","TUN",34.11956663,9.55288287,"L",62.2551928783383,0.566,"Red/Yellow","Grey","Mottle1","Mottle","http://pgrc3.agr.ca/cgi-bin/npgs/html/acchtml.pl?130269"
206,"PI 320941 LSP AGL","Ethiopia","USDA",NA,NA,1925,"1925-1940",-0.0222116153464364,0.000321685902895088,0.00235838512362375,6,3.4618712061439,-1.81855523908854,-0.645746796417238,234.479889734729,17.949127962896,145.170478406145,"G6",0,0,0,0,0,1,0,0,"Africa","Eastern Africa","ETH",8.62278417,39.6008014,"M",31.5005138746146,0.429,"Yellow","Brown","Marbled","Pattern","https://purl.org/germplasm/id/d40c5d9e-10a1-4cd7-9d7d-fc43976b6d9a;https://training.ars-grin.gov/gringlobal/AccessionDetail.aspx?id=1818498;http://grs.icarda.org/accessions/?IG=509"
207,"PI 320945 LSP AGL","Bulgaria","USDA",NA,NA,1967,"1960-1980",-0.019786938842743,0.000232163636600114,0.00226350096605895,6,3.33754560166998,-1.02176131183206,0.671999497099528,-122.938602592746,94.7522189728114,-27.2445654079947,"Mix",0,0.046887,0,0,0,0,0.260065,0.693049,"Europe","Eastern Europe","BGR",42.76889988,25.21552327,"M",42.4720068906115,0.432,"Red","Green","Dotted","Pattern","https://purl.org/germplasm/id/44252b66-a5d0-49d5-84b0-269112a59cd1;https://training.ars-grin.gov/gringlobal/AccessionDetail.aspx?id=1818500;http://grs.icarda.org/accessions/?IG=512"
208,"PI 320946 LSP AGL","Israel","USDA",NA,NA,1926,"1925-1940",-0.0214111090684358,0.000234500812605575,0.00246720526309607,5,-0.322050351965617,-1.78140646079467,1.14743175417971,-109.878067565897,-243.887069944163,-1.76901067730034,"Mix",0,0.013441,0,0,0.596187,0,0.390372,0,"Asia","Western Asia","ISR",31.4611019,35.00444995,"M",44.1301627033792,0.464,"Yellow","Green","Absent","Absent","https://purl.org/germplasm/id/810fac76-30e0-47a4-9518-caa9efc79170;https://training.ars-grin.gov/gringlobal/AccessionDetail.aspx?id=1818501;http://grs.icarda.org/accessions/?IG=513"
209,"PI 320952 LSP AGL","Czech Republic","USDA",NA,NA,1967,"1960-1980",-0.013922769666091,0.000379844151916131,0.00155311250319429,8,6.07994158658199,4.53828807528012,0.387628911829003,-137.42426766024,222.611821309082,-2.32494487690201,"G8",0,0,0,0,0,0,0,1,"Europe","Eastern Europe","CZE",49.69,15.6,"S",24.7619047619048,0.382,"Yellow","Black","Marbled","Present","https://purl.org/germplasm/id/5e2ac070-72b1-447b-8019-ae4c58e3779f;https://training.ars-grin.gov/gringlobal/AccessionDetail.aspx?id=1818502;http://grs.icarda.org/accessions/?IG=519"
210,"PI 320953 LSP AGL","Germany","USDA",NA,NA,1967,"1960-1980",-0.0168227503692977,0.000340047623853823,0.00182966635654052,8,6.6742018303903,2.07444756158374,-0.0306105189329105,-104.233536918078,190.639349754231,-1.48539208209329,"G8",0.040846,0.015152,0,0,0,0,0,0.944001,"Europe","Western Europe","DEU",51.10697903,10.38577693,"S",25.5451263537906,0.399,"Red","Black","Marbled","Present","https://purl.org/germplasm/id/190a6c9d-deee-4873-8c38-7011ceb51692;https://training.ars-grin.gov/gringlobal/AccessionDetail.aspx?id=1818503;http://grs.icarda.org/accessions/?IG=4805"
211,"PI 320954 LSP AGL","Hungary","USDA",NA,NA,1967,"1960-1980",-0.0169252039419747,0.000376054929217323,0.00185698768797987,7,3.02319845628543,2.29348330795867,-0.208861775436064,-153.406633355548,185.55293888302,-7.21780812730062,"G8",0,0,0,0,0,0,0,1,"Europe","Eastern Europe","HUN",47.16277712,19.39559381,"L",40.3921568627451,0.505,"Yellow","Dark Green","Marbled","Pattern","https://purl.org/germplasm/id/d186d5e9-6b79-451b-9717-f838c03d382d;https://training.ars-grin.gov/gringlobal/AccessionDetail.aspx?id=1818504;http://grs.icarda.org/accessions/?IG=521"
212,"PI 329157 LSP AGL","Iran","USDA",38.24944444,48.30138889,1968,"1960-1980",-0.022721994499685,0.000431121642353008,0.00234677090973992,4,-0.640821831692888,-1.36017091512769,-0.974943520601493,35.9258359626866,40.6260167139975,72.5336654521757,"G1",1,0,0,0,0,0,0,0,"Asia","Southern Asia","IRN",32.41,54.41,"L",51.6904276985743,0.501,"Yellow","Green","Mottle1","Absent","https://purl.org/germplasm/id/a276f7e1-386e-43ea-bacb-1d95663b06a5;https://training.ars-grin.gov/gringlobal/AccessionDetail.aspx?id=1818505;http://grs.icarda.org/accessions/?IG=1013"
213,"PI 329167 LSP AGL","Iran","USDA",35.23333333,58.41666667,1968,"1960-1980",-0.021479942957683,0.000416199311236104,0.00225687464342309,4,-0.487484675092082,-0.852209752032747,-0.422911415804858,-73.8766660513301,-99.1890046685065,54.1178837833712,"Mix",0.46592,0,0,0,0,0,0.53408,0,"Asia","Southern Asia","IRN",32.41,54.41,"XL",63.8031319910515,0.606,"Yellow","Green","Absent","Absent","https://purl.org/germplasm/id/f41867de-4289-4d24-904d-3071a0ccd685;https://training.ars-grin.gov/gringlobal/AccessionDetail.aspx?id=1818506;http://grs.icarda.org/accessions/?IG=65"
214,"PI 339266 LSP AGL","Turkey","USDA",NA,NA,1968,"1960-1980",-0.024611494703119,0.000518865212131349,0.00241169171963516,4,-0.843811572551542,-1.86941355922106,-1.94196201329665,-35.1930842413649,0.733831794468217,39.3303029216102,"Mix",0.726656,0,0,0,0,0,0.273344,0,"Asia","Western Asia","TUR",39.06160342,35.16895529,"XL",65.0735294117647,0.632,"Yellow","Green","Absent","Absent","https://purl.org/germplasm/id/3e5fbcc9-1b15-4071-8ec4-b0944901db3e;https://training.ars-grin.gov/gringlobal/AccessionDetail.aspx?id=1818508;http://grs.icarda.org/accessions/?IG=536"
215,"PI 339283 LSP AGL","Turkey","USDA",37.21666667,30.3,1968,"1960-1980",-0.0198824886608728,0.000222025275476148,0.00232132610401614,5,1.7957786921049,-1.39434004165275,1.71678061573416,134.283944258668,17.8836789008079,-14.996921694654,"Mix",0.166198,0.431446,0.064118,0.18807,0,0.150168,0,0,"Asia","Western Asia","TUR",39.06160342,35.16895529,"S",42.5602027883397,0.392,"Red","Brown","Marbled","Pattern","https://purl.org/germplasm/id/40fdc1c5-65eb-48eb-bbc4-a46c84098a55;https://training.ars-grin.gov/gringlobal/AccessionDetail.aspx?id=1818509;http://grs.icarda.org/accessions/?IG=554"
216,"PI 339285 AGL","Turkey","USDA",37.21666667,30.3,1968,"1960-1980",-0.0208902920321824,0.000255333181683908,0.00236267973579503,5,2.56450152646275,-2.23663146088823,1.63823097744748,127.0620485172,25.2898611495007,-23.7471269903237,"Mix",0.15217,0.517449,0.081473,0.186643,0,0.062265,0,0,"Asia","Western Asia","TUR",39.06160342,35.16895529,"M",39.3333333333333,0.419,"Red","Tan","Mottle1","Mottle","https://purl.org/germplasm/id/d9c12794-b070-4637-bc55-71f5c97677b1;https://training.ars-grin.gov/gringlobal/AccessionDetail.aspx?id=1252796;http://grs.icarda.org/accessions/?IG=556"
217,"PI 339289 LSP AGL","Turkey","USDA",39.96666667,41.01666667,1968,"1960-1980",-0.0248675359980189,0.000445532988574996,0.00249932075244734,4,-0.036759371303622,-2.33558633405635,-2.04863656995056,-31.8790519805574,29.9616444966142,57.2644097338541,"G1",0.834542,0,0,0,0,0,0.165458,0,"Asia","Western Asia","TUR",39.06160342,35.16895529,"XL",71.8693693693694,0.605,"Yellow","Grey","Absent","Absent","https://purl.org/germplasm/id/82c62efd-c7c8-4865-8ab4-ccf586c6ceb5;https://training.ars-grin.gov/gringlobal/AccessionDetail.aspx?id=1818511;http://grs.icarda.org/accessions/?IG=560"
218,"PI 339292 LSP AGL","Turkey","USDA",40.91666667,32.08333333,1968,"1960-1980",-0.0237281807438701,0.000466669736475183,0.00237018511289607,4,0.161116321177471,-1.48200080430631,-1.73639348003955,27.4136908910546,112.758572224837,47.2149540541213,"G1",0.859076,0,0,0,0,0,0,0.140924,"Asia","Western Asia","TUR",39.06160342,35.16895529,"M",33.1345029239766,0.455,"Red","Green","Absent","Mottle","https://purl.org/germplasm/id/b6914611-6da6-4f4e-9633-bceb39bc8607;https://training.ars-grin.gov/gringlobal/AccessionDetail.aspx?id=1818512;http://grs.icarda.org/accessions/?IG=573"
219,"PI 339296 AGL","Turkey","USDA",37.76666667,38.6,1968,"1960-1980",-0.0246024668100641,0.000563635128882018,0.00234644972549179,4,-0.241864845148177,-1.85953469316962,-2.39423525957376,32.2117686613285,90.1485600460311,49.4590448960194,"G1",1,0,0,0,0,0,0,0,"Asia","Western Asia","TUR",39.06160342,35.16895529,"M",37.7245508982036,0.447,"Red","Grey","Absent","Mottle","https://purl.org/germplasm/id/0654c21f-ea77-4d81-b226-2586f160e1f9;https://training.ars-grin.gov/gringlobal/AccessionDetail.aspx?id=1252807;http://grs.icarda.org/accessions/?IG=588"
220,"PI 343026 LSP AGL","Tajikistan","USDA",NA,NA,1950,"1940-1960",-0.0219479160547386,0.000467561159970088,0.00222476667378693,4,0.116327281598117,-0.678431422612013,-1.29684926418935,205.464931632038,12.4643189493872,91.6152725009589,"G6",0,0,0,0,0,1,0,0,"Asia","Central Asia","TJK",38.53045125,71.01363312,"S",30.647619047619,0.364,"Red","Tan","Dotted","Pattern","https://purl.org/germplasm/id/2ffa337c-e49f-4485-8074-d6ea8f19c049;https://training.ars-grin.gov/gringlobal/AccessionDetail.aspx?id=1818516;http://grs.icarda.org/accessions/?IG=618"
221,"PI 345627 LSP AGL","Ukraine","USDA",NA,NA,1932,"1925-1940",-0.0156942064464562,0.000359631196967857,0.00174611323165448,8,4.13215280685737,3.21284854529364,0.100813321031361,-155.963947273984,120.859704581235,7.48590272199275,"G8",0,0,0,0,0,0,0.149052,0.850948,"Europe","Eastern Europe","UKR",48.99656784,31.38325794,"XL",58.0237154150198,0.603,"Yellow","Green","Spotted","Pattern","https://purl.org/germplasm/id/094cd48c-c595-4f55-8424-cf0887de175a;https://training.ars-grin.gov/gringlobal/AccessionDetail.aspx?id=1818518;http://grs.icarda.org/accessions/?IG=595"
222,"PI 358602 LSP AGL","Ethiopia","USDA",11.5,39.6,1970,"1960-1980",-0.0193963476466141,0.000396497484890805,0.0020334660741981,7,3.2862969332497,1.06930721497656,-1.21244536361682,-114.777433198489,201.776378706073,6.6027111821058,"G8",0,0,0,0,0,0,0,1,"Africa","Eastern Africa","ETH",8.62278417,39.6008014,"S",25.5495772482706,0.374,"Red","Grey","Mottle2","Mottle","https://purl.org/germplasm/id/edfd796b-673c-436a-8b0c-0feec97cb5ce;https://training.ars-grin.gov/gringlobal/AccessionDetail.aspx?id=1818521;http://grs.icarda.org/accessions/?IG=626"
223,"PI 368647 LSP AGL","Macedonia","USDA",41.54361111,22.54444444,1971,"1960-1980",-0.0196369135665857,0.000338747953771338,0.00212122880212431,7,2.92977241195039,0.281634865333673,-0.552604556912354,-116.578482898917,197.023824320768,10.0940179682887,"G8",0,0,0,0,0,0,0,1,"Europe","Southern Europe","MKD",43.56,21.71,"M",27.1799628942486,0.402,"Yellow","Green","Mottle2","Mottle","https://purl.org/germplasm/id/c5ccf238-2934-4fe1-887d-fc89c989be83;https://training.ars-grin.gov/gringlobal/AccessionDetail.aspx?id=1818522"
224,"PI 368651 LSP AGL","Macedonia","USDA",NA,NA,1971,"1960-1980",-0.0192323865639387,0.000368483236778211,0.00203984051389415,7,3.8963467502709,0.861237081815484,-0.695763535876046,-123.308285189325,221.346394176418,5.49931165095835,"G8",0,0,0,0,0,0,0,1,"Europe","Southern Europe","MKD",43.56,21.71,"S",25.4582210242588,0.368,"Red","Grey","Mottle2","Mottle","https://purl.org/germplasm/id/283e04b0-b1f5-45c7-b3d9-7ac0d9b808fb;https://training.ars-grin.gov/gringlobal/AccessionDetail.aspx?id=1818523;http://grs.icarda.org/accessions/?IG=1935"
225,"PI 370481 LSP AGL","Serbia","USDA",42.99333333,20.52111111,1971,"1960-1980",-0.0177773612866017,0.000251849240549291,0.00207732689705805,7,3.55993285195404,0.155917610300381,1.68444003190844,-198.900242862603,-112.97816105895,-9.73056806565329,"G7",0,0,0,0,0,0,0.885351,0.114649,"Europe","Southern Europe","SRB",43.95,20.83,"XL",64.4827586206897,0.62,"Yellow","Green","Absent","Absent","https://purl.org/germplasm/id/ac986ca9-8221-45a5-aba0-1b5b1cf7ca21;https://training.ars-grin.gov/gringlobal/AccessionDetail.aspx?id=1818524;http://grs.icarda.org/accessions/?IG=627"
226,"PI 374116 LSP AGL","Morocco","USDA",31.75,-8.25,1972,"1960-1980",-0.0184882075287505,0.00039291349621114,0.00197054199846072,7,2.7203163536582,1.20014799511834,-0.534689495662968,-159.519038158246,183.733530294782,-2.49145171274753,"G8",0,0,0,0,0,0,0,1,"Africa","Northern Africa","MAR",29.83762793,-8.45616045,"M",38.0340264650284,0.449,"Yellow","Dark Green","Marbled","Pattern","https://purl.org/germplasm/id/a0b8cf46-79e1-45db-813a-be1bbd1ebfe7;https://training.ars-grin.gov/gringlobal/AccessionDetail.aspx?id=1818525;http://grs.icarda.org/accessions/?IG=1936"
227,"PI 374117 LSP AGL","Morocco","USDA",31.75,-8.25,1972,"1960-1980",-0.0222119099701208,0.000322639928507594,0.00241788381100563,5,0.363758087983378,-1.9324169046378,0.588109784301867,-137.141794416505,147.961810692205,-5.11716381250714,"G8",0,0.011095,0,0,2e-06,0,0.093582,0.895321,"Africa","Northern Africa","MAR",29.83762793,-8.45616045,"L",42.6582278481013,0.557,"Yellow","Green","Mottle1","Mottle","https://purl.org/germplasm/id/49f2a118-2c15-4693-a47c-02c6e9c06520;https://training.ars-grin.gov/gringlobal/AccessionDetail.aspx?id=1818526;http://grs.icarda.org/accessions/?IG=1938"
228,"PI 374118 AGL","Morocco","USDA",31.75,-8.25,1972,"1960-1980",-0.0208284131249208,0.000262814190069011,0.00240146041269688,5,-0.739217261621584,-1.7569620453329,1.78314453719887,-97.2835662652455,-312.790909698029,2.73799497922552,"G5",0,0,0,0,1,0,0,0,"Africa","Northern Africa","MAR",29.83762793,-8.45616045,"M",41.2892376681614,0.424,"Red","Brown","Spotted","Pattern","https://purl.org/germplasm/id/3ea23d2c-a518-4dc7-a43f-1c3f97cf96b8;https://training.ars-grin.gov/gringlobal/AccessionDetail.aspx?id=1280202;http://grs.icarda.org/accessions/?IG=1939"
229,"PI 374120 LSP AGL","Morocco","USDA",31.75,-8.25,1972,"1960-1980",-0.0161223099459046,0.000259522255645648,0.00193997589305789,7,2.62736159468741,1.46294319090771,1.81483725211606,-196.823022295427,10.3761821793191,-9.98313693870066,"Mix",0,0,0,0,0,0,0.592833,0.407167,"Africa","Northern Africa","MAR",29.83762793,-8.45616045,"L",53.5649546827795,0.558,"Red/Yellow","Green","Mottle0","Mottle","https://purl.org/germplasm/id/5279b07f-3f3d-492f-ba9d-9ba97385cd67;https://training.ars-grin.gov/gringlobal/AccessionDetail.aspx?id=1818529;http://grs.icarda.org/accessions/?IG=1941"
230,"PI 374121 AGL","Morocco","USDA",31.75,-8.25,1972,"1960-1980",-0.0199776503681447,0.000365275334482929,0.00217898756199968,4,0.223032421023597,-0.229297599910996,-0.15115401945815,-213.661066865286,-43.3765390024965,2.68168690848699,"Mix",0,0,0,0,0,0,0.761865,0.238135,"Africa","Northern Africa","MAR",29.83762793,-8.45616045,"L",59.1067538126362,0.557,"Yellow","Green","Absent","Absent","https://purl.org/germplasm/id/e4a25686-5eef-4db7-adce-080e647f9ad3;https://training.ars-grin.gov/gringlobal/AccessionDetail.aspx?id=1280205;http://grs.icarda.org/accessions/?IG=1942"
231,"PI 379368 LSP AGL","Macedonia","USDA",41.85,21.8167,1972,"1960-1980",-0.0201609249827099,0.000329310032952091,0.00222430214846039,4,0.733467958402557,-0.377289931685592,-0.0487968483206309,-216.124147205888,-43.7627985194269,2.49593136563792,"Mix",0,0,0,0,0,0,0.765242,0.234758,"Europe","Southern Europe","MKD",43.56,21.71,"M",63.1578947368421,0.418,"Yellow","Green","Absent","Absent","https://purl.org/germplasm/id/d6c41c1a-3b70-43cd-9002-288eef51e959;https://training.ars-grin.gov/gringlobal/AccessionDetail.aspx?id=1818531;http://grs.icarda.org/accessions/?IG=1944"
232,"PI 383682 LSP AGL","Turkey","USDA",NA,NA,1960,"1940-1960",-0.0221125359337903,0.000352742706975581,0.00233556941626758,6,2.00872129652437,-1.36413449598199,-0.288121241535725,45.8301274168902,110.192494477273,54.8863130163155,"G1",1,0,0,0,0,0,0,0,"Asia","Western Asia","TUR",39.06160342,35.16895529,"S",29.8729792147806,0.386,"Red","Grey","Absent","Absent","https://purl.org/germplasm/id/4a3b94de-4bc4-419b-965d-cc206e1b4539;https://training.ars-grin.gov/gringlobal/AccessionDetail.aspx?id=1818532;http://grs.icarda.org/accessions/?IG=1955"
233,"PI 420818 AGL","Greece","USDA",NA,NA,NA,NA,-0.0184569221869031,0.000225591924168624,0.00218175583025533,7,2.50020149523128,-0.425074774696752,1.85008172090237,-175.599308713934,-280.054281237061,-5.64671408070905,"Mix",0,0,0,0,0.235746,0,0.764254,0,"Europe","Southern Europe","GRC",39.07466973,22.95556207,"XL",70.8367346938775,0.613,"Yellow","Green","Absent","Absent","https://purl.org/germplasm/id/26ba76d8-3d5f-4159-b737-539a991f2824;https://training.ars-grin.gov/gringlobal/AccessionDetail.aspx?id=1317828"
234,"PI 420924 LSP AGL","Jordan","USDA",32.1,35.73,NA,NA,-0.0198714231075735,0.000220474896938061,0.00235871641260948,5,-0.100143298680888,-1.40834314511882,2.20819799989363,-139.124629492723,-130.493402100347,-22.6421151501902,"G7",0,0.081074,0,0,0.027033,0,0.891893,0,"Asia","Western Asia","JOR",31.24579389,36.77137251,"L",65.1449275362319,0.563,"Yellow","Green","Mottle1","Mottle","https://purl.org/germplasm/id/0ac7bf7c-2583-4ec1-8143-a9179e8c1408;https://training.ars-grin.gov/gringlobal/AccessionDetail.aspx?id=1818535"
235,"PI 420925 LSP AGL","Jordan","USDA",31.06555556,35.69611111,NA,NA,-0.0174932391391185,0.000164466892632232,0.00221571197333626,5,0.648262684233847,-0.448106611055995,2.88166254066472,-88.2609093069968,-313.612552443953,11.3580047966862,"G5",0,0,0,0,0.976017,0,0.023982,0,"Asia","Western Asia","JOR",31.24579389,36.77137251,"M",36.1868686868687,0.405,"Red","Brown","Dotted","Pattern","https://purl.org/germplasm/id/34dd9216-ff90-4642-a929-827b378b7b9a;https://training.ars-grin.gov/gringlobal/AccessionDetail.aspx?id=1818536"
236,"PI 420929 LSP AGL","Jordan","USDA",31.13333333,35.64083333,NA,NA,-0.0181989324557985,0.000213834376030814,0.00221805762927551,5,0.708897871403975,-0.734666110008361,2.65887404949038,-85.4555450745361,-317.068550386897,12.1549021530358,"G5",0,0,0,0,1,0,0,0,"Asia","Western Asia","JOR",31.24579389,36.77137251,"M",39.523178807947,0.446,"Red","Tan","Spotted","Pattern","https://purl.org/germplasm/id/dd4f8e44-fcd7-474d-baf1-5d99f8f5cb2c;https://training.ars-grin.gov/gringlobal/AccessionDetail.aspx?id=1818537"
237,"PI 426202 LSP AGL","Afghanistan","USDA",36.7,67.1,1976,"1960-1980",-0.0212145822240886,0.000318014129285555,0.00229209859301173,6,2.92772868383845,-1.43626700639792,0.217542499442447,246.617875719674,-1.10549000619325,116.923582455167,"G6",0,0,0,0,0,1,0,0,"Asia","Southern Asia","AFG",33.83523216,66.00473115,"M",30.3174603174603,0.42,"Red","Brown","Marbled","Pattern","https://purl.org/germplasm/id/e978926e-cb5f-4eac-886b-d7c5489e6dba;https://training.ars-grin.gov/gringlobal/AccessionDetail.aspx?id=1818538"
238,"PI 426778 LSP AGL","Pakistan","USDA",NA,NA,1976,"1960-1980",-0.0209521706498023,0.000378837739607854,0.00220246549630966,6,1.91114764129974,-0.213654320821819,-1.11393198999591,155.954238287066,52.7743301187765,-44.9859239107315,"Mix",0.552349,0,0,0.422437,0,0.025213,0,0,"Asia","Southern Asia","PAK",29.94975221,69.33958027,"S",26.9330855018587,0.395,"Yellow","Green","Mottle0","Mottle","https://purl.org/germplasm/id/f699489a-d858-416c-9c3f-789a551a0f84;https://training.ars-grin.gov/gringlobal/AccessionDetail.aspx?id=1818539"
239,"PI 426784 LSP AGL","Pakistan","USDA",30.06666667,73.06666667,1976,"1960-1980",-0.0186464936508046,0.000482402399751121,0.00206340897549466,2,-4.9846928214441,0.625700438657997,0.852814204946001,265.134963323202,9.0990363512171,-254.740935630593,"G4",0,0,0,1,0,0,0,0,"Asia","Southern Asia","PAK",29.94975221,69.33958027,"S",24.281045751634,0.321,"Red","Grey","Dotted","Pattern","https://purl.org/germplasm/id/26c86628-81e8-4c4a-ae55-82bda0bbf05b;https://training.ars-grin.gov/gringlobal/AccessionDetail.aspx?id=1818540"
240,"PI 426797 LSP AGL","Pakistan","USDA",32.33333333,74.35,1976,"1960-1980",-0.0198269713714119,0.000428061329238385,0.00222165650785311,2,-4.83299467460244,-0.217932319517858,0.763013346059725,278.935944641001,9.32289406149429,-265.472103399273,"G4",0,0,0,1,0,0,0,0,"Asia","Southern Asia","PAK",29.94975221,69.33958027,"S",24.2836468885673,0.346,"Red","Grey","Dotted;Marbled","Pattern","https://purl.org/germplasm/id/edea68a8-1aab-41cc-a7a5-a9e2da6639a7;https://training.ars-grin.gov/gringlobal/AccessionDetail.aspx?id=1818541"
241,"PI 426807 LSP AGL","Pakistan","USDA",34.6175,71.97138889,1976,"1960-1980",-0.0219172756051504,0.000287079431418081,0.00246008339036045,5,-0.366650422744885,-2.12552432034513,1.08398620271456,260.762040813108,14.2251618012296,-234.286825938807,"G4",0,0,0,1,0,0,0,0,"Asia","Southern Asia","PAK",29.94975221,69.33958027,"S",24.1708043694141,0.384,"Red","Grey","Mottle1","Mottle","https://purl.org/germplasm/id/07f2db37-88e6-47f3-96c3-6b0846da85f2;https://training.ars-grin.gov/gringlobal/AccessionDetail.aspx?id=1818543"
242,"PI 431618 LSP AGL","Iran","USDA",NA,NA,1979,"1960-1980",-0.02091508789941,0.000467843896447385,0.00215803977780817,4,-0.923571652742818,0.0610019912970214,-1.50283548067168,-2.24617809500148,1.06756308617091,48.7656650015422,"G1",0.81161,0,0,0,0,0,0.18839,0,"Asia","Southern Asia","IRN",32.41,54.41,"L",58.8577154308617,0.533,"Yellow","Green","Mottle0","Absent","https://purl.org/germplasm/id/d073b8be-8896-445e-8902-d6817a20a445;https://training.ars-grin.gov/gringlobal/AccessionDetail.aspx?id=1818547"
243,"PI 431622 LSP AGL","Iran","USDA",NA,NA,1979,"1960-1980",-0.0206772077707144,0.000329633494300333,0.00224018803491539,6,2.14225578744444,-0.802184401243749,-0.256227061930585,266.194922564526,-15.7461122516107,220.206655876861,"G3",0,0,1,0,0,0,0,0,"Asia","Southern Asia","IRN",32.41,54.41,"M",39.7293640054127,0.439,"Yellow","Grey","Mottle0","Mottle","https://purl.org/germplasm/id/db003042-def7-41d8-a903-196bc5f3a47f;https://training.ars-grin.gov/gringlobal/AccessionDetail.aspx?id=1818548"
244,"PI 431630 LSP AGL","Iran","USDA",NA,NA,1979,"1960-1980",-0.0233351340502234,0.000314093946499103,0.00245259314843933,6,3.33870867672298,-2.07467765343663,-1.64202037179144,234.218878981674,9.31846375289661,125.125010172483,"G6",0,0,0,0,0,1,0,0,"Asia","Southern Asia","IRN",32.41,54.41,"S",27.9039301310044,0.388,"Red","Tan","Mottle1","Mottle","https://purl.org/germplasm/id/797a9bab-b3b6-4e16-b438-add29dbc59f8;https://training.ars-grin.gov/gringlobal/AccessionDetail.aspx?id=1818550"
245,"PI 431633 LSP AGL","Iran","USDA",NA,NA,1979,"1960-1980",-0.0216875147910014,0.000470890967822975,0.00222107860051076,4,-0.976506453743955,-0.648591553807103,-0.980052426121616,-76.4977943930077,-94.6204161624372,36.4431942184022,"Mix",0.444567,0,0,0,0,0,0.555433,0,"Asia","Southern Asia","IRN",32.41,54.41,"XL",71.1682242990654,0.637,"Yellow","Green","Mottle0","Mottle","https://purl.org/germplasm/id/146b511a-185d-409b-b3d2-324a54c503da;https://training.ars-grin.gov/gringlobal/AccessionDetail.aspx?id=1818553"
246,"PI 431636 LSP AGL","Iran","USDA",NA,NA,1972,"1960-1980",-0.0231152399380363,0.000400942569577988,0.00240184915725345,4,0.0456240517249282,-1.80915631751641,-0.836723618032165,-45.0041898023974,-49.390014485557,56.9513297948456,"Mix",0.631667,0,0,0,0,0,0.368332,0,"Asia","Southern Asia","IRN",32.41,54.41,"L",61.5192307692308,0.599,"Yellow","Green","Absent","Absent","https://purl.org/germplasm/id/429677ef-dfcb-4247-aa6c-5570b51d3dce;https://training.ars-grin.gov/gringlobal/AccessionDetail.aspx?id=1818554;http://grs.icarda.org/accessions/?IG=1011"
247,"PI 431643 LSP AGL","Iran","USDA",NA,NA,1972,"1960-1980",-0.0233727785233352,0.0004382364429448,0.00238183779913474,4,0.116182692221527,-1.59262801332613,-1.22928985593254,87.697767694913,65.776123834818,69.0260827841276,"G1",1,0,0,0,0,0,0,0,"Asia","Southern Asia","IRN",32.41,54.41,"M",30.5394736842105,0.433,"Yellow","Green","Mottle0","Mottle","https://purl.org/germplasm/id/5421cbec-d1b7-4f3f-8ab1-f9526381f63b;https://training.ars-grin.gov/gringlobal/AccessionDetail.aspx?id=1818557;http://grs.icarda.org/accessions/?IG=528"
248,"PI 431662 LSP AGL","Iran","USDA",NA,NA,1972,"1960-1980",-0.021014848029596,0.000388617188092295,0.00220863811686113,6,1.62821034147118,-0.610666203084713,-0.975571559673915,227.386860798961,-22.8284941778481,197.195038138127,"G3",0,0,1,0,0,0,0,0,"Asia","Southern Asia","IRN",32.41,54.41,"S",32.4047306176084,0.378,"Red","Grey","Mottle1","Mottle","https://purl.org/germplasm/id/c2d03129-0739-494f-b1ad-5643ca786a5c;https://training.ars-grin.gov/gringlobal/AccessionDetail.aspx?id=1818559;http://grs.icarda.org/accessions/?IG=1029"
249,"PI 431663 LSP AGL","Iran","USDA",NA,NA,1973,"1960-1980",-0.0220746440242167,0.000380535986934902,0.00229863699840394,6,2.23137797639726,-1.41247446060487,-0.751156823068658,267.855435071179,-20.9998328982982,218.023730936264,"G3",0,0,1,0,0,0,0,0,"Asia","Southern Asia","IRN",32.41,54.41,"M",36.7042253521127,0.416,"Yellow","Grey","Mottle0","Mottle","https://purl.org/germplasm/id/4fb0c6ef-11f4-4e87-af79-cf2518c553d3;https://training.ars-grin.gov/gringlobal/AccessionDetail.aspx?id=1818560;http://grs.icarda.org/accessions/?IG=1030"
250,"PI 431679 LSP AGL","Egypt","USDA",NA,NA,NA,NA,-0.0212349243167828,0.0004526580571304,0.00211036504729586,6,3.65279535792638,-0.277684881490376,-2.32686827700164,261.472203628723,-8.07378581580577,208.606284768427,"G3",0,0,1,0,0,0,0,0,"Africa","Northern Africa","EGY",26.49593108,29.8618993,"M",30.9638554216867,0.412,"Red","Grey","Mottle0","Mottle","https://purl.org/germplasm/id/a9c7d5a1-f445-465c-bdb3-2d57a8fe91f6;https://training.ars-grin.gov/gringlobal/AccessionDetail.aspx?id=1818563;http://grs.icarda.org/accessions/?IG=1046"
251,"PI 431684 LSP AGL","Iran","USDA",NA,NA,1973,"1960-1980",-0.0228372577702895,0.000370753033992508,0.00236479660930452,6,2.91006655326444,-2.14110403767504,-0.541233279114653,244.788119254945,-1.30503087485859,136.54847796917,"G6",0,0,0,0,0,1,0,0,"Asia","Southern Asia","IRN",32.41,54.41,"S",31.2709030100334,0.37,"Red","Green","Mottle1","Mottle","https://purl.org/germplasm/id/11ba15be-3b92-4c42-b035-65daf15b26c2;https://training.ars-grin.gov/gringlobal/AccessionDetail.aspx?id=1818564;http://grs.icarda.org/accessions/?IG=1061"
252,"PI 431705 LSP AGL","Iran","USDA",NA,NA,1979,"1960-1980",-0.0217904130135357,0.000404801453942036,0.00226893316330488,4,1.04418390943809,-1.12161176874427,-0.963664623338322,265.367504667472,-16.4231045953693,222.749435351125,"G3",0,0,1,0,0,0,0,0,"Asia","Southern Asia","IRN",32.41,54.41,"M",39.1747572815534,0.454,"Yellow","Green","Mottle0","Mottle","https://purl.org/germplasm/id/77f21a7a-3a8f-4219-85eb-57a4903ff8b5;https://training.ars-grin.gov/gringlobal/AccessionDetail.aspx?id=1818565"
253,"PI 431710 LSP AGL","Iran","USDA",NA,NA,1979,"1960-1980",-0.0217587836718142,0.000418188130905416,0.002239476549505,6,1.45387303610537,-0.981794825881925,-1.13769117331742,274.382704583488,-19.2084884424792,225.938549932042,"G3",0,0,1,0,0,0,0,0,"Asia","Southern Asia","IRN",32.41,54.41,"M",37.8398058252427,0.439,"Yellow","Green","Mottle1","Mottle","https://purl.org/germplasm/id/e13b9f8b-2933-48f4-9ee4-697a82fb221b;https://training.ars-grin.gov/gringlobal/AccessionDetail.aspx?id=1818566"
254,"PI 431714 LSP AGL","Iran","USDA",NA,NA,1979,"1960-1980",-0.0211049425469312,0.000368922299943608,0.00223754190374203,6,1.24946072736899,-0.68066422296509,-0.753159567522143,266.572576867375,-19.4289194198405,230.312074548735,"G3",0,0,1,0,0,0,0,0,"Asia","Southern Asia","IRN",32.41,54.41,"M",33.3516483516484,0.442,"Yellow","Green","Mottle1","Mottle","https://purl.org/germplasm/id/7cc8078e-6f6f-4c69-9a9a-37eb3a76af99;https://training.ars-grin.gov/gringlobal/AccessionDetail.aspx?id=1818568"
255,"PI 431717 LSP AGL","Iran","USDA",NA,NA,1979,"1960-1980",-0.0223391137833283,0.000385646332404914,0.00231866261260373,6,1.9631727886629,-1.69614099320692,-0.840180846547649,241.139078775944,-22.4172161467182,198.618133901285,"G3",0,0,1,0,0,0,0,0,"Asia","Southern Asia","IRN",32.41,54.41,"M",33.1616341030195,0.433,"Yellow","Green","Mottle1","Mottle","https://purl.org/germplasm/id/0f633506-fccc-4698-94b8-8ffa1ac62a29;https://training.ars-grin.gov/gringlobal/AccessionDetail.aspx?id=1818569"
256,"PI 431728 LSP AGL","Iran","USDA",NA,NA,1979,"1960-1980",-0.0214673889218752,0.000445057343380072,0.00217919414698802,6,1.27867933220139,-0.378399886312954,-1.51594726729009,265.591612006024,-16.5095981968476,229.00233611175,"G3",0,0,1,0,0,0,0,0,"Asia","Southern Asia","IRN",32.41,54.41,"M",32.129246064623,0.45,"Yellow","Green","Absent","Absent","https://purl.org/germplasm/id/8a2428ca-63f8-40d2-8a49-4ddc6c55b2d1;https://training.ars-grin.gov/gringlobal/AccessionDetail.aspx?id=1818570"
257,"PI 431731 LSP AGL","Iran","USDA",NA,NA,1979,"1960-1980",-0.0207134984338623,0.000374100250417475,0.00220561570484085,6,1.21236030014561,-0.394048757499023,-0.671229766388465,251.530868498129,-21.0756103249928,218.168845431625,"G3",0,0,1,0,0,0,0,0,"Asia","Southern Asia","IRN",32.41,54.41,"M",33.557703025034,0.435,"Yellow","Green","Mottle0","Mottle","https://purl.org/germplasm/id/a2143643-a7e9-40f0-a42e-77e626003359;https://training.ars-grin.gov/gringlobal/AccessionDetail.aspx?id=1818571"
258,"PI 431739 LSP AGL","Iran","USDA",NA,NA,1979,"1960-1980",-0.0208504501860979,0.000443667472904737,0.00215944481741881,4,0.327114232579643,-0.135408614933071,-0.979232825278783,241.487920583485,-2.15466355050348,202.181627372938,"G3",0.118866,0,0.881134,0,0,0,0,0,"Asia","Southern Asia","IRN",32.41,54.41,"M",34.665532372168,0.424,"Yellow","Green","Dotted","Pattern","https://purl.org/germplasm/id/95053f5c-6020-486d-9654-2bb07ee4bd14;https://training.ars-grin.gov/gringlobal/AccessionDetail.aspx?id=1818572"
259,"PI 431753 LSP AGL","Iran","USDA",NA,NA,1979,"1960-1980",-0.0224965022870382,0.000427384144625457,0.00230299836067004,4,0.690531688445731,-1.23394616908682,-1.56872836875293,273.319155162627,-15.6433077184019,232.402784034117,"G3",0,0,1,0,0,0,0,0,"Asia","Southern Asia","IRN",32.41,54.41,"M",36.3513262500929,0.468,"Yellow","Green","Mottle1","Mottle","https://purl.org/germplasm/id/7c24db43-06c7-4d42-a1ba-a1bd8c787cc5;https://training.ars-grin.gov/gringlobal/AccessionDetail.aspx?id=1818573"
260,"PI 431756 LSP AGL","Iran","USDA",NA,NA,1979,"1960-1980",-0.0222921688837538,0.000370456856088442,0.00231837101903684,6,2.32684652080202,-1.38742842500542,-0.823819578586196,257.682418509912,-15.8840489756814,214.394097338053,"G3",0,0,1,0,0,0,0,0,"Asia","Southern Asia","IRN",32.41,54.41,"M",34.5722300140252,0.435,"Yellow","Green","Mottle1","Mottle","https://purl.org/germplasm/id/11f0b27a-c858-4ebe-aee4-f190417535a7;https://training.ars-grin.gov/gringlobal/AccessionDetail.aspx?id=1818574"
261,"PI 431809 LSP AGL","Iran","USDA",NA,NA,1979,"1960-1980",-0.0230568815163355,0.000409855379512838,0.00237891947784048,4,0.546457222615173,-1.54562009250972,-1.3104368331336,97.8183272361967,3.2699338192189,77.6079647448277,"Mix",0.576299,0,0,0,0,0.423701,0,0,"Asia","Southern Asia","IRN",32.41,54.41,"L",38.5902503293808,0.502,"Yellow","Green","Mottle0","Mottle","https://purl.org/germplasm/id/f4849ae2-b703-4288-88b3-ecff4f6252ee;https://training.ars-grin.gov/gringlobal/AccessionDetail.aspx?id=1818578"
262,"PI 431824 LSP AGL","Iran","USDA",NA,NA,1979,"1960-1980",-0.024047230210312,0.000401721452937403,0.00248101322102219,4,0.116393244150505,-2.20851846669272,-1.10609646876838,88.0727628169001,78.0786341537467,65.1180997515862,"G1",1,0,0,0,0,0,0,0,"Asia","Southern Asia","IRN",32.41,54.41,"M",36.6551187782805,0.458,"Yellow","Green","Absent","Absent","https://purl.org/germplasm/id/3db5a258-f054-4332-b67d-b57389d9faa3;https://training.ars-grin.gov/gringlobal/AccessionDetail.aspx?id=1818580"
263,"PI 431863 LSP AGL","Iran","USDA",NA,NA,1979,"1960-1980",-0.01991971038495,0.00037717774557076,0.00212226847789502,6,2.37352133113799,-0.2313370761121,-0.447075773287067,89.5501493407166,-80.0084380254226,122.269999006291,"Mix",0,0,0.634817,0,0,0,0.365183,0,"Asia","Southern Asia","IRN",32.41,54.41,"M",35.8435941512277,0.48,"Yellow","Green","Absent","Absent","https://purl.org/germplasm/id/b9ef8c09-d9a1-4bce-94b9-2e0d514923b9;https://training.ars-grin.gov/gringlobal/AccessionDetail.aspx?id=1818581"
264,"PI 431873 LSP AGL","Iran","USDA",NA,NA,1979,"1960-1980",-0.023066252713151,0.000330950699796144,0.00242695522319749,6,3.00013851257717,-2.51171685476186,-0.414234288509454,173.410319523192,7.37387229832638,118.661626299689,"G6",0.196331,0,0.000313,0,0,0.803355,0,0,"Asia","Southern Asia","IRN",32.41,54.41,"M",35.1317863828949,0.48,"Red","Green","Mottle0","Absent","https://purl.org/germplasm/id/e3ee03c8-d7df-4b6b-9852-1d568081e36c;https://training.ars-grin.gov/gringlobal/AccessionDetail.aspx?id=1818582"
265,"PI 431884 LSP AGL","Iran","USDA",NA,NA,1979,"1960-1980",-0.024350854652823,0.000423278712088879,0.00247647219714866,4,0.419540962206204,-2.31129277186129,-1.63479626356114,66.9021827537884,80.1571652710149,50.1982636768945,"G1",1,0,0,0,0,0,0,0,"Asia","Southern Asia","IRN",32.41,54.41,"M",43.2482102322333,0.468,"Yellow","Green","Absent","Mottle","https://purl.org/germplasm/id/43952def-2143-4eed-ba07-d44b43b04b8e;https://training.ars-grin.gov/gringlobal/AccessionDetail.aspx?id=1818583"
266,"PI 431888 LSP AGL","Iran","USDA",NA,NA,1979,"1960-1980",-0.0227018242677495,0.000340187794514436,0.00238802696293547,6,2.9740554361094,-2.02877921971872,-0.174852362420448,194.253875360874,18.2300404682729,109.163634077255,"G6",0.149049,0,0,0,0,0.85095,0,0,"Asia","Southern Asia","IRN",32.41,54.41,"S",28.3024691358025,0.36,"Yellow","Grey","Mottle1","Mottle","https://purl.org/germplasm/id/c97d24f3-ded7-415d-9219-c90a9c1d7d04;https://training.ars-grin.gov/gringlobal/AccessionDetail.aspx?id=1818584"
267,"PI 431923 LSP AGL","Iran","USDA",NA,NA,1979,"1960-1980",-0.0205953569887616,0.000304924052458239,0.00224282674952645,6,3.50994150042115,-1.22538892679388,-0.0306014745079717,194.183344504507,6.64478619912266,117.25955300078,"G6",0,0,0,0,0,1,0,0,"Asia","Southern Asia","IRN",32.41,54.41,"S",27.2132421104858,0.351,"Red","Green","Mottle1","Mottle","https://purl.org/germplasm/id/0e43911f-771a-422c-b2d2-fb04f9fe8f16;https://training.ars-grin.gov/gringlobal/AccessionDetail.aspx?id=1818586"
268,"PI 431980 LSP AGL","Iran","USDA",NA,NA,1979,"1960-1980",-0.0232112811232893,0.000455489112040309,0.00233658022488595,4,0.449493957761969,-1.31300437543629,-1.86040605764513,1.33314115591906,14.7237833350885,58.7602280247944,"G1",0.882402,0,0,0,0,0,0.117598,0,"Asia","Southern Asia","IRN",32.41,54.41,"L",54.3432835820895,0.556,"Yellow","Green","Absent","Absent","https://purl.org/germplasm/id/680854fb-8a6e-4da6-b81d-3bc6bb46975c;https://training.ars-grin.gov/gringlobal/AccessionDetail.aspx?id=1818587"
269,"PI 432000 LSP AGL","Iran","USDA",NA,NA,1979,"1960-1980",-0.023996763454866,0.000348804526259317,0.00248894324538599,6,2.66577495031003,-2.64921413501652,-0.637110400831691,218.382696152216,6.53417381700106,125.240799297117,"G6",0,0,0.002437,0,0,0.997563,0,0,"Asia","Southern Asia","IRN",32.41,54.41,"S",27.6892430278884,0.354,"Red","Tan","Mottle1","Mottle","https://purl.org/germplasm/id/0f6b9449-e497-4e11-b4c8-4416d82788c1;https://training.ars-grin.gov/gringlobal/AccessionDetail.aspx?id=1818589"
270,"PI 432001 LSP AGL","Iran","USDA",NA,NA,1979,"1960-1980",-0.0221404101384142,0.000363683842628332,0.00234479244774863,6,1.06016195875185,-1.55249785612945,-0.557269302164651,97.1793244545001,24.5671708565489,84.8879023981039,"Mix",0.596685,0,0,0,0,0.350803,0.052512,0,"Asia","Southern Asia","IRN",32.41,54.41,"M",42.431654676259,0.487,"Yellow","Green","Absent","Absent","https://purl.org/germplasm/id/5537ac32-9d6a-49cc-8747-4355079cbd95;https://training.ars-grin.gov/gringlobal/AccessionDetail.aspx?id=1818590"
271,"PI 432002 LSP AGL","Iran","USDA",NA,NA,1979,"1960-1980",-0.0218531683728437,0.000307710728262864,0.00233944405458546,6,3.91833074000319,-1.83105271677846,-0.226455919240053,258.406504633046,2.39335423069621,208.090903429549,"Mix",0,0,0.640235,0,0,0.359765,0,0,"Asia","Southern Asia","IRN",32.41,54.41,"S",34.7419559122799,0.396,"Red","Grey","Absent","Absent","https://purl.org/germplasm/id/26c5e846-d4a2-4a36-91f3-18e8f858f017;https://training.ars-grin.gov/gringlobal/AccessionDetail.aspx?id=1818591"
272,"PI 432005 LSP AGL","Iran","USDA",NA,NA,1979,"1960-1980",-0.02098839512622,0.000331899107262088,0.0023137779023943,5,0.292899203864887,-1.50391001323429,0.606366185063568,118.528321572264,10.9089433317813,139.318767133319,"Mix",0.594049,0,0.399776,0,0,0,0.006175,0,"Asia","Southern Asia","IRN",32.41,54.41,"M",44.2643391521197,0.49,"Yellow","Grey","Absent","Absent","https://purl.org/germplasm/id/9b5bda0b-706a-4c20-8e9a-90a6ff528bd2;https://training.ars-grin.gov/gringlobal/AccessionDetail.aspx?id=1818592"
273,"PI 432028 LSP AGL","Iran","USDA",NA,NA,1979,"1960-1980",-0.0209309747443604,0.000371659591270481,0.00220244207943645,6,2.60079303917032,-1.07650595587083,-0.52724319638261,267.569162848805,-18.0747800683669,219.684078358223,"G3",0,0,1,0,0,0,0,0,"Asia","Southern Asia","IRN",32.41,54.41,"M",36.9899858604342,0.427,"Yellow","Grey","Mottle0","Absent","https://purl.org/germplasm/id/e94fe101-a389-4ca1-8c6e-f8fd80540a61;https://training.ars-grin.gov/gringlobal/AccessionDetail.aspx?id=1818593"
274,"PI 432033 LSP AGL","Iran","USDA",NA,NA,1979,"1960-1980",-0.0211793570132992,0.000438008325797561,0.00215861029173872,6,1.95299291384232,-0.416492295916614,-1.28290997773247,266.869758466501,-15.0264079869819,226.815963262498,"G3",0,0,1,0,0,0,0,0,"Asia","Southern Asia","IRN",32.41,54.41,"S",35.1046823240407,0.396,"Yellow","Grey","Mottle0","Absent","https://purl.org/germplasm/id/d85d226f-ab15-4493-9c34-4c1de3e60c9a;https://training.ars-grin.gov/gringlobal/AccessionDetail.aspx?id=1818594"
275,"PI 432085 LSP AGL","Iran","USDA",NA,NA,1979,"1960-1980",-0.0230985093124062,0.00032006726640161,0.00251923406130159,4,-0.82084013090562,-2.26106420791869,0.0147045008664366,21.2109512552249,47.5559050242475,58.8936231060762,"G1",0.999985,0,0,0,0,0,1.5e-05,0,"Asia","Southern Asia","IRN",32.41,54.41,"L",45.5829596412556,0.505,"Yellow","Green","Absent","Absent","https://purl.org/germplasm/id/836de8cd-d0a8-45c3-ad83-e41b92695ed0;https://training.ars-grin.gov/gringlobal/AccessionDetail.aspx?id=1818597"
276,"PI 432106 LSP AGL","Iran","USDA",NA,NA,1979,"1960-1980",-0.021822811307901,0.000398005395029675,0.00227984722210199,4,0.658832754354265,-1.00623712147936,-0.978832782907322,-132.102441681408,-124.446273525455,27.0617494821857,"Mix",0.275011,0,0,0,0,0,0.724989,0,"Asia","Southern Asia","IRN",32.41,54.41,"XL",56.1498257839721,0.64,"Yellow","Green","Absent","Absent","https://purl.org/germplasm/id/0083fec8-abb3-4b09-a7d5-20e480f9d779;https://training.ars-grin.gov/gringlobal/AccessionDetail.aspx?id=1818599"
277,"PI 432124 LSP AGL","Iran","USDA",NA,NA,1979,"1960-1980",-0.0238696608319687,0.000407699464675545,0.00244302749344428,4,0.815963890214575,-2.17213486076202,-1.35927424062595,268.911487238966,-12.7717377692904,214.413142297888,"G3",0,0,1,0,0,0,0,0,"Asia","Southern Asia","IRN",32.41,54.41,"S",28.3995459704881,0.371,"Red","Green","Mottle1","Mottle","https://purl.org/germplasm/id/692ca28c-4b6a-4a55-b00f-3a26cf4e124e;https://training.ars-grin.gov/gringlobal/AccessionDetail.aspx?id=1818600"
278,"PI 432145 LSP AGL","Iran","USDA",NA,NA,1979,"1960-1980",-0.0217037185844443,0.000383927183745162,0.00223767038259561,6,3.40239430971445,-1.53810253998249,-0.971328156257675,265.09376957029,-16.2030526218973,225.545724011055,"G3",0,0,1,0,0,0,0,0,"Asia","Southern Asia","IRN",32.41,54.41,"M",33.2321899736148,0.404,"Yellow","Green","Mottle1","Absent","https://purl.org/germplasm/id/91e36df9-3b5c-4305-924e-51753d6641b2;https://training.ars-grin.gov/gringlobal/AccessionDetail.aspx?id=1818601"
279,"PI 432147 LSP AGL","Iran","USDA",NA,NA,1979,"1960-1980",-0.022207675365276,0.000449421807591976,0.00222874964629455,6,1.96003814317657,-1.18190213684985,-1.6186157644476,256.658188896681,-21.5235179189978,219.263843323214,"G3",0,0,1,0,0,0,0,0,"Asia","Southern Asia","IRN",32.41,54.41,"M",35.9043602333291,0.428,"Yellow","Green","Mottle1","Mottle","https://purl.org/germplasm/id/7fa610a0-1e3b-4b9b-9952-c5f94fa6531e;https://training.ars-grin.gov/gringlobal/AccessionDetail.aspx?id=1818602"
280,"PI 432184 LSP AGL","Iran","USDA",NA,NA,1979,"1960-1980",-0.0243050154565002,0.000432653949304333,0.00245992398960453,4,0.237058477504304,-2.09421758687226,-1.49808149657994,112.337379701816,54.1076609991112,94.5793793007163,"G1",0.901911,0,0.037412,0,0,0.060677,0,0,"Asia","Southern Asia","IRN",32.41,54.41,"M",38.4604519774011,0.473,"Yellow","Green","Mottle0","Absent","https://purl.org/germplasm/id/42e6cd36-754b-40d1-9822-da2c920b9f84;https://training.ars-grin.gov/gringlobal/AccessionDetail.aspx?id=1818603"
281,"PI 432188 LSP AGL","Iran","USDA",NA,NA,1979,"1960-1980",-0.0224393711101414,0.000467271743255189,0.00228834425304789,4,-0.720510584919606,-1.09418640297656,-1.28728470616324,55.3900458580329,48.4528345160833,78.630142462994,"G1",1,0,0,0,0,0,0,0,"Asia","Southern Asia","IRN",32.41,54.41,"L",41.9951670319369,0.502,"Yellow","Green","Mottle0","Mottle","https://purl.org/germplasm/id/0dc86bf1-4db4-4b20-ae3f-547f83843a1c;https://training.ars-grin.gov/gringlobal/AccessionDetail.aspx?id=1818605"
282,"PI 432190 LSP AGL","Iran","USDA",NA,NA,1979,"1960-1980",-0.0187935508733582,0.000426451759932094,0.00197815653301444,7,1.60275778094908,1.04505285914384,-0.761429634012507,-174.722990436888,128.367388356253,8.30724299686565,"G8",0,0,0,0,0,0,0.172547,0.827453,"Asia","Southern Asia","IRN",32.41,54.41,"XL",49.8173515981735,0.604,"Yellow","Green","Mottle1","Mottle","https://purl.org/germplasm/id/14aadc36-4b47-4ad4-afef-50e499c66a4e;https://training.ars-grin.gov/gringlobal/AccessionDetail.aspx?id=1818606"
283,"PI 432201 LSP AGL","Iran","USDA",NA,NA,1979,"1960-1980",-0.0206413534136106,0.000459143493827398,0.00209195151092184,6,1.52042924815129,0.387323312976323,-1.44861891483448,-112.937041511147,212.361277501541,-9.71314761062193,"G8",0,0,0,0,0,0,0,1,"Asia","Southern Asia","IRN",32.41,54.41,"M",29.3645546372819,0.413,"Red","Green","Mottle1","Mottle","https://purl.org/germplasm/id/b784838a-3f32-45e2-8146-acee45ec138a;https://training.ars-grin.gov/gringlobal/AccessionDetail.aspx?id=1818607"
284,"PI 432212 LSP AGL","Iran","USDA",NA,NA,1979,"1960-1980",-0.0224244478095091,0.000402376229122109,0.00230238166002776,6,1.71770634962233,-1.39128452500818,-1.32150439634763,289.674826014013,-16.5397797790152,233.936940324269,"G3",0,0,1,0,0,0,0,0,"Asia","Southern Asia","IRN",32.41,54.41,"M",30.9530694577667,0.406,"Red","Brown","Marbled","Pattern","https://purl.org/germplasm/id/eb9a6b21-6e9c-44f0-93f6-e8b3ac537b9e;https://training.ars-grin.gov/gringlobal/AccessionDetail.aspx?id=1818608"
285,"PI 432236 LSP AGL","Jordan","USDA",NA,NA,1979,"1960-1980",-0.0218410580634786,0.000392378996252553,0.0022658922503387,6,2.32497006145375,-1.55285608102313,-0.736262080095733,285.612719625756,-14.6030204640958,231.997511361695,"G3",0,0,1,0,0,0,0,0,"Asia","Western Asia","JOR",31.24579389,36.77137251,"S",27.6419222069784,0.35,"Red","Brown","Marbled","Pattern","https://purl.org/germplasm/id/736b4fdc-1f34-4d9a-a3ef-2d16f1e356d6;https://training.ars-grin.gov/gringlobal/AccessionDetail.aspx?id=1818609"
286,"PI 432245 LSP AGL","Lebanon","USDA",NA,NA,1979,"1960-1980",-0.0225894573839412,0.000445555483503658,0.00234235441442122,4,-1.52299720375734,-1.13946240011379,-0.775746840788204,37.6892625210998,19.6622214223856,68.1798163685513,"G1",0.933097,0,0,0,0,0,0.066903,0,"Asia","Western Asia","LBN",33.92306993,35.88016327,"M",56.5151515151515,0.496,"Yellow","Green","Absent","Absent","https://purl.org/germplasm/id/17b23113-ca3b-41e9-a02b-3e4242028697;https://training.ars-grin.gov/gringlobal/AccessionDetail.aspx?id=1818611"
287,"PI 432271 LSP AGL","Turkey","USDA",NA,NA,1979,"1960-1980",-0.0182128362286253,0.000462401467538564,0.00184074931850911,8,4.07149402317435,1.92184060251577,-1.67364546294929,-118.908095891705,216.311084494035,-12.76339338071,"G8",0,0,0,0,0,0,0,1,"Asia","Western Asia","TUR",39.06160342,35.16895529,"M",29.0473498752019,0.443,"Red","Grey","Mottle1","Mottle","https://purl.org/germplasm/id/ae8ed88f-a1be-4a7e-8f16-3303e6b433c9;https://training.ars-grin.gov/gringlobal/AccessionDetail.aspx?id=1818613"
288,"PI 432286 LSP AGL","Egypt","USDA",NA,NA,1979,"1960-1980",-0.0180137046567923,0.000280402465123305,0.00206427086696912,7,3.53699649421982,0.114957989133535,1.38006584889339,33.8816872012239,56.1090250592479,-31.4238389625964,"G2",0,1,0,0,0,0,0,0,"Africa","Northern Africa","EGY",26.49593108,29.8618993,"M",37.595818815331,0.436,"Red","Brown","Spotted","Pattern","https://purl.org/germplasm/id/cdf29145-f958-4ef2-8078-024fe17a9878;https://training.ars-grin.gov/gringlobal/AccessionDetail.aspx?id=1818614"
289,"PI 451763 LSP AGL","USA","USDA",46.73,-117.16,1973,"1960-1980",-0.0216378581809124,0.000659823696253592,0.00204039414839956,4,-2.25779256319803,-0.0556977905301053,-2.12468289273167,-186.552988632175,117.559867704292,3.84682593368127,"Mix",0,0,0,0,0,0,0.221947,0.778053,"Americas","Northern America","USA",39,-101.5,"L",56.1659513590844,0.595,"Yellow","Green","Mottle2","Mottle","https://purl.org/germplasm/id/393308a4-e474-41e8-8f07-2d7557bd14b2;https://training.ars-grin.gov/gringlobal/AccessionDetail.aspx?id=1818616"
290,"PI 458503 LSP AGL","Mexico","USDA",19.51666667,-98.86666667,1981,"1980-2000",-0.0212158724509896,0.000336232687669455,0.00230729015364325,4,0.287598453559704,-0.808981480942091,-0.115723251146416,-140.461015050864,83.1486787465791,-24.9635329059515,"Mix",0,0,0,0,0,0,0.317848,0.682152,"Americas","Central America","MEX",23.94753932,-102.52345042,"M",35.3195673549656,0.449,"Yellow","Green","Mottle1","Mottle","https://purl.org/germplasm/id/83b4de80-92ca-4fa0-8ec6-e89847d1b8fc;https://training.ars-grin.gov/gringlobal/AccessionDetail.aspx?id=1818618"
291,"PI 468900 LSP AGL","Brazil","USDA",NA,NA,1982,"1980-2000",-0.0197401028557274,0.000302635468588377,0.00218316134599409,7,2.59496284818025,-0.132415561541699,0.0784822551198384,-174.962576167808,100.310707464684,-0.681401851707257,"Mix",0,0,0,0,0,0,0.295265,0.704735,"Americas","South America","BRA",-10.78777567,-53.09783199,"M",39.7489504529624,0.463,"Yellow","Green","Mottle1","Mottle","https://purl.org/germplasm/id/9cd4b1b2-6da1-48bd-899d-44b43b9339c2;https://training.ars-grin.gov/gringlobal/AccessionDetail.aspx?id=1818620"
292,"PI 468901 AGL","Brazil","USDA",NA,NA,NA,NA,-0.0156826851240779,0.000308412800508787,0.00178725488460004,8,5.79092395330936,2.64709924368262,0.738813007170686,-149.749915398265,122.661880959562,-0.427658437981652,"G8",0,0,0,0,0,0,0.165863,0.834137,"Americas","South America","BRA",-10.78777567,-53.09783199,"M",32.8709990300679,0.411,"Red","Green","Mottle2","Mottle","https://purl.org/germplasm/id/efa57a44-fb75-4399-a28a-ab33a67cae4a;https://training.ars-grin.gov/gringlobal/AccessionDetail.aspx?id=1363837"
293,"PI 468902 LSP AGL","Brazil","USDA",-28.63333333,-53.1,1982,"1980-2000",-0.0213545376468898,0.00038959879960252,0.00225357371078654,4,0.663334408803428,-0.554099252870912,-0.911058245206386,-142.407779929029,147.095380261596,-15.6441272912799,"G8",0,0,0,0,0,0,0.121432,0.878567,"Americas","South America","BRA",-10.78777567,-53.09783199,"M",36.1036036036036,0.451,"Red/Yellow","Grey","Mottle2","Mottle","https://purl.org/germplasm/id/886631db-ff3c-4e58-b4d7-4c26c2806b3b;https://training.ars-grin.gov/gringlobal/AccessionDetail.aspx?id=1818621"
294,"PI 472136 LSP AGL","India","USDA",25.18333333,85.51666667,1980,"1960-1980",-0.0190815923941526,0.000606774896653699,0.00198605440416023,2,-5.9315024104975,0.763904597685679,-0.126936349262193,267.5418381343,8.59343711195595,-259.018737192697,"G4",0,0,0,1,0,0,0,0,"Asia","Southern Asia","IND",22.88578035,79.61197355,"S",23.9973262032086,0.341,"Red","Grey","Dotted","Pattern","https://purl.org/germplasm/id/ea8ff3ca-2fd4-4859-a1b2-0fa094ae0c42;https://training.ars-grin.gov/gringlobal/AccessionDetail.aspx?id=1818627"
295,"PI 472205 LSP AGL","India","USDA",NA,NA,1980,"1960-1980",-0.0173334373691097,0.000721621770183185,0.00174637901690449,1,-7.24410105245964,1.73034056419518,-0.331930717324222,269.384821440027,13.0406209134096,-246.48768875528,"G4",0,0,0,1,0,0,0,0,"Asia","Southern Asia","IND",22.88578035,79.61197355,"M",38.0378657487091,0.428,"Red","Grey","Dotted;Marbled","Pattern","https://purl.org/germplasm/id/ea87bc39-9710-42b1-9756-43c9dae16f50;https://training.ars-grin.gov/gringlobal/AccessionDetail.aspx?id=1818636"
296,"PI 472213 LSP AGL","India","USDA",NA,NA,1980,"1960-1980",-0.0235877677512078,0.000440999683456307,0.0023800901424087,4,0.488448422479298,-1.83179197117755,-1.52394436273798,151.363473554082,34.6335582217855,-79.5710120040693,"Mix",0.527636,0,0,0.472363,0,0,0,0,"Asia","Southern Asia","IND",22.88578035,79.61197355,"S",35.7048748353096,0.391,"Red","Green","Absent","Absent","https://purl.org/germplasm/id/6dd622e1-166f-424a-ba4a-4db639dc697c;https://training.ars-grin.gov/gringlobal/AccessionDetail.aspx?id=1818637"
297,"PI 472327 LSP AGL","India","USDA",28.05,79.11666667,1980,"1960-1980",-0.0202756615230538,0.000491271789805752,0.00219166525227881,2,-5.0467098317867,-0.138207137152731,0.26389582783902,279.172714918072,11.1029413255714,-268.948855729304,"G4",0,0,0,1,0,0,0,0,"Asia","Southern Asia","IND",22.88578035,79.61197355,"S",24.027149321267,0.33,"Red","Grey","Mottle2","Mottle","https://purl.org/germplasm/id/9fa30d92-a489-4b15-948c-e02685c2d946;https://training.ars-grin.gov/gringlobal/AccessionDetail.aspx?id=1818642"
298,"PI 472380 LSP AGL","India","USDA",28.98333333,77.7,1980,"1960-1980",-0.0196624648627904,0.000556905418702028,0.0020729061633286,2,-5.33792795920833,0.387877924607411,0.00487718423050314,275.903519946039,9.04036540856716,-258.973063390285,"G4",0,0,0,1,0,0,0,0,"Asia","Southern Asia","IND",22.88578035,79.61197355,"S",25.5354659248957,0.376,"Red","Grey","Dotted","Present","https://purl.org/germplasm/id/5f7ab412-6d14-4cf2-992b-9f10bdef6f59;https://training.ars-grin.gov/gringlobal/AccessionDetail.aspx?id=1818648"
299,"PI 472416 LSP AGL","India","USDA",NA,NA,1980,"1960-1980",-0.0192280039566828,0.00036042216910485,0.00220547522154054,2,-3.40459161028731,0.113062353800616,1.06607074797674,246.831528951492,2.40600015288817,-235.340958756715,"G4",0,0,0,1,0,0,0,0,"Asia","Southern Asia","IND",22.88578035,79.61197355,"S",23.5422602089269,0.353,"Red","Grey","Dotted;Marbled","Pattern","https://purl.org/germplasm/id/db69b968-e170-4ab9-afd8-7a9646f68340;https://training.ars-grin.gov/gringlobal/AccessionDetail.aspx?id=1818651"
300,"PI 472488 LSP AGL","India","USDA",NA,NA,1980,"1960-1980",-0.0190111713527384,0.000439049616354197,0.00215561060567195,2,-5.18098958939085,-0.00321007648508664,0.914234455152337,270.132739435717,7.5269527563404,-255.747613597728,"G4",0,0,0,1,0,0,0,0,"Asia","Southern Asia","IND",22.88578035,79.61197355,"S",23.2708333333333,0.362,"Red","Black","Marbled","Present","https://purl.org/germplasm/id/b4a787a5-2b78-419d-b44e-efeaabc5b3ab;https://training.ars-grin.gov/gringlobal/AccessionDetail.aspx?id=1818655"
301,"PI 472559 LSP AGL","India","USDA",NA,NA,1980,"1960-1980",-0.0199550606745809,0.000351161321703371,0.00229320700385055,2,-4.03445187122802,-0.44744827384266,1.31049248938705,278.834546301448,10.7629458900341,-265.725175503128,"G4",0,0,0,1,0,0,0,0,"Asia","Southern Asia","IND",22.88578035,79.61197355,"S",21.3628318584071,0.31,"Red","Grey","Dotted;Marbled","Pattern","https://purl.org/germplasm/id/4a28dad0-1eaf-4074-9603-88bd3252ef45;https://training.ars-grin.gov/gringlobal/AccessionDetail.aspx?id=1818658"
302,"PI 472561 LSP AGL","India","USDA",NA,NA,1980,"1960-1980",-0.019033327985683,0.000399107682504677,0.00218436025561545,2,-4.85123054262496,0.0993902651649923,1.2111082289835,265.462349397078,6.89396448345084,-250.617001490107,"G4",0,0,0,1,0,0,0,0,"Asia","Southern Asia","IND",22.88578035,79.61197355,"S",25.5442176870748,0.318,"Red","Grey","Dotted;Marbled","Pattern","https://purl.org/germplasm/id/ab72390c-3670-4a43-b695-50d7d215365e;https://training.ars-grin.gov/gringlobal/AccessionDetail.aspx?id=1818659"
303,"PI 472569 LSP AGL","Egypt","USDA",NA,NA,1980,"1960-1980",-0.018203896662638,0.000444728289849537,0.0020748783364212,2,-4.80177984738836,0.386651237464084,0.977030507119484,274.589499635013,10.3895827003019,-261.565301967527,"G4",0,0,0,1,0,0,0,0,"Africa","Northern Africa","EGY",26.49593108,29.8618993,"S",22.7707808564232,0.313,"Red","Grey","Dotted;Marbled","Pattern","https://purl.org/germplasm/id/2bde76c5-d095-4cbe-8191-5ca0fdcf0ac9;https://training.ars-grin.gov/gringlobal/AccessionDetail.aspx?id=1818662"
304,"PI 472588 LSP AGL","Egypt","USDA",NA,NA,1980,"1960-1980",-0.0197545871767145,0.00039789000708728,0.00210761535832204,6,1.15415106807114,0.0401716998212871,0.0243747357914225,176.637305867028,1.8812073515401,128.584106644682,"Mix",0,0.330389,0.669611,0,0,0,0,0,"Africa","Northern Africa","EGY",26.49593108,29.8618993,"M",39.5194541231127,0.448,"Yellow","Green","Dotted","Pattern","https://purl.org/germplasm/id/41eaabd0-4864-41ac-bee6-05e3f81d03de;https://training.ars-grin.gov/gringlobal/AccessionDetail.aspx?id=1818663"
305,"PI 472590 LSP AGL","Lebanon","USDA",NA,NA,1980,"1960-1980",-0.0226808343054741,0.000313840240119954,0.00246117646684974,5,0.669564783580005,-2.41851373352091,0.527851061132764,163.106759261418,3.9178092271543,169.989767951979,"Mix",0.45831,0,0.54169,0,0,0,0,0,"Asia","Western Asia","LBN",33.92306993,35.88016327,"M",45.1387347391787,0.488,"Yellow","Grey","Absent","Absent","https://purl.org/germplasm/id/7613644c-3548-4818-891b-9377e28b178e;https://training.ars-grin.gov/gringlobal/AccessionDetail.aspx?id=1818664"
306,"PI 472615 LSP AGL","Jordan","USDA",NA,NA,1980,"1960-1980",-0.0208634367931187,0.000378709160215949,0.00232646447904839,2,-3.29785270356132,-0.904039595718641,0.559789595014589,-108.752865127854,-154.74909979084,-23.7017162375559,"Mix",0,0.091812,0.000709,0.015358,0.194943,0,0.697178,0,"Asia","Western Asia","JOR",31.24579389,36.77137251,"M",55.4115853658537,0.494,"Yellow","Green","Absent","Absent","https://purl.org/germplasm/id/e31a6f9b-f3a1-4bd5-a887-a86980a7df0c;https://training.ars-grin.gov/gringlobal/AccessionDetail.aspx?id=1818665"
307,"PI 472629 LSP AGL","Iran","USDA",35.18333333,59.38333333,1980,"1960-1980",-0.0235547864432119,0.000517771690320821,0.0023283126099328,4,-0.969852787556989,-1.45585283160249,-1.99674609209582,121.432867948432,61.7683592025418,88.7266240556973,"G1",0.91852,0,0,0,0,0.08148,0,0,"Asia","Southern Asia","IRN",32.41,54.41,"S",35.8556461001164,0.367,"Yellow","Green","Absent","Absent","https://purl.org/germplasm/id/527fba53-099a-4cec-8b65-e25df6a9e5d4;https://training.ars-grin.gov/gringlobal/AccessionDetail.aspx?id=1818666"
308,"PI 477921 LSP AGL","USA","USDA",46.73,-117.16,1983,"1980-2000",-0.0221265611876935,0.00076137967500772,0.0019507553228446,4,-1.72204394879364,0.0190293428630426,-2.672651682336,-192.078605894379,63.3185785163536,0.068314989841478,"Mix",0,0,0,0,0,0,0.387726,0.612273,"Americas","Northern America","USA",39,-101.5,"L",57.910447761194,0.597,"Red/Yellow","Green","Absent","Absent","https://purl.org/germplasm/id/e8fa4eab-3ced-4422-83a2-b78e611ed87a;https://training.ars-grin.gov/gringlobal/AccessionDetail.aspx?id=1818669"
309,"PI 490288 LSP AGL","France","USDA",NA,NA,1984,"1980-2000",-0.0185688428284169,0.000437796029153482,0.00193422194267796,7,2.07080824102897,1.32119870519002,-0.966409687962032,-156.814601129166,176.287262649082,-1.12318626976762,"G8",0,0,0,0,0,0,0,1,"Europe","Western Europe","FRA",46.18700581,2.53618475,"M",33.3926981300089,0.428,"Yellow","Dark Green","Marbled","Pattern","https://purl.org/germplasm/id/11553f36-7e27-49c3-b0d3-0c64ca7e7c9e;https://training.ars-grin.gov/gringlobal/AccessionDetail.aspx?id=1818672;http://grs.icarda.org/accessions/?IG=4740"
310,"PI 490289 LSP AGL","France","USDA",NA,NA,1984,"1980-2000",-0.0218941160242404,0.000342923446301381,0.00234962209923032,6,1.16251105759519,-1.6902419106276,-0.195028864353126,-170.249456141717,116.357429430299,-12.544733576731,"Mix",0,0,0,0,0,0,0.20681,0.79319,"Europe","Western Europe","FRA",46.18700581,2.53618475,"L",48.5333333333333,0.512,"Yellow","Dark Green","Marbled","Pattern","https://purl.org/germplasm/id/dde173dc-4915-4c0e-a3ec-854feb95e789;https://training.ars-grin.gov/gringlobal/AccessionDetail.aspx?id=1818673"
311,"PI 508090 AGL","USA","USDA",46.73,-117.16,1987,"1980-2000",-0.0224174731332598,0.000552606964518869,0.00218792938807677,4,-1.07994705660104,-0.436340178801579,-1.96662408863425,-182.919540277407,79.7490535653333,8.30710483163659,"Mix",0,0,0,0,0,0,0.362935,0.637064,"Americas","Northern America","USA",39,-101.5,"L",61.7441860465116,0.595,"Yellow","Green","Mottle1","Mottle","https://purl.org/germplasm/id/c6507136-1ba9-4421-a9ce-69270e7fcebb;https://training.ars-grin.gov/gringlobal/AccessionDetail.aspx?id=1403026"
312,"PI 518733 LSP AGL","Brazil","USDA",NA,NA,1988,"1980-2000",-0.0147770857328486,0.000370740450005062,0.00165427076650383,8,4.72152192624613,3.67537860439977,0.181950185147357,-176.611518584864,119.94446736542,1.9757770394461,"G8",0,0,0,0,0,0,0.175239,0.82476,"Americas","South America","BRA",-10.78777567,-53.09783199,"M",35.9572400388727,0.476,"Red","Green","Mottle1","Mottle","https://purl.org/germplasm/id/b98ec7d5-9ebe-4f56-870d-21705d4a4e7c;https://training.ars-grin.gov/gringlobal/AccessionDetail.aspx?id=1818678"
313,"PI 518734 LSP AGL","Brazil","USDA",NA,NA,1988,"1980-2000",-0.0142831233063409,0.000349466722373866,0.00163763665329572,8,4.26379762968355,4.38922104921483,0.0250702572797288,-174.2980258896,142.442981502576,0.327431839636226,"G8",0,0,0,0,0,0,0.139283,0.860717,"Americas","South America","BRA",-10.78777567,-53.09783199,"M",31.6514522821577,0.426,"Red","Green","Mottle1","Absent","https://purl.org/germplasm/id/7c1ba88c-10d7-444a-910f-99342b0d505b;https://training.ars-grin.gov/gringlobal/AccessionDetail.aspx?id=1818679"
314,"PI 533688 LSP AGL","Spain","USDA",37.58333333,-4.63333333,1987,"1980-2000",-0.0188596215241839,0.000267993609165986,0.00214770017721388,7,3.59551159644409,-0.498235995533633,1.28031052967351,-190.090273911251,-94.2864192007875,-11.7592886202007,"Mix",0,0,0,0,0,0,0.780678,0.219322,"Europe","Southern Europe","ESP",40.24448626,-3.64754874,"M",69.9277108433735,0.449,"Yellow","Green","Absent","Absent","https://purl.org/germplasm/id/913f2102-d04b-4c35-ae2c-ec9c26ff73ea;https://training.ars-grin.gov/gringlobal/AccessionDetail.aspx?id=1818680"
315,"PI 533693 LSP AGL","Spain","USDA",42.33333333,-5.36666667,1987,"1980-2000",-0.0182273265456259,0.000391938719964303,0.00194720931565969,7,3.19528346048636,0.934786402199663,-0.225255140283356,-159.997880835109,188.509182639081,-6.13388986345194,"G8",0,0,0,0,0,0,0,1,"Europe","Southern Europe","ESP",40.24448626,-3.64754874,"M",33.2950631458094,0.47,"Yellow","Dark Green","Marbled","Pattern","https://purl.org/germplasm/id/7ec2efac-4783-4b67-8c0e-2deca71e67a8;https://training.ars-grin.gov/gringlobal/AccessionDetail.aspx?id=1818683"
316,"PI 612875 AGL","Syria","USDA",NA,NA,NA,NA,-0.0221011792479889,0.000225216212510356,0.00258145846395501,5,-1.84692765619413,-2.38199060628621,2.20244365392386,152.622519307151,31.5781861901452,-155.417214359393,"Mix",0,0.571288,0,0.428712,0,0,0,0,"Asia","Western Asia","SYR",35.24,38.59,"S",29.7913188647746,0.365,"Red","Grey","Dotted","Pattern","https://purl.org/germplasm/id/65202f4c-98d5-47bf-a60f-66dc3abbfdea;https://training.ars-grin.gov/gringlobal/AccessionDetail.aspx?id=1595427"
317,"PI 643451 AGL","Ethiopia","USDA",NA,NA,2006,"2000-2014",-0.0183399181751561,0.000350951770657532,0.00216318517490985,2,-3.6818261188572,-0.0168538541228362,1.61592174437895,198.748733803558,15.9420109099318,-159.918699961534,"Mix",0,0.420444,0,0.579555,0,0,0,0,"Africa","Eastern Africa","ETH",8.62278417,39.6008014,"S",28.7254901960784,0.369,"Red","Grey","Dotted;Marbled","Pattern","https://purl.org/germplasm/id/c5702ee0-194f-498e-b7b9-0805fa370dfb;https://training.ars-grin.gov/gringlobal/AccessionDetail.aspx?id=1712525;http://grs.icarda.org/accessions/?IG=117680"
318,"PI 643452 AGL","Syria","USDA",NA,NA,2006,"2000-2014",-0.0195183247403535,0.000314801805641738,0.00229639763139978,2,-3.78959735709629,-0.401460143605397,1.47329886802222,195.924810379276,15.38156017646,-157.790803009754,"Mix",0,0.420363,0,0.579637,0,0,0,0,"Asia","Western Asia","SYR",35.24,38.59,"M",28.5586392121755,0.422,"Red","Grey","Dotted;Marbled","Pattern","https://purl.org/germplasm/id/08a3c1a9-d7a0-47b5-8881-8c6d9c95ff7a;https://training.ars-grin.gov/gringlobal/AccessionDetail.aspx?id=1712540;http://grs.icarda.org/accessions/?IG=71402"
319,"Shasta AGL","USA","USDA",46.73,-117.16,2008,"2000-2014",-0.0183320127289951,0.000640245374777393,0.0017356138915457,3,0.279862304871553,1.86107491942397,-1.37909315359942,-142.386538727006,65.7462993773987,20.185258295839,"Mix",0.016325,0,0.002668,0,0,0.049163,0.323487,0.608357,"Americas","Northern America","USA",39,-101.5,"L",56.927374301676,0.551,"Yellow","Green","Absent","Absent",NA
320,"W6 27754 LSP AGL","USDA","USDA",NA,NA,2006,"2000-2014",-0.0160081097618917,0.000347410544498504,0.00179639846940473,8,3.86286490089499,2.73238168889673,0.224152390500154,-134.543932140801,149.940401695854,9.36324286746144,"G8",0.030376,0,0,0,0.022194,0,0,0.947429,"Other","Other",NA,NA,NA,"M",39.4712853236098,0.472,"Yellow","Green","Absent","Absent","https://purl.org/germplasm/id/7e3c5e6d-b51f-43c3-8af9-b44fee886227;https://training.ars-grin.gov/gringlobal/AccessionDetail.aspx?id=1818693"
321,"W6 27760 LSP AGL","USDA","USDA",NA,NA,NA,NA,-0.0172752483133885,0.000455583885033414,0.00187852709729408,3,-1.35685285593741,1.96005833759135,-0.0637430824375638,-144.290115409935,104.85450796116,-3.08107672516429,"Mix",0,0,0,0,0,0,0.256745,0.743255,"Other","Other",NA,NA,NA,"M",37.0200573065903,0.443,"Red","Brown","Absent","Absent","https://purl.org/germplasm/id/6b438cde-f20b-42e3-977f-02a2d1887b8c;https://training.ars-grin.gov/gringlobal/AccessionDetail.aspx?id=1852928"
322,"W6 27763 LSP AGL","USDA","USDA",NA,NA,2009,"2000-2014",-0.0215126254824562,0.00021687219828786,0.00250802114367177,5,-0.401714649275485,-2.32981019961695,2.0625448043268,-87.4594535749527,-307.107547156265,3.86496992389385,"G5",0,0,0,0,1,0,0,0,"Other","Other",NA,NA,NA,"M",34.2127659574468,0.41,"Red","Tan","Absent","Absent","https://purl.org/germplasm/id/80c249c2-f4ac-45f6-91f5-a14878ad1231;https://training.ars-grin.gov/gringlobal/AccessionDetail.aspx?id=1852929;http://grs.icarda.org/accessions/?IG=5588"
323,"W6 27766 LSP AGL","USDA","USDA",NA,NA,2006,"2000-2014",-0.0155001196851983,0.000448645173674161,0.00186231239256684,2,-5.36056584597754,1.58636786449282,1.21431054158524,-19.983429901245,55.9189673742563,-33.5745756699906,"Mix",0,0.621093,0,0,0,0,0.127817,0.25109,"Other","Other",NA,NA,NA,"M",36.4832793959008,0.433,"Red","Grey","Dotted","Pattern","https://purl.org/germplasm/id/bdec971e-2a9d-45c5-946c-ec5bf2bdd35f;https://training.ars-grin.gov/gringlobal/AccessionDetail.aspx?id=1818701;http://grs.icarda.org/accessions/?IG=76256"
324,"W6 27767 LSP AGL","USDA","USDA",NA,NA,2006,"2000-2014",-0.019400974036278,0.000235334096056771,0.00228054593046197,5,0.848880201288209,-1.03273190076622,1.99790274889429,69.3803114732912,39.084323838264,-44.5034794230759,"G2",0,1,0,0,0,0,0,0,"Other","Other",NA,NA,NA,"S",35.9785522788204,0.385,"Red","Grey","Dotted","Pattern","https://purl.org/germplasm/id/ff8e9842-8c6e-4c8d-9ebf-756c589a68ad;https://training.ars-grin.gov/gringlobal/AccessionDetail.aspx?id=1818702"
